lat,lng,postal_code,place_id
39.2568638,-96.4396888,66535,ChIJpbnr7UbWvYcROSzD86w7mqQ
39.43190209999999,-96.4503434,66549,ChIJ4VgxOJ7fvYcRec3RkTyCztA
39.43190209999999,-96.4503434,66549,ChIJ4VgxOJ7fvYcRec3RkTyCztA
39.2540853,-96.30134319999999,66547,ChIJpQS6Q_F7vocRVtJT22DTlrg
39.2540853,-96.30134319999999,66547,ChIJpQS6Q_F7vocRVtJT22DTlrg
39.1998042,-96.581008,66506,ChIJK_UzHovNvYcR74uTdySQQaA
39.4223073,-96.62106109999999,66520,ChIJNRyri-XCvYcRqtAJWo3FoN0
38.94403519999999,-96.2800864,66401,ChIJMRSqSD-bvocRE0PKzkdAtdM
38.94403519999999,-96.2800864,66401,ChIJMRSqSD-bvocRE0PKzkdAtdM
38.94403519999999,-96.2800864,66401,ChIJMRSqSD-bvocRE0PKzkdAtdM
38.94403519999999,-96.2800864,66401,ChIJMRSqSD-bvocRE0PKzkdAtdM
39.0961493,-96.5356449,66502,ChIJpRNfRgLTvYcRoTN-3mTtwQo
39.0961493,-96.5356449,66502,ChIJpRNfRgLTvYcRoTN-3mTtwQo
39.114178,-96.7199658,66517,ChIJ3TDRXME0vIcRc8qdS-8TEj0
39.1758127,-96.2163597,66407,ChIJ3UntC55jvocRixMoKD_99uc
39.2326802,-96.6851982,66503,ChIJY1mZUBfGvYcRlCqWLql6LqE
39.2239661,-96.0891032,66536,ChIJOwCCwpZgvocRD-a8Qe9NxDU
39.1228935,-95.62476699999999,66617,ChIJq7Gxe98Gv4cRNq4DdyIYieA
39.1228935,-95.62476699999999,66617,ChIJq7Gxe98Gv4cRNq4DdyIYieA
39.1228935,-95.62476699999999,66617,ChIJq7Gxe98Gv4cRNq4DdyIYieA
39.1228935,-95.62476699999999,66617,ChIJq7Gxe98Gv4cRNq4DdyIYieA
39.1228935,-95.62476699999999,66617,ChIJq7Gxe98Gv4cRNq4DdyIYieA
39.0579929,-95.8881542,66615,ChIJa-QlCI7wvocRJcmknLDXlD0
39.0579929,-95.8881542,66615,ChIJa-QlCI7wvocRJcmknLDXlD0
39.0579929,-95.8881542,66615,ChIJa-QlCI7wvocRJcmknLDXlD0
39.0579929,-95.8881542,66615,ChIJa-QlCI7wvocRJcmknLDXlD0
39.1476313,-95.9621106,66533,ChIJVexttCL2vocRJmke8WhSX3g
39.1476313,-95.9621106,66533,ChIJVexttCL2vocRJmke8WhSX3g
39.1476313,-95.9621106,66533,ChIJVexttCL2vocRJmke8WhSX3g
39.3383265,-96.07851040000001,66422,ChIJV-7CI01dvocRAXAhfdHELr0
39.27409859999999,-95.9198387,66418,ChIJsaTPcEVavocRuw2tqTR8Z9o
39.27409859999999,-95.9198387,66418,ChIJsaTPcEVavocRuw2tqTR8Z9o
39.4785846,-95.9621106,66540,ChIJHXUjPUNHvocRstncryfNejw
39.4457756,-96.19513200000002,66521,ChIJj3riwkBtvocRWBJZKyhBBBw
38.97933520000001,-96.0044121,66507,ChIJFZYyhBjzvocRuPvA8_Uffoo
38.97933520000001,-96.0044121,66507,ChIJFZYyhBjzvocRuPvA8_Uffoo
38.97933520000001,-96.0044121,66507,ChIJFZYyhBjzvocRuPvA8_Uffoo
38.97933520000001,-96.0044121,66507,ChIJFZYyhBjzvocRuPvA8_Uffoo
39.0558421,-96.13149279999999,66526,ChIJ9ZcDVUmJvocRB28YKAfE448
39.0558421,-96.13149279999999,66526,ChIJ9ZcDVUmJvocRB28YKAfE448
39.4742161,-96.0467429,66432,ChIJ9ScadgJAvocR4uB-lx_gn8E
39.2452642,-95.6668306,66440,ChIJ-bKlpICrv4cRiSPWw6JPbRU
39.2452642,-95.6668306,66440,ChIJ-bKlpICrv4cRiSPWw6JPbRU
39.1933875,-95.8775964,66539,ChIJwfiWWpr4vocRMJgDa9U8djc
39.1933875,-95.8775964,66539,ChIJwfiWWpr4vocRMJgDa9U8djc
39.1582314,-95.7510475,66618,ChIJeUUSrav_vocRWzsSp54KhSU
39.1582314,-95.7510475,66618,ChIJeUUSrav_vocRWzsSp54KhSU
39.3218496,-95.7932008,66509,ChIJYWpy9H5SvocRGQgBbWv5ihM
39.3218496,-95.7932008,66509,ChIJYWpy9H5SvocRGQgBbWv5ihM
39.2098829,-95.5407299,66512,ChIJ7fcCrcSnv4cR8pdYluD5Bks
39.2098829,-95.5407299,66512,ChIJ7fcCrcSnv4cR8pdYluD5Bks
39.0842713,-95.6720907,66608,ChIJ08OqjL8Dv4cRJc8IP6CYpKM
39.0842713,-95.6720907,66608,ChIJ08OqjL8Dv4cRJc8IP6CYpKM
39.0842713,-95.6720907,66608,ChIJ08OqjL8Dv4cRJc8IP6CYpKM
39.3616344,-95.6142558,66419,ChIJiUAN1zOwv4cR3zzT8rbm0Jc
39.3616344,-95.6142558,66419,ChIJiUAN1zOwv4cR3zzT8rbm0Jc
39.0932307,-95.37301760000001,66073,ChIJnbs80CYLv4cRjTwg1kaBJQg
39.0932307,-95.37301760000001,66073,ChIJnbs80CYLv4cRjTwg1kaBJQg
39.0932307,-95.37301760000001,66073,ChIJnbs80CYLv4cRjTwg1kaBJQg
39.3183799,-95.435853,66088,ChIJMUoMMgihv4cRPJIpWXEeiJw
39.0962714,-95.5302337,66429,ChIJfbq1rjEPv4cRTduHzVU9hD4
39.0962714,-95.5302337,66429,ChIJfbq1rjEPv4cRTduHzVU9hD4
39.3477038,-95.2475518,66097,ChIJ44S9ityav4cRfDlbirMCJZc
39.3477038,-95.2475518,66097,ChIJ44S9ityav4cRfDlbirMCJZc
39.2039645,-95.4463322,66070,ChIJdQWAXiEKv4cRL3Khg1RAT2Y
39.2039645,-95.4463322,66070,ChIJdQWAXiEKv4cRL3Khg1RAT2Y
39.2196515,-95.33116520000002,66066,ChIJTVxaDBiev4cR0eB_D8wLc0k
39.2196515,-95.33116520000002,66066,ChIJTVxaDBiev4cR0eB_D8wLc0k
39.2196515,-95.33116520000002,66066,ChIJTVxaDBiev4cR0eB_D8wLc0k
39.2196515,-95.33116520000002,66066,ChIJTVxaDBiev4cR0eB_D8wLc0k
39.2253148,-95.2057909,66054,ChIJZ0K4IlJ4v4cRDs-fOtM6smQ
39.2253148,-95.2057909,66054,ChIJZ0K4IlJ4v4cRDs-fOtM6smQ
39.0176677,-95.2057909,66044,ChIJX--DL0llv4cRiSLMZ1mu9V8
39.0176677,-95.2057909,66044,ChIJX--DL0llv4cRiSLMZ1mu9V8
39.0176677,-95.2057909,66044,ChIJX--DL0llv4cRiSLMZ1mu9V8
39.0176677,-95.2057909,66044,ChIJX--DL0llv4cRiSLMZ1mu9V8
39.3514463,-94.9247074,66027,ChIJHbb7VZR6wIcRx_q83gEv9xM
39.4266101,-95.33116520000002,66060,ChIJZ5_BTS2Rv4cR-MAaQEwDhXA
39.2758776,-94.99744609999999,66048,ChIJWwgwRKN-wIcRdJwio_4ytdo
39.2487605,-94.90394239999999,66043,ChIJ_8rbISt9wIcRup4poK52R6I
39.15321670000001,-94.9558696,66007,ChIJ5SbJK42GwIcRG7oXRJQqB9M
39.15321670000001,-94.9558696,66007,ChIJ5SbJK42GwIcRG7oXRJQqB9M
39.3532738,-95.1223608,66020,ChIJRVzcGVGGv4cRG518DbkquzU
38.8125484,-96.7708138,66872,ChIJlbD8bRhAvIcRXK5PsGh0ilI
39.0718795,-94.9143239,66012,ChIJMRknxSSFwIcRXunZmBZv7bU
39.0718795,-94.9143239,66012,ChIJMRknxSSFwIcRXunZmBZv7bU
38.9080095,-96.55698819999999,66849,ChIJz9btzl0jvIcR2pvp9-DNh9k
39.1063191,-95.0806918,66086,ChIJG4vw5sN9v4cR2_06YPiJiiA
39.1063191,-95.0806918,66086,ChIJG4vw5sN9v4cR2_06YPiJiiA
39.0609319,-95.72471689999999,66606,ChIJcYUXsHgCv4cRbGdP9VgbsMI
38.851514,-96.4503434,66834,ChIJeyWkygIfvIcR1Z3GSb_pT1Q
38.851514,-96.4503434,66834,ChIJeyWkygIfvIcR1Z3GSb_pT1Q
38.8500753,-96.0891032,66423,ChIJ46a2Cc6VvocRPgonc7cSeiA
38.8500753,-96.0891032,66423,ChIJ46a2Cc6VvocRPgonc7cSeiA
34.2769462,-119.2769253,93001,ChIJhSrSkxCp6YARCIBjO3YV5uo
34.4163612,-118.8829816,93015,ChIJkzUAdCkz6IARk5HES5joVcU
34.2894584,-118.5622893,91326,ChIJl3_ZGraEwoAR5UIKOEihwUs
34.2894584,-118.5622893,91326,ChIJl3_ZGraEwoAR5UIKOEihwUs
34.2894584,-118.5622893,91326,ChIJl3_ZGraEwoAR5UIKOEihwUs
34.2894584,-118.5622893,91326,ChIJl3_ZGraEwoAR5UIKOEihwUs
34.5125711,-119.3714909,93023,ChIJo2vlNy8I6YARR1F8pa83PFI
34.3925151,-119.3076098,93022,ChIJSyxtBV6v6YAR-V25l8OGY68
34.1451995,-119.1942983,93041,ChIJBZjVAVNP6IARKvCMSdovP8o
34.2989933,-119.0227159,93066,ChIJ4-5uK1k16IARKB0AoYw3_5I
34.2985355,-119.2204548,93003,ChIJrxEAhauy6YARKXvz_wo4u8E
34.4089106,-119.0692659,93060,ChIJm8slWcK16YARPbCbb85s5Dk
34.7936796,-118.8363756,93243,ChIJ-ybvNePv6YARly2NZwfgkTw
34.2942772,-118.8829816,93021,ChIJO-qmi1cy6IAR3zMPL7MEMyM
34.7797056,-119.2785638,93252,ChIJQ3gNuEOA6YAR0nfkdp4KSBM
34.2295937,-118.9761519,93012,ChIJ_UvEIlQ26IARaVceEni4vUo
34.5096515,-118.8363756,93040,ChIJTUUXM4jT6YARMDRzmVw8C-A
34.4338228,-118.5155901,91350,ChIJY9OgTM9jwoARRsW9prTl53M
34.1799855,-118.4601175,91411,ChIJzzjvlBqXwoARJWhQqrR17_c
34.1799855,-118.4601175,91411,ChIJzzjvlBqXwoARJWhQqrR17_c
34.0352816,-118.5068325,90402,ChIJ97uch6SkwoARrdlUDyM3IIo
34.02875,-118.4717975,90404,ChIJzx2UeTm7woARfdUL3cYLfFI
34.0126379,-118.495155,90401,ChIJy_HKAs6kwoARr_r8wPu4zxM
34.1583323,-118.5155901,91316,ChIJPeD1uUyYwoAR-lBmAKU0Q7s
34.1423899,-118.4571974,91403,ChIJ9TIaqsKXwoARjsLe3TCF_FA
34.1482691,-118.4338345,91423,ChIJr3uNPtGXwoAR7fnJr8VNl7g
34.1540054,-118.4922355,91436,ChIJ1RK54SCYwoARNxXZwHEWY94
34.1540054,-118.4922355,91436,ChIJ1RK54SCYwoARNxXZwHEWY94
34.1785255,-118.597305,91367,ChIJ07lY0YKewoARrZQRxxMkSSw
34.0963058,-118.4980744,90049,ChIJx9iMCdaiwoARwYDGNPwyNEI
34.2413938,-118.5506158,91324,ChIJ_Q3znAmbwoARb10CmwO9_eo
34.1103407,-118.2585096,90039,ChIJRdgrSdHAwoARVHoVdiFadQI
34.0309972,-118.319894,90018,ChIJ-aHumRS4woARPxffASeKbXQ
34.0655627,-118.3096648,90020,ChIJw8RhqZC4woARUXQ9Fr9GpcY
34.06170609999999,-118.2789735,90057,ChIJp1ch1wrHwoARBzOjbfx3jHs
33.9885683,-118.3666482,90056,ChIJAaJPnF23woARvpCmkX2TjrY
34.0543797,-118.2672801,90017,ChIJW9EHUaXHwoARgRwmyTwx9OU
34.0470832,-118.2965121,90006,ChIJbS5ayIXHwoARv4tU7TQ_dfc
34.0220127,-118.2892046,90089,ChIJcwqJCjHGwoARnpnPv4sV_4M
34.0434783,-118.2519314,90014,ChIJAf09JTTGwoARN_YCAlwyWA8
34.081032,-118.2117257,90031,ChIJTYZSroHGwoART0LFOquMLFc
34.1103407,-118.2585096,90039,ChIJRdgrSdHAwoARVHoVdiFadQI
34.0309972,-118.319894,90018,ChIJ-aHumRS4woARPxffASeKbXQ
34.0655627,-118.3096648,90020,ChIJw8RhqZC4woARUXQ9Fr9GpcY
34.06170609999999,-118.2789735,90057,ChIJp1ch1wrHwoARBzOjbfx3jHs
33.9885683,-118.3666482,90056,ChIJAaJPnF23woARvpCmkX2TjrY
34.0543797,-118.2672801,90017,ChIJW9EHUaXHwoARgRwmyTwx9OU
34.0470832,-118.2965121,90006,ChIJbS5ayIXHwoARv4tU7TQ_dfc
34.0220127,-118.2892046,90089,ChIJcwqJCjHGwoARnpnPv4sV_4M
34.0434783,-118.2519314,90014,ChIJAf09JTTGwoARN_YCAlwyWA8
34.081032,-118.2117257,90031,ChIJTYZSroHGwoART0LFOquMLFc
34.1103407,-118.2585096,90039,ChIJRdgrSdHAwoARVHoVdiFadQI
34.0309972,-118.319894,90018,ChIJ-aHumRS4woARPxffASeKbXQ
34.0655627,-118.3096648,90020,ChIJw8RhqZC4woARUXQ9Fr9GpcY
34.06170609999999,-118.2789735,90057,ChIJp1ch1wrHwoARBzOjbfx3jHs
33.9885683,-118.3666482,90056,ChIJAaJPnF23woARvpCmkX2TjrY
34.0543797,-118.2672801,90017,ChIJW9EHUaXHwoARgRwmyTwx9OU
34.0470832,-118.2965121,90006,ChIJbS5ayIXHwoARv4tU7TQ_dfc
34.0220127,-118.2892046,90089,ChIJcwqJCjHGwoARnpnPv4sV_4M
34.0434783,-118.2519314,90014,ChIJAf09JTTGwoARN_YCAlwyWA8
34.081032,-118.2117257,90031,ChIJTYZSroHGwoART0LFOquMLFc
34.1103407,-118.2585096,90039,ChIJRdgrSdHAwoARVHoVdiFadQI
34.0309972,-118.319894,90018,ChIJ-aHumRS4woARPxffASeKbXQ
34.0655627,-118.3096648,90020,ChIJw8RhqZC4woARUXQ9Fr9GpcY
34.06170609999999,-118.2789735,90057,ChIJp1ch1wrHwoARBzOjbfx3jHs
33.9885683,-118.3666482,90056,ChIJAaJPnF23woARvpCmkX2TjrY
34.0543797,-118.2672801,90017,ChIJW9EHUaXHwoARgRwmyTwx9OU
34.0470832,-118.2965121,90006,ChIJbS5ayIXHwoARv4tU7TQ_dfc
34.0220127,-118.2892046,90089,ChIJcwqJCjHGwoARnpnPv4sV_4M
34.0434783,-118.2519314,90014,ChIJAf09JTTGwoARN_YCAlwyWA8
34.081032,-118.2117257,90031,ChIJTYZSroHGwoART0LFOquMLFc
34.1103407,-118.2585096,90039,ChIJRdgrSdHAwoARVHoVdiFadQI
34.0309972,-118.319894,90018,ChIJ-aHumRS4woARPxffASeKbXQ
34.0655627,-118.3096648,90020,ChIJw8RhqZC4woARUXQ9Fr9GpcY
34.06170609999999,-118.2789735,90057,ChIJp1ch1wrHwoARBzOjbfx3jHs
33.9885683,-118.3666482,90056,ChIJAaJPnF23woARvpCmkX2TjrY
34.0543797,-118.2672801,90017,ChIJW9EHUaXHwoARgRwmyTwx9OU
34.0470832,-118.2965121,90006,ChIJbS5ayIXHwoARv4tU7TQ_dfc
34.0220127,-118.2892046,90089,ChIJcwqJCjHGwoARnpnPv4sV_4M
34.0434783,-118.2519314,90014,ChIJAf09JTTGwoARN_YCAlwyWA8
34.081032,-118.2117257,90031,ChIJTYZSroHGwoART0LFOquMLFc
34.0748887,-118.3082034,90004,ChIJnUiVTaO4woARcteG_AhMtbg
34.007889,-118.2585096,90011,ChIJx6KNd2TIwoARthOfLDOp-KM
34.052996,-118.2548551,90071,ChIJTSuDGLLHwoARmWW5GQ70xLM
34.00637469999999,-118.2234229,90058,ChIJDeH8s8TIwoARYQFWkBcCzFk
34.0796167,-118.2585096,90026,ChIJvYIO4xnHwoARACebRajimuk
34.0578814,-118.3096648,90005,ChIJ0U_geYS4woAR6-RMnUWG2Gc
34.0031792,-118.3082034,90062,ChIJQebnRPq3woARvdBCzyN549A
34.0295114,-118.2848199,90007,ChIJO-2J5-XHwoARzizvVbUCXpU
34.0445905,-118.2405557,90013,ChIJoWq2gzfGwoARuW_YRHxN7Sg
34.0653347,-118.243891,90012,ChIJod_IT1jGwoARAWmb8lcnY84
34.0748887,-118.3082034,90004,ChIJnUiVTaO4woARcteG_AhMtbg
34.007889,-118.2585096,90011,ChIJx6KNd2TIwoARthOfLDOp-KM
34.052996,-118.2548551,90071,ChIJTSuDGLLHwoARmWW5GQ70xLM
34.00637469999999,-118.2234229,90058,ChIJDeH8s8TIwoARYQFWkBcCzFk
34.0796167,-118.2585096,90026,ChIJvYIO4xnHwoARACebRajimuk
34.0578814,-118.3096648,90005,ChIJ0U_geYS4woAR6-RMnUWG2Gc
34.0031792,-118.3082034,90062,ChIJQebnRPq3woARvdBCzyN549A
34.0295114,-118.2848199,90007,ChIJO-2J5-XHwoARzizvVbUCXpU
34.0445905,-118.2405557,90013,ChIJoWq2gzfGwoARuW_YRHxN7Sg
34.0653347,-118.243891,90012,ChIJod_IT1jGwoARAWmb8lcnY84
34.0748887,-118.3082034,90004,ChIJnUiVTaO4woARcteG_AhMtbg
34.007889,-118.2585096,90011,ChIJx6KNd2TIwoARthOfLDOp-KM
34.052996,-118.2548551,90071,ChIJTSuDGLLHwoARmWW5GQ70xLM
34.00637469999999,-118.2234229,90058,ChIJDeH8s8TIwoARYQFWkBcCzFk
34.0796167,-118.2585096,90026,ChIJvYIO4xnHwoARACebRajimuk
34.0578814,-118.3096648,90005,ChIJ0U_geYS4woAR6-RMnUWG2Gc
34.0031792,-118.3082034,90062,ChIJQebnRPq3woARvdBCzyN549A
34.0295114,-118.2848199,90007,ChIJO-2J5-XHwoARzizvVbUCXpU
34.0445905,-118.2405557,90013,ChIJoWq2gzfGwoARuW_YRHxN7Sg
34.0653347,-118.243891,90012,ChIJod_IT1jGwoARAWmb8lcnY84
34.0748887,-118.3082034,90004,ChIJnUiVTaO4woARcteG_AhMtbg
34.007889,-118.2585096,90011,ChIJx6KNd2TIwoARthOfLDOp-KM
34.052996,-118.2548551,90071,ChIJTSuDGLLHwoARmWW5GQ70xLM
34.00637469999999,-118.2234229,90058,ChIJDeH8s8TIwoARYQFWkBcCzFk
34.0796167,-118.2585096,90026,ChIJvYIO4xnHwoARACebRajimuk
34.0578814,-118.3096648,90005,ChIJ0U_geYS4woAR6-RMnUWG2Gc
34.0031792,-118.3082034,90062,ChIJQebnRPq3woARvdBCzyN549A
34.0295114,-118.2848199,90007,ChIJO-2J5-XHwoARzizvVbUCXpU
34.0445905,-118.2405557,90013,ChIJoWq2gzfGwoARuW_YRHxN7Sg
34.0653347,-118.243891,90012,ChIJod_IT1jGwoARAWmb8lcnY84
34.0149091,-118.1064156,90640,ChIJpSzR_LHRwoARsOxIhXqE93A
34.0427819,-118.1181199,91755,ChIJ4Tn47fzPwoAR_QJ-tPgakdw
34.0472318,-118.1415261,91754,ChIJDZpegmLFwoAR9CGPu169W48
34.0440239,-118.1854042,90063,ChIJUYr7DPTFwoARa52MnfTvTn4
33.9930471,-118.153228,90040,ChIJVyyRf1vOwoARRc3I46rRnl0
34.0779881,-118.1415261,91803,ChIJd2eTbhLFwoARlNF6vURIAVg
34.0238187,-118.153228,90022,ChIJ3y4U36DPwoARDHn0BdQSF3U
34.10885,-118.2234229,90065,ChIJtQUbe7XGwoARF6lcEsUOJ8M
34.0502898,-118.2117257,90033,ChIJE5isUAnGwoARVnuwYRhTlwU
34.0795169,-118.1766294,90032,ChIJifaGGLTFwoARHMa_zIr84o8
34.0224471,-118.2000277,90023,ChIJIx09IErPwoARjgZb8t9y6gc
34.0837958,-118.1181199,91801,ChIJ_YO48yHFwoARGT3hwYlTi-k
33.9870228,-118.0947106,90660,ChIJmSw1eA7RwoARYBnXELtoHT4
34.06173649999999,-118.0830047,91770,ChIJn67Q6nHQwoARZdREJfhee-w
34.0499095,-118.0478826,91733,ChIJuzFUNu7QwoARfo4jIz_wRcE
34.0895991,-118.0947106,91776,ChIJE1SN6MDawoAREqSFzeXIETc
34.0982956,-118.0595907,91780,ChIJub6S_0TawoARiXZERYrKt3E
34.0080684,-118.0303189,90601,ChIJf6ungUbRwoARA0tB0U6hYx4
34.0835771,-118.0361736,91731,ChIJrVcpyafQwoARvVnwE0ISits
34.0837958,-118.1181199,91801,ChIJ_YO48yHFwoARGT3hwYlTi-k
34.1505836,-118.1418918,91188,ChIJ7d0R7W7DwoARzxQr0tagzfo
34.1406082,-118.1678543,91105,ChIJN_0LBpvDwoARD3ifzvgwLW0
34.0923467,-118.1256175,91802,ChIJQVjjpCfFwoAR7bGSOgsDQqs
34.1378866,-118.1247032,91125,ChIJveCfcqbEwoARq68aADY0U2g
34.1527251,-118.2117257,91206,ChIJ17UZUILBwoARpwOaueMBOBM
34.1657707,-118.1181199,91104,ChIJu6YZITDDwoAROS7flWTC9qM
34.1561783,-118.1528623,91109,ChIJL6XKDQzDwoARQ1hb32t6UYg
34.1427587,-118.1386005,91101,ChIJdwuu82jDwoAR26oI-Gh3dBI
34.1485444,-118.1539593,91124,ChIJ7d0R7W7DwoAR6QdTVfpVCL4
34.1672881,-118.153228,91103,ChIJ84Xs8VTCwoARv5KuKEOj1wc
33.9574105,-118.1210458,90240,ChIJhw9VpIzNwoARFrDi0H0Uquo
33.96672119999999,-118.1766294,90201,ChIJHeXp4n3OwoARDV7-Ym6a6P0
33.9198647,-118.2000277,90262,ChIJO0BEJHnMwoARpXp2BDxDLfw
33.9372725,-118.1298234,90241,ChIJkSIIHkzMwoARvdZ49qDVJC8
33.9876248,-118.1854042,90270,ChIJka85PsPOwoARyD-KJjIARAQ
33.9167378,-118.1298234,90242,ChIJr8opMAzNwoAR09flvpRBoSM
33.9756107,-118.2234229,90255,ChIJff-fqjDJwoARL-tiJOpHoBc
33.9432948,-118.188329,90280,ChIJBUVN6gbMwoARXHUxMz0Xkkk
33.9574105,-118.1210458,90240,ChIJhw9VpIzNwoARFrDi0H0Uquo
33.9414796,-118.0712981,90670,ChIJZ_aWUT_SwoARQ2_HCqXASec
33.8640647,-118.1766294,90805,ChIJ5RqC_Dgz3YARLmTzUR1PasE
33.89777370000001,-118.1649291,90723,ChIJWX6mUNnMwoAR0FF95HtM4MY
33.8890686,-118.2000277,90221,ChIJNVD-hFjLwoARy_eAhwM10Iw
33.8822393,-118.1239717,90706,ChIJ2VEHX7Ay3YARHDE_gEd0vv8
33.9045543,-118.0127534,90638,ChIJ1VGQBF0r3YAR2tM9EPmg_as
33.90777509999999,-118.0830047,90650,ChIJTeNcdMzSwoARok9NFvSO3YM
33.8648303,-118.0800782,90701,ChIJv-IkxQAt3YARujLBmKZkfeo
33.8724552,-118.0595907,90703,ChIJhe3MBVQs3YAR49fPgzQ1Zls
33.9324943,-118.0244639,90604,ChIJlRb_yKXUwoARqDyVqrmD7EI
33.9548846,-118.0273914,90605,ChIJdyEEWHvTwoARkeSBvSW4490
33.9226618,-117.9600466,90631,ChIJ7zyOQzHVwoARDSaqAaaUsH0
33.9041552,-117.9307584,92835,ChIJx78tx4LV3IAR71i53Kl1QDs
33.8428724,-118.0127534,90620,ChIJLRw_Mfor3YARTKvbSpOhzUw
33.8749591,-117.9659037,92833,ChIJjSzuRU8q3YARcRuyaj9QWHw
33.8794822,-117.9893301,90621,ChIJV_HJuKIr3YARdBzEpY8RB9E
33.9443011,-117.9931472,90603,ChIJt9r2h-rUwoARbTPCDVN6qrE
33.8802416,-117.8604472,92870,ChIJFQDVABTU3IARLPx05CLUaXo
33.9316733,-117.8604472,92821,ChIJEybNRcPU3IARKprPdsYhGyk
33.9226618,-117.9600466,90631,ChIJ7zyOQzHVwoARDSaqAaaUsH0
33.8733037,-117.9307584,92832,ChIJqQC2PAYq3YARs6QfSrPXgm8
33.83029800000001,-118.0742249,90716,ChIJHbOxc9Et3YAR3rmk77JVnKU
33.8477257,-118.1181199,90713,ChIJYfh114At3YARPfRjs5XzAJg
33.7963296,-118.1181199,90815,ChIJCUo8bWsu3YARFPAhua5gPVY
33.816539,-118.0361736,90630,ChIJ96D79Lwu3YARJZ6C-f-9bkU
33.8413324,-118.0783974,90715,ChIJM1cZv8ct3YAR9lkT1IoRLJg
33.7976003,-118.0712981,90720,ChIJ1y_iJPYu3YAR9Kzia_07i10
33.8197825,-118.1064156,90808,ChIJQTP7fPYt3YARPCpWy6CCrIw
33.8477954,-118.0449554,90623,ChIJs1FjRBUs3YARX1ebtE9G36c
33.8493162,-118.153228,90712,ChIJxb1QS1cy3YAR8PUW1DpKoSY
33.82353,-117.9659037,92804,ChIJ3QsnYO8o3YARa8RwY_StHzE
33.7897841,-117.9776173,92841,ChIJTzjNZO4o3YARW-ngAq7XVm0
33.80248220000001,-117.9930967,90680,ChIJY2t-9JUo3YARlXoXKyBDjVM
33.7876938,-117.9336874,92840,ChIJr3IWUxso3YARVnZ0rKzTUEk
33.8469812,-117.9541894,92801,ChIJReGUjYgp3YARhEcBefbQSiM
33.8186385,-117.8282121,92867,ChIJd5S7kKXQ3IARdEHrgvzmrPM
33.8316472,-117.848726,92865,ChIJl02JfCHX3IAR8WN5FVW_H2U
33.78659,-117.8750976,92868,ChIJZ5JLj4DX3IAR7aFU53ZhlMQ
33.8276052,-117.9073244,92805,ChIJpZfadDPW3IARQS5SnbidISg
33.7876938,-117.9336874,92840,ChIJr3IWUxso3YARVnZ0rKzTUEk
33.8124094,-117.9192679,92802,ChIJlzF2M37Y3IARcMmEqocB8TA
33.9962144,-118.4688776,90291,ChIJccvyIm6wwoARPUjnxdzZTb4
34.00974600000001,-118.4659576,90405,ChIJKRbYoiC7woARpyZGrvxhMK4
34.0279895,-118.495155,90403,ChIJR28vbrSkwoARnlptycD8XV8
33.9516114,-118.3875775,90045,ChIJEw49FNGwwoARmGm4VcYDPME
33.9519253,-118.3082034,90047,ChIJ-agEgiG2woARBGwkJZrE9jY
33.93583520000001,-118.3315838,90303,ChIJqZNe_262woARG6f-ERdRuWw
33.9962144,-118.4688776,90291,ChIJccvyIm6wwoARPUjnxdzZTb4
34.0324632,-118.395863,90034,ChIJNUopVdO7woARwEa3tzegbF4
33.9933257,-118.3987842,90230,ChIJuVGw2QG6woARwy1F6-L3E7g
33.8922687,-118.3520389,90260,ChIJ15853k20woARZVcs3KAutgU
33.8658064,-118.2935891,90248,ChIJD6E9eI_KwoARDbqADCX9Tks
34.1235157,-118.3286614,90068,ChIJe8yV_Qm_woARG11XQdg0LvI
33.8863314,-118.2935891,90247,ChIJWxnyLIe1woAR9pwEI8RGzjw
34.0255188,-118.3520389,90016,ChIJicNEtbG5woARqt-Rk1EYSYk
33.9508728,-118.4455164,90293,ChIJSbFuy1ewwoAReHMt-1m308g
33.8600693,-118.3987842,90254,ChIJE0VBZX-zwoARa4QAWAGjuKw
34.0050173,-118.4338345,90066,ChIJj5yPAp-wwoARAPx6fn_dQhA
33.9903827,-118.3286614,90043,ChIJMxJeHpm3woARYxFDEnhvhcc
33.9596334,-118.3286614,90305,ChIJz0EHoU22woARlIaQQL2A8B8
33.9150066,-118.4046264,90245,ChIJ_WKFOk6xwoARlxes1TmpWOo
33.8954945,-118.3776043,90261,ChIJ61atxxO0woAReUKW_ICvOM8
33.9387862,-118.3608046,90304,ChIJBRDczJK2woARya0akWiNr4Y
33.9478802,-118.2935891,90044,ChIJv6z5Md7JwoARAjJB4aYV3GE
33.865913,-118.3754131,90278,ChIJYzAGDmC0woARiO4kjZOuVFM
33.901022,-118.3169714,90249,ChIJ5SIeqZa1woARzbSBwtpIIzc
33.9742906,-118.3520389,90302,ChIJTfxqMwy3woARySyZj9_ytLk
33.9127807,-118.3520389,90250,ChIJj_0QaCu0woARY3UjcWGMZI4
33.9537917,-118.3520389,90301,ChIJCb6At-K2woAR4hO1pFWpd_k
33.8908371,-118.3987842,90266,ChIJF_3wBvCzwoARgml7tLb4Mus
34.002058,-118.2818967,90037,ChIJA16kfBDIwoARn0WVCK0nHGk
33.8954945,-118.3776043,90261,ChIJ61atxxO0woAReUKW_ICvOM8
33.9387862,-118.3608046,90304,ChIJBRDczJK2woARya0akWiNr4Y
33.9478802,-118.2935891,90044,ChIJv6z5Md7JwoARAjJB4aYV3GE
33.865913,-118.3754131,90278,ChIJYzAGDmC0woARiO4kjZOuVFM
33.901022,-118.3169714,90249,ChIJ5SIeqZa1woARzbSBwtpIIzc
33.9742906,-118.3520389,90302,ChIJTfxqMwy3woARySyZj9_ytLk
33.9127807,-118.3520389,90250,ChIJj_0QaCu0woARY3UjcWGMZI4
33.9537917,-118.3520389,90301,ChIJCb6At-K2woAR4hO1pFWpd_k
33.8908371,-118.3987842,90266,ChIJF_3wBvCzwoARgml7tLb4Mus
34.002058,-118.2818967,90037,ChIJA16kfBDIwoARn0WVCK0nHGk
34.0236878,-118.3900204,90232,ChIJCZCOSIi5woARoUAh9jLo9jk
33.9684276,-118.4571974,90292,ChIJ_1-3Z4K6woARi68xMJmIPgM
33.97448060000001,-118.4177707,90094,ChIJcSLeLoSwwoARPwtPA987p3o
34.0083231,-118.3491169,90008,ChIJHSn2xi24woARIPEp9jxydyw
33.8844585,-118.329392,90506,ChIJkTRQEqe1woARIu0WsFQRI_s
33.8673266,-118.3286614,90504,ChIJoYadoxC1woARE11M5vh5b2E
33.9788726,-118.2592405,90052,ChIJVy5nc6zJwoARHxQQzzCYbDs
33.9196443,-118.2731269,90061,ChIJnVLaQz7KwoARA-5t9NQ3t8k
33.9287591,-118.2468148,90059,ChIJO-R_SbXLwoAR5SrFdpIMKCY
33.9657994,-118.2731269,90003,ChIJGYwGXTbIwoARgtjTQQ4bgu0
33.7241323,-118.2643567,90731,ChIJbZBSWS423YAR6RMKfvP597A
33.7349075,-118.3140488,90732,ChIJjbJ4UN1J3YAR8MNsGLdlEbg
33.8291867,-118.3169714,90501,ChIJK0x8WbpK3YARyQEsVay7JjQ
33.8409696,-118.3520389,90503,ChIJl_CpWNG0woAR26ENUqbZRSA
33.7957752,-118.2965121,90710,ChIJkf1Idog13YARS5aeo6ahyWc
33.8101772,-118.3520389,90505,ChIJa-cKOQNL3YAR6QwcoVqGFLM
33.7456493,-118.3637264,90275,ChIJ74E8l9pL3YARpqSH1TuPzak
33.7793751,-118.3520389,90274,ChIJ6xD4z5VL3YARbw99W82HZIM
33.8322129,-118.3870991,90277,ChIJ21QjSay0woARlMr-JBUr2lk
33.7950887,-118.319894,90717,ChIJK0YoW2VK3YARQcQyWNviG_g
33.7241323,-118.2643567,90731,ChIJbZBSWS423YAR6RMKfvP597A
33.7349075,-118.3140488,90732,ChIJjbJ4UN1J3YAR8MNsGLdlEbg
33.8291867,-118.3169714,90501,ChIJK0x8WbpK3YARyQEsVay7JjQ
33.8409696,-118.3520389,90503,ChIJl_CpWNG0woAR26ENUqbZRSA
33.7957752,-118.2965121,90710,ChIJkf1Idog13YARS5aeo6ahyWc
33.8101772,-118.3520389,90505,ChIJa-cKOQNL3YAR6QwcoVqGFLM
33.7456493,-118.3637264,90275,ChIJ74E8l9pL3YARpqSH1TuPzak
33.7793751,-118.3520389,90274,ChIJ6xD4z5VL3YARbw99W82HZIM
33.8322129,-118.3870991,90277,ChIJ21QjSay0woARlMr-JBUr2lk
33.7950887,-118.319894,90717,ChIJK0YoW2VK3YARQcQyWNviG_g
33.8084732,-118.1495712,90822,ChIJEdFT1tAx3YARb4MOS_wbAbg
33.8020217,-118.1678543,90755,ChIJW69O0NYz3YARQf9n61Yq9fk
33.8332465,-118.1766294,90807,ChIJv2Yo2Z4z3YAR3bjYTKRtL3w
33.8301142,-118.145183,90846,ChIJIyJvGEEy3YARcKWGCt3E0vE
33.8113701,-118.2234229,90810,ChIJ6-yUUmQ03YARO2blzFAqLKo
33.8065036,-118.1912538,90806,ChIJy2kXzsQz3YARDoL3QhI8HOQ
33.798194,-118.1495712,90809,ChIJS83piDsx3YAR3GEDlXrOqtM
33.7806646,-118.1503026,90804,ChIJW9XxnKIx3YARZLqfar9aVEQ
33.7844997,-118.1971031,90813,ChIJRZJgBEMx3YAR0UsDImtqsiQ
33.7241323,-118.2643567,90731,ChIJbZBSWS423YAR6RMKfvP597A
33.8641714,-118.2558801,90747,ChIJ0XjW49bKwoARpzo6cEUYQK0
33.8540061,-118.2585096,90746,ChIJVxTMb9TKwoARCqUhJcTgkTc
33.7857948,-118.2643567,90744,ChIJg-kroNY13YARGCkm1Vh0rio
33.8331717,-118.2906661,90502,ChIJHXKSBlw13YARNt0vM6lStrI
33.8803536,-118.2351192,90220,ChIJz_lLtDrLwoARDs9HPVnbB5s
33.8232001,-118.2585096,90745,ChIJVcq3R_s03YAROdAslgb8AEg
33.7857948,-118.2643567,90744,ChIJg-kroNY13YARGCkm1Vh0rio
33.7415317,-118.1941785,90802,ChIJMzmPf9Yw3YARYBj1xx2Vzs0
33.7415317,-118.1941785,90802,ChIJMzmPf9Yw3YARYBj1xx2Vzs0
33.8641714,-118.2558801,90747,ChIJ0XjW49bKwoARpzo6cEUYQK0
33.8540061,-118.2585096,90746,ChIJVxTMb9TKwoARCqUhJcTgkTc
33.7857948,-118.2643567,90744,ChIJg-kroNY13YARGCkm1Vh0rio
33.8331717,-118.2906661,90502,ChIJHXKSBlw13YARNt0vM6lStrI
33.8803536,-118.2351192,90220,ChIJz_lLtDrLwoARDs9HPVnbB5s
33.8232001,-118.2585096,90745,ChIJVcq3R_s03YAROdAslgb8AEg
33.7857948,-118.2643567,90744,ChIJg-kroNY13YARGCkm1Vh0rio
33.7415317,-118.1941785,90802,ChIJMzmPf9Yw3YARYBj1xx2Vzs0
33.7415317,-118.1941785,90802,ChIJMzmPf9Yw3YARYBj1xx2Vzs0
33.8641714,-118.2558801,90747,ChIJ0XjW49bKwoARpzo6cEUYQK0
33.8540061,-118.2585096,90746,ChIJVxTMb9TKwoARCqUhJcTgkTc
33.7857948,-118.2643567,90744,ChIJg-kroNY13YARGCkm1Vh0rio
33.8331717,-118.2906661,90502,ChIJHXKSBlw13YARNt0vM6lStrI
33.8803536,-118.2351192,90220,ChIJz_lLtDrLwoARDs9HPVnbB5s
33.8232001,-118.2585096,90745,ChIJVcq3R_s03YAROdAslgb8AEg
33.7857948,-118.2643567,90744,ChIJg-kroNY13YARGCkm1Vh0rio
33.7415317,-118.1941785,90802,ChIJMzmPf9Yw3YARYBj1xx2Vzs0
33.7523035,-118.1298234,90803,ChIJz1waa8Qv3YAR564JKtxqUlA
33.7709051,-118.1429889,90814,ChIJmRhOpbAx3YARkmLbvEIu60I
33.7684556,-118.2022212,90831,ChIJ51Zce58x3YARRnqkjsm3Pr0
33.721051,-118.0478826,92649,ChIJ4Xhr1p8l3YARjbPAXRC5ZZo
33.7535679,-118.0830047,90740,ChIJ6_ChXJcv3YARQ0JI4tMibBY
33.7531536,-118.0010421,92683,ChIJySa-XyIm3YARefj3Tx-hJkQ
33.7852683,-118.0273914,92845,ChIJS-H7KC4v3YARv0KhnM_bCyc
33.7838081,-118.1206801,90840,ChIJc_W829kx3YARO_xniZLZZCo
33.7222674,-118.0010421,92647,ChIJIziS1WQm3YARMGL9FEf4_5I
33.721051,-118.0478826,92649,ChIJ4Xhr1p8l3YARjbPAXRC5ZZo
33.6781963,-118.0127534,92648,ChIJoXi9rwMk3YARJUbEqEVifok
33.7636344,-117.9688322,92844,ChIJN_oLeSsm3YARGolu3brxiTs
33.7675239,-117.9424743,92843,ChIJ1Z-2fXXY3IARfcJwDfOJBc8
33.746245,-117.9820097,92655,ChIJdxVrTTgm3YARRwek1oPjW40
33.7168761,-117.9600466,92708,ChIJWQ8CpxUn3YARrm1qigsRBVc
33.6496252,-117.9190418,92627,ChIJf3GTF4Tf3IAReSBiWd8MU8Y
33.6587745,-117.9659037,92646,ChIJLzLbxd0g3YARjubNvYEkdgs
33.7168761,-117.9600466,92708,ChIJWQ8CpxUn3YARrm1qigsRBVc
33.7636344,-117.9688322,92844,ChIJN_oLeSsm3YARGolu3brxiTs
33.7675239,-117.9424743,92843,ChIJ1Z-2fXXY3IARfcJwDfOJBc8
33.746245,-117.9820097,92655,ChIJdxVrTTgm3YARRwek1oPjW40
33.7168761,-117.9600466,92708,ChIJWQ8CpxUn3YARrm1qigsRBVc
33.7463915,-117.8604472,92701,ChIJP_GQJwvZ3IARJX-c00My-_8
33.7246333,-117.9073244,92704,ChIJLQvgJZjY3IARq7G6JsWFMJo
33.7675239,-117.9424743,92843,ChIJ1Z-2fXXY3IARfcJwDfOJBc8
33.7126158,-117.8721676,92707,ChIJncNaPC_Z3IARkJj9IRdHbn8
33.7532358,-117.7901088,92705,ChIJF6Lm107Z3IARRXajrh0se74
33.7526686,-117.9190418,92703,ChIJC96KR1jY3IARFZZgbQN2aaA
33.7645595,-117.8809574,92706,ChIJZSKopDXY3IARZl7LHeNWvHg
33.8362104,-117.8721676,92806,ChIJczjeyfvW3IARbMMYkYMSLZQ
33.78344939999999,-117.8457956,92866,ChIJP1Hqv-_Z3IARvlRAHaYhEcc
33.8038894,-117.77252,92869,ChIJdU3LtmPa3IAR3gbBhZFnOII
33.7514861,-117.7549295,92602,ChIJUU6tvjXD3IAR_6MRfF87d0M
33.7645595,-117.8809574,92706,ChIJZSKopDXY3IARZl7LHeNWvHg
33.7372177,-117.8135579,92780,ChIJXfR7G-bb3IARQT3zWZxyQPg
33.7344836,-117.7930401,92782,ChIJ53dBnnbb3IAReEJ1hPuAXzI
33.7073908,-117.7666567,92620,ChIJ31nLhrjc3IAROL_1_I5uiRM
33.8038894,-117.77252,92869,ChIJdU3LtmPa3IAR3gbBhZFnOII
33.6301328,-117.8721676,92660,ChIJRdSajSne3IAR8T4A2x-wgrE
33.6967434,-117.9120846,92799,ChIJ9TOSyEzf3IAR-bbb7I96eL4
33.6588951,-117.8282121,92612,ChIJtzhT4_Td3IARKVkuDIe2K_0
33.6832497,-117.8340735,92614,ChIJGWp61inc3IARB84fEAnUP0U
33.6387024,-117.8370041,92617,ChIJEUL2kg_e3IARaDSFK2QFTHE
33.6834142,-117.9073244,92626,ChIJj4r82UHf3IARLQc40-4zqpY
33.6301328,-117.8721676,92660,ChIJRdSajSne3IAR8T4A2x-wgrE
33.6332102,-117.7959713,92603,ChIJbR_TmGXn3IARIA1qcPYrmrA
33.6471239,-117.8421325,92697,ChIJHV-bX9Dd3IARoNjd60VwXwI
33.7073908,-117.7666567,92620,ChIJ31nLhrjc3IAROL_1_I5uiRM
33.6912614,-117.8223506,92606,ChIJRai8Zjzc3IAREGO0zCxl_7Q
33.665242,-117.7490656,92618,ChIJ1QVFKavC3IARtFPRQcOqMsY
33.6913751,-117.7901088,92604,ChIJA5l6dVTc3IARqKE8a8DXR1A
33.5507512,-117.6411674,92694,ChIJMejyuCfs3IARZGNb7P2wZ0Q
33.6917217,-117.6610854,92610,ChIJV9lt60TC3IARu_hqCzibzlM
33.6447519,-117.6845508,92630,ChIJhcIaL7Dp3IARBwD2I6hJRwI
33.665242,-117.7490656,92618,ChIJ1QVFKavC3IARtFPRQcOqMsY
33.6913751,-117.7901088,92604,ChIJA5l6dVTc3IARqKE8a8DXR1A
33.5941759,-117.5730639,92679,ChIJy2hECWCT3IAR8bIIr6eBpr8
33.66824210000001,-117.7659237,92619,ChIJWxdjl2vd3IARcCJL-J33bo0
37.8444843,-122.5089856,94965,ChIJPWNmZpyFhYARv9KtuCjLnx8
37.9060624,-122.5712101,94941,ChIJFXVq1haQhYARBXhFotBhSVo
37.7401042,-122.4382307,94131,ChIJ22y0JQt-j4ARCs3ThPYOWpc
37.7748363,-122.3872576,94158,ChIJTayi3tN_j4ARIwuQJy7-etE
37.7890183,-122.3915063,94105,ChIJDXK6UmKAhYARfzuOY6DDgeM
37.7618242,-122.3985871,94107,ChIJg0__2jN-j4AR479OXNRG7O8
37.8839827,-122.4580469,94920,ChIJBW0qYuyDhYAR_3kdsPlxhdk
37.8059887,-122.4099154,94133,ChIJ61hhQeGAhYARo_x_aAlCar8
37.7181398,-122.4863492,94132,ChIJSbCANq99j4ARVMl6KzrGk9c
37.7726402,-122.4099154,94103,ChIJ09mpM52AhYARm2WOMfyfxhs
37.7911148,-122.4021273,94104,ChIJD6M14YmAhYAR5WVbcn7uWPk
37.7202042,-122.4099154,94134,ChIJJ3mtweZ-j4AR2LF94NUnNKI
37.7822891,-122.463708,94118,ChIJE8NGljiHhYARnSY8nSgLJkk
37.7909427,-122.4084994,94108,ChIJx5rJUYyAhYARxagLGBVGeFs
37.8229361,-122.3702611,94130,ChIJTyCM6zGAhYARWkaPBK60p6Q
37.7813454,-122.497668,94121,ChIJ-6VsK6aHhYARhH00Wvw4WGs
37.8020405,-122.4382307,94123,ChIJrYrvSdeAhYARtJlHJMWNQzY
37.7597481,-122.4750292,94122,ChIJaZi-WHqHhYARP44d5B8lUhI
37.7717185,-122.4438929,94117,ChIJ773z7quAhYARnGZ-5ZUIkcg
37.7929789,-122.4212424,94109,ChIJy0ilcOmAhYARCLOo6oZQNxk
37.7485824,-122.4184108,94110,ChIJjxQcAEF-j4ARegNFVBwq4vg
37.79593620000001,-122.4000032,94111,ChIJ49w0El-AhYAR9WVSnuOiWM8
37.7561438,-122.4325682,94114,ChIJ_dA2rgV-j4ARt3snzTZ80Ds
37.793323,-122.4665384,94129,ChIJ80PrL8OGhYARiuhtoI_sR0s
37.72254909999999,-122.4410618,94112,ChIJ_wUjuoN-j4ARLYl5YXTu7iQ
37.7432421,-122.497668,94116,ChIJddwdf4N9j4ARNjehk8mVCNA
37.7304167,-122.384425,94124,ChIJe7_iURF_j4ARlf3H78H0YTk
37.7786871,-122.4212424,94102,ChIJs88qnZmAhYARk8u-7t1Sc2g
37.734646,-122.463708,94127,ChIJK9xbjZR9j4ARBsVPOdGWHs8
37.7877522,-122.4382307,94115,ChIJzyP3rbeAhYARTmAfNPJZzeY
37.6101767,-122.4806894,94044,ChIJnSRzsS93j4ARsiZDmkTXLyk
37.6948419,-122.4070834,94005,ChIJPdomh9h4j4ARtX9WvM3V3Zw
37.6904558,-122.4523855,94014,ChIJjSZHBVN5j4ARL9vD45vA7a0
37.5178022,-122.2900288,94002,ChIJD9K8CeCdj4ARfVUx0VEeodM
37.5958949,-122.4184108,94030,ChIJEcVQEZh3j4ARC4trOriNaA8
37.6210696,-122.4297369,94066,ChIJm8dmkuV5j4ARQ4MGVfa1QD0
37.68000019999999,-122.4863492,94015,ChIJL1JjBIp7j4AREUS-HHEumzk
37.6101767,-122.4806894,94044,ChIJnSRzsS93j4ARsiZDmkTXLyk
37.6537343,-122.4083383,94080,ChIJVxDJj595j4ARFDzG0LyHEiw
37.6239079,-122.3815924,94128,ChIJ-yNMxo13j4ARlLsBujKdm04
37.8134679,-122.307917,94607,ChIJUZYFroKAj4ARrTs45mWdoH4
37.8113159,-122.2682245,94612,ChIJj31Vkq2Aj4ARF9GHuQbYTDE
37.7355719,-122.1802812,94603,ChIJ-36YpICFj4ARYrzzKjW4C2U
37.7816835,-122.1817002,94613,ChIJLc_cnhyGj4ARvb_mhAqoRDU
37.7339032,-122.2483726,94502,ChIJIQuG5BWEj4ARyXWkkCwE3Tg
37.7936811,-122.1462193,94619,ChIJyaCx-KSIj4ARsX5AMEqgGU4
37.7554905,-122.1462193,94605,ChIJH8FFyxuPj4ARoRZNksBvPTQ
37.8680576,-122.2852374,94702,ChIJif71QpN-hYARsJ3d5fgWGTQ
37.8646149,-122.2341905,94705,ChIJo7K2p0l8hYARWCUmvf6THKg
37.8052928,-122.3015389,94615,ChIJm4J8RYOAj4ARzdtJlziBmrU
37.5685247,-122.367428,94010,ChIJtX4JXg92j4ARe8rvGNS9VCI
37.5793536,-122.3164207,94401,ChIJ5TjWyNedj4AR1EQrzuRNaMU
37.7339032,-122.2483726,94502,ChIJIQuG5BWEj4ARyXWkkCwE3Tg
37.7199247,-122.1689284,94577,ChIJ__Ci6eyPj4ARuXvco9op0ow
37.6851553,-122.1575745,94579,ChIJlab3ShGQj4ARFOjDFdQKEDc
37.7347438,-122.2143323,94621,ChIJp-Y9Jr6Fj4AREYoBmrhC_PU
37.5685247,-122.367428,94010,ChIJtX4JXg92j4ARe8rvGNS9VCI
37.5677679,-122.0522177,94555,ChIJX4ijKgq-j4ARqn9yFg5woio
37.6737239,-122.1007867,94541,ChIJbfJM2WKRj4ARKMCZW3XWQYM
37.5952304,-122.043969,94587,ChIJAUo3KWKVj4ARRtdpH5dVod0
37.938818,-122.5344456,94939,ChIJsw3LTJ2QhYARVgEFLcenfCU
38.0270044,-122.5485873,94903,ChIJlXUTUZOXhYARJySPxpxTHvI
37.94018,-122.4877642,94964,ChIJlcI12qqbhYARJIPLRKvZZYM
37.9650627,-122.503327,94901,ChIJJT_NhoiZhYARbYoe7g43Nhg
37.9158152,-122.3390936,94804,ChIJK-Q77W14hYARgvGk-LKLOMQ
37.920558,-122.5089856,94925,ChIJB39hdu2ahYARH4zaqhlG77Q
37.941063,-122.5655549,94904,ChIJIYx9VqaQhYAR5SsiM14pWRY
37.9429522,-122.3900901,94801,ChIJyRw0ziSdhYAR0kIeZZSMai0
37.9759027,-122.3447611,94806,ChIJO4Dz37d3hYARDAsM_1WnMh0
37.86373760000001,-122.2682245,94704,ChIJk5trQy58hYARnl9MIbSf6aU
37.7712165,-122.2824021,94501,ChIJs3wB2CeBj4ARMPiRBmuhQLs
37.85247409999999,-122.2738958,94703,ChIJ7Q3QTYV-hYARPZPmqSr6SUI
37.7729273,-122.2143323,94601,ChIJb04_cF-Gj4AREgBPyVjgA3c
37.837959,-122.2824021,94608,ChIJj4VwQUJ-hYARW-kxrTBdc-g
37.8912529,-122.1859572,94563,ChIJ-ZSjytx8hYAR-J07IPCFEEs
37.8438192,-122.2398636,94618,ChIJu8x5V5R9hYARvvUFDZ13hbw
37.8645848,-122.2965778,94710,ChIJfakrV9p-hYARaWoRG9e0dn4
37.8321173,-122.2625529,94609,ChIJEysWhOF9hYARF2r-1IUGoi4
37.8104485,-122.2398636,94610,ChIJbdp1-kGHj4ARnuXAxr5HiZM
37.8015517,-122.2143323,94602,ChIJQwEAbK6Hj4ARJ2pir7stgqQ
37.8336281,-122.2029832,94611,ChIJg5MBfH99hYARIZKqn6zWexo
37.7944092,-122.2455364,94606,ChIJAWrgqyGHj4ARFfu2yT7TWIw
37.8251445,-122.1604131,94516,ChIJ-SHFK-6Hj4ARDkIDqMdBolE
37.8655663,-122.0666997,94595,ChIJoQWDzwiKj4AR8Bi8fizAeN8
37.7188649,-122.0780632,94546,ChIJk4EoJ_6Rj4ARomkWF9tn3Kk
37.8357202,-122.1178261,94556,ChIJ19RJq6aJj4ARvGvIj5WM4jY
37.8929461,-122.1178261,94549,ChIJKUnNc6xjhYARvRe9SXpU90E
37.7624642,-121.9814354,94583,ChIJlXCVgbfyj4ARwYU7AZ_nS5w
37.8541701,-122.0098642,94507,ChIJE7K-hSaLj4ARoFF-RzGvMdw
37.7050703,-122.1235054,94578,ChIJraFGf9SRj4ARqLO4kWExgSs
37.6729393,-122.1348629,94580,ChIJq2rDu7SRj4ARQh66lw_2fFU
37.5641425,-122.004179,94536,ChIJXezxrl7Aj4ARbqGvmu4yDZs
37.71045760000001,-122.026918,94552,ChIJFyDIseeSj4AR9coa1yKnh38
37.6270256,-122.0496521,94544,ChIJ6ynTwRSUj4ARr4VRerh-M-g
37.7202463,-121.8676464,94568,ChIJlZJIzSHsj4ARry4hXTrbB38
37.6561165,-122.0326019,94542,ChIJtwJNfIGTj4AReo6e-VAdEnQ
37.6063621,-122.1178261,94545,ChIJjwdFgtOQj4ARg6bA3DRalv4
37.5409047,-122.5118148,94037,ChIJsbwZ2LFxj4ARxkC1i5QYdeo
37.5463543,-122.4863492,94038,ChIJQxpR03Nxj4ARL7PKt9hp_1k
37.4903082,-122.4353995,94019,ChIJC8sZCqULj4ARf92dh61PgQk
37.6729393,-122.1348629,94580,ChIJq2rDu7SRj4ARQh66lw_2fFU
37.5641425,-122.004179,94536,ChIJXezxrl7Aj4ARbqGvmu4yDZs
37.71045760000001,-122.026918,94552,ChIJFyDIseeSj4AR9coa1yKnh38
37.6270256,-122.0496521,94544,ChIJ6ynTwRSUj4ARr4VRerh-M-g
37.7202463,-121.8676464,94568,ChIJlZJIzSHsj4ARry4hXTrbB38
37.6561165,-122.0326019,94542,ChIJtwJNfIGTj4AReo6e-VAdEnQ
37.6063621,-122.1178261,94545,ChIJjwdFgtOQj4ARg6bA3DRalv4
37.5409047,-122.5118148,94037,ChIJsbwZ2LFxj4ARxkC1i5QYdeo
37.5463543,-122.4863492,94038,ChIJQxpR03Nxj4ARL7PKt9hp_1k
37.4903082,-122.4353995,94019,ChIJC8sZCqULj4ARf92dh61PgQk
37.41089270000001,-122.2880726,94062,ChIJF24KZ6Omj4ARQ-2iSTIfTDs
37.5017068,-122.4688381,94018,ChIJRy1LSZZzj4ARBxIlAtYzeCg
37.5245965,-122.3390936,94402,ChIJHSMvQf2dj4ARfzKRE5zdJKI
37.5021585,-122.2086579,94063,ChIJGbGfdziij4AR1KNJ04ublg0
37.4634447,-122.2256803,94061,ChIJf6xATZGjj4ARnTzFNW4kpuQ
37.4484914,-122.1802812,94025,ChIJNREEB6ykj4ARQSDDhLXB1nw
37.3813444,-122.1802812,94304,ChIJA4OPC1Wlj4ARYw5GpyQ-Bow
37.5549479,-122.2710602,94404,ChIJgaOrhjyZj4ARJLkyFXSV0wU
37.5349925,-122.3050823,94403,ChIJUS8gl_2ej4AR4KB0vyRXFH0
37.4135757,-122.1689284,94305,ChIJjTG5QdS6j4ARKPHsBmylXH8
37.5434184,-122.3274035,94497,ChIJ15Z1Z06ej4ARyg2rnSVAQwM
37.5331558,-122.2483726,94065,ChIJbY2Yv3-Yj4AR6jmFiGbiXzA
37.45117949999999,-122.2029832,94027,ChIJk8yo4Zikj4ARSu8z_d17c9I
37.4457966,-122.1575745,94301,ChIJbfq2kBe7j4ARBzf9LVIpZok
37.4975165,-122.2710602,94070,ChIJF7-Fm-mhj4ARp3FkIrcRSyY
37.5042267,-121.9643745,94538,ChIJWcvu2qO4j4ARpT5KSTkRc_0
37.4110966,-122.0181762,94089,ChIJGf-YAsm3j4ARr9NvKWkXGcg
37.4062237,-122.0781663,94043,ChIJoQmen1G3j4ARbhoe7nVBEoQ
37.4530553,-122.1178261,94303,ChIJOc4-UaG7j4ARbzLqulmmFm4
37.5189256,-122.026918,94560,ChIJAwuLNyu5j4ARXrjtGmNuHhE
37.5867626,-121.8334868,94586,ChIJz5xlKAjDj4ARG8riu1lft0s
37.6436199,-121.8676464,94566,ChIJC4eqyTLoj4ARhPmDpD2sYGI
37.7537708,-121.7879244,94551,ChIJzVJs7mnkj4ARBC-SOJPojZc
37.6873908,-121.9131761,94588,ChIJhz_eheXrj4ARCvNe3h_0dig
37.6536947,-121.6739371,94550,ChIJK7_xvNnXj4ARzVg8nDI4l-M
37.5434184,-122.3274035,94497,ChIJ15Z1Z06ej4ARyg2rnSVAQwM
37.5331558,-122.2483726,94065,ChIJbY2Yv3-Yj4AR6jmFiGbiXzA
37.45117949999999,-122.2029832,94027,ChIJk8yo4Zikj4ARSu8z_d17c9I
37.4457966,-122.1575745,94301,ChIJbfq2kBe7j4ARBzf9LVIpZok
37.4975165,-122.2710602,94070,ChIJF7-Fm-mhj4ARp3FkIrcRSyY
37.5434184,-122.3274035,94497,ChIJ15Z1Z06ej4ARyg2rnSVAQwM
37.5331558,-122.2483726,94065,ChIJbY2Yv3-Yj4AR6jmFiGbiXzA
37.45117949999999,-122.2029832,94027,ChIJk8yo4Zikj4ARSu8z_d17c9I
37.4457966,-122.1575745,94301,ChIJbfq2kBe7j4ARBzf9LVIpZok
37.4975165,-122.2710602,94070,ChIJF7-Fm-mhj4ARp3FkIrcRSyY
37.5042267,-121.9643745,94538,ChIJWcvu2qO4j4ARpT5KSTkRc_0
37.4110966,-122.0181762,94089,ChIJGf-YAsm3j4ARr9NvKWkXGcg
37.4062237,-122.0781663,94043,ChIJoQmen1G3j4ARbhoe7nVBEoQ
37.4530553,-122.1178261,94303,ChIJOc4-UaG7j4ARbzLqulmmFm4
37.5189256,-122.026918,94560,ChIJAwuLNyu5j4ARXrjtGmNuHhE
37.5867626,-121.8334868,94586,ChIJz5xlKAjDj4ARG8riu1lft0s
37.6436199,-121.8676464,94566,ChIJC4eqyTLoj4ARhPmDpD2sYGI
37.7537708,-121.7879244,94551,ChIJzVJs7mnkj4ARBC-SOJPojZc
37.6873908,-121.9131761,94588,ChIJhz_eheXrj4ARCvNe3h_0dig
37.6536947,-121.6739371,94550,ChIJK7_xvNnXj4ARzVg8nDI4l-M
37.5434184,-122.3274035,94497,ChIJ15Z1Z06ej4ARyg2rnSVAQwM
37.5331558,-122.2483726,94065,ChIJbY2Yv3-Yj4AR6jmFiGbiXzA
37.45117949999999,-122.2029832,94027,ChIJk8yo4Zikj4ARSu8z_d17c9I
37.4457966,-122.1575745,94301,ChIJbfq2kBe7j4ARBzf9LVIpZok
37.4975165,-122.2710602,94070,ChIJF7-Fm-mhj4ARp3FkIrcRSyY
37.5434184,-122.3274035,94497,ChIJ15Z1Z06ej4ARyg2rnSVAQwM
37.5331558,-122.2483726,94065,ChIJbY2Yv3-Yj4AR6jmFiGbiXzA
37.45117949999999,-122.2029832,94027,ChIJk8yo4Zikj4ARSu8z_d17c9I
37.4457966,-122.1575745,94301,ChIJbfq2kBe7j4ARBzf9LVIpZok
37.4975165,-122.2710602,94070,ChIJF7-Fm-mhj4ARp3FkIrcRSyY
37.5042267,-121.9643745,94538,ChIJWcvu2qO4j4ARpT5KSTkRc_0
37.4110966,-122.0181762,94089,ChIJGf-YAsm3j4ARr9NvKWkXGcg
37.4062237,-122.0781663,94043,ChIJoQmen1G3j4ARbhoe7nVBEoQ
37.4530553,-122.1178261,94303,ChIJOc4-UaG7j4ARbzLqulmmFm4
37.5189256,-122.026918,94560,ChIJAwuLNyu5j4ARXrjtGmNuHhE
37.3195464,-122.367428,94074,ChIJWdkDagWoj4ARUBHD_uVKxKQ
37.2051162,-122.3334258,94060,ChIJA6dqZV-qj4ARQeXcEOL7sL4
37.2911153,-122.2086579,94020,ChIJYX7LC_mrj4ARWXXqiyaMO0k
37.3195464,-122.367428,94074,ChIJWdkDagWoj4ARUBHD_uVKxKQ
37.16110400000001,-121.9700618,95033,ChIJ2XLs-9I5joARm75xZiTnA0s
37.3871184,-122.2086579,94028,ChIJtevUxoCvj4ARMZf1SGcjXYc
37.2051162,-122.3334258,94060,ChIJA6dqZV-qj4ARQeXcEOL7sL4
37.2704205,-122.2767313,94021,ChIJX9t5wm-pj4ARBw5Io2RDwUY
37.2911153,-122.2086579,94020,ChIJYX7LC_mrj4ARWXXqiyaMO0k
37.3694009,-122.1405413,94022,ChIJcWn9-lGwj4ARHtGJMQcrD-I
37.3195464,-122.367428,94074,ChIJWdkDagWoj4ARUBHD_uVKxKQ
37.2051162,-122.3334258,94060,ChIJA6dqZV-qj4ARQeXcEOL7sL4
37.2911153,-122.2086579,94020,ChIJYX7LC_mrj4ARWXXqiyaMO0k
37.3195464,-122.367428,94074,ChIJWdkDagWoj4ARUBHD_uVKxKQ
37.16110400000001,-121.9700618,95033,ChIJ2XLs-9I5joARm75xZiTnA0s
37.3871184,-122.2086579,94028,ChIJtevUxoCvj4ARMZf1SGcjXYc
37.2051162,-122.3334258,94060,ChIJA6dqZV-qj4ARQeXcEOL7sL4
37.2704205,-122.2767313,94021,ChIJX9t5wm-pj4ARBw5Io2RDwUY
37.2911153,-122.2086579,94020,ChIJYX7LC_mrj4ARWXXqiyaMO0k
37.3694009,-122.1405413,94022,ChIJcWn9-lGwj4ARHtGJMQcrD-I
37.3195464,-122.367428,94074,ChIJWdkDagWoj4ARUBHD_uVKxKQ
37.2051162,-122.3334258,94060,ChIJA6dqZV-qj4ARQeXcEOL7sL4
37.2911153,-122.2086579,94020,ChIJYX7LC_mrj4ARWXXqiyaMO0k
37.3195464,-122.367428,94074,ChIJWdkDagWoj4ARUBHD_uVKxKQ
37.16110400000001,-121.9700618,95033,ChIJ2XLs-9I5joARm75xZiTnA0s
37.3871184,-122.2086579,94028,ChIJtevUxoCvj4ARMZf1SGcjXYc
37.2051162,-122.3334258,94060,ChIJA6dqZV-qj4ARQeXcEOL7sL4
37.2704205,-122.2767313,94021,ChIJX9t5wm-pj4ARBw5Io2RDwUY
37.2911153,-122.2086579,94020,ChIJYX7LC_mrj4ARWXXqiyaMO0k
37.3694009,-122.1405413,94022,ChIJcWn9-lGwj4ARHtGJMQcrD-I
37.3195464,-122.367428,94074,ChIJWdkDagWoj4ARUBHD_uVKxKQ
37.2051162,-122.3334258,94060,ChIJA6dqZV-qj4ARQeXcEOL7sL4
37.2911153,-122.2086579,94020,ChIJYX7LC_mrj4ARWXXqiyaMO0k
37.3195464,-122.367428,94074,ChIJWdkDagWoj4ARUBHD_uVKxKQ
37.16110400000001,-121.9700618,95033,ChIJ2XLs-9I5joARm75xZiTnA0s
37.3871184,-122.2086579,94028,ChIJtevUxoCvj4ARMZf1SGcjXYc
37.2051162,-122.3334258,94060,ChIJA6dqZV-qj4ARQeXcEOL7sL4
37.2704205,-122.2767313,94021,ChIJX9t5wm-pj4ARBw5Io2RDwUY
37.2911153,-122.2086579,94020,ChIJYX7LC_mrj4ARWXXqiyaMO0k
37.3694009,-122.1405413,94022,ChIJcWn9-lGwj4ARHtGJMQcrD-I
37.3195464,-122.367428,94074,ChIJWdkDagWoj4ARUBHD_uVKxKQ
37.2051162,-122.3334258,94060,ChIJA6dqZV-qj4ARQeXcEOL7sL4
37.2911153,-122.2086579,94020,ChIJYX7LC_mrj4ARWXXqiyaMO0k
37.3195464,-122.367428,94074,ChIJWdkDagWoj4ARUBHD_uVKxKQ
37.16110400000001,-121.9700618,95033,ChIJ2XLs-9I5joARm75xZiTnA0s
37.3871184,-122.2086579,94028,ChIJtevUxoCvj4ARMZf1SGcjXYc
37.2051162,-122.3334258,94060,ChIJA6dqZV-qj4ARQeXcEOL7sL4
37.2704205,-122.2767313,94021,ChIJX9t5wm-pj4ARBw5Io2RDwUY
37.2911153,-122.2086579,94020,ChIJYX7LC_mrj4ARWXXqiyaMO0k
37.3694009,-122.1405413,94022,ChIJcWn9-lGwj4ARHtGJMQcrD-I
37.3195464,-122.367428,94074,ChIJWdkDagWoj4ARUBHD_uVKxKQ
37.2051162,-122.3334258,94060,ChIJA6dqZV-qj4ARQeXcEOL7sL4
37.2911153,-122.2086579,94020,ChIJYX7LC_mrj4ARWXXqiyaMO0k
37.3195464,-122.367428,94074,ChIJWdkDagWoj4ARUBHD_uVKxKQ
37.16110400000001,-121.9700618,95033,ChIJ2XLs-9I5joARm75xZiTnA0s
37.3871184,-122.2086579,94028,ChIJtevUxoCvj4ARMZf1SGcjXYc
37.2051162,-122.3334258,94060,ChIJA6dqZV-qj4ARQeXcEOL7sL4
37.2704205,-122.2767313,94021,ChIJX9t5wm-pj4ARBw5Io2RDwUY
37.2911153,-122.2086579,94020,ChIJYX7LC_mrj4ARWXXqiyaMO0k
37.3694009,-122.1405413,94022,ChIJcWn9-lGwj4ARHtGJMQcrD-I
37.371859,-122.0212337,94086,ChIJw0w0kkG2j4AR2SBnXfwd4Sw
37.386812,-122.0751549,94041,ChIJM5uGGy63j4ARfeOMwhgqtVs
37.3895297,-122.0183914,94085,ChIJd4dqQ0i2j4AR0yXmyEvvYa8
37.3052272,-121.9871217,95129,ChIJtYfohF21j4ARJPJuL5HvXUA
37.4177563,-122.1235054,94306,ChIJhxxeoom6j4ARKMXcNAF30Rc
37.31317,-122.0723816,95014,ChIJyTSQVXm0j4ARmdUQoA1BpwQ
37.3478257,-122.1007867,94024,ChIJr_c4Bjexj4ARbKhPgrhogj8
37.3785351,-122.086585,94040,ChIJhZZfP9Kwj4AR2LUWdqV3MwI
37.3492097,-122.0326019,94087,ChIJb0EdOtW1j4ARX73uHICOO3E
37.3598283,-121.9814354,95051,ChIJaY0iIQ3Kj4ARyU7ORmUkWqA
37.371859,-122.0212337,94086,ChIJw0w0kkG2j4AR2SBnXfwd4Sw
37.386812,-122.0751549,94041,ChIJM5uGGy63j4ARfeOMwhgqtVs
37.3895297,-122.0183914,94085,ChIJd4dqQ0i2j4AR0yXmyEvvYa8
37.3052272,-121.9871217,95129,ChIJtYfohF21j4ARJPJuL5HvXUA
37.4177563,-122.1235054,94306,ChIJhxxeoom6j4ARKMXcNAF30Rc
37.31317,-122.0723816,95014,ChIJyTSQVXm0j4ARmdUQoA1BpwQ
37.3478257,-122.1007867,94024,ChIJr_c4Bjexj4ARbKhPgrhogj8
37.3785351,-122.086585,94040,ChIJhZZfP9Kwj4AR2LUWdqV3MwI
37.3492097,-122.0326019,94087,ChIJb0EdOtW1j4ARX73uHICOO3E
37.3598283,-121.9814354,95051,ChIJaY0iIQ3Kj4ARyU7ORmUkWqA
37.371859,-122.0212337,94086,ChIJw0w0kkG2j4AR2SBnXfwd4Sw
37.386812,-122.0751549,94041,ChIJM5uGGy63j4ARfeOMwhgqtVs
37.3895297,-122.0183914,94085,ChIJd4dqQ0i2j4AR0yXmyEvvYa8
37.3052272,-121.9871217,95129,ChIJtYfohF21j4ARJPJuL5HvXUA
37.4177563,-122.1235054,94306,ChIJhxxeoom6j4ARKMXcNAF30Rc
37.31317,-122.0723816,95014,ChIJyTSQVXm0j4ARmdUQoA1BpwQ
37.3478257,-122.1007867,94024,ChIJr_c4Bjexj4ARbKhPgrhogj8
37.3785351,-122.086585,94040,ChIJhZZfP9Kwj4AR2LUWdqV3MwI
37.3492097,-122.0326019,94087,ChIJb0EdOtW1j4ARX73uHICOO3E
37.3598283,-121.9814354,95051,ChIJaY0iIQ3Kj4ARyU7ORmUkWqA
37.3326639,-121.8918364,95113,ChIJ1exwkKTMj4ARj5Ab73tinkE
37.3539663,-121.9529992,95050,ChIJkyN3003Kj4ARP-4TcpEoJuA
37.3338976,-121.9227776,95191,ChIJyZh3ZGvLj4ARh0PaJoJ9IXE
37.2770029,-121.9529992,95008,ChIJnYxD9xc1joARCqJFcBmEAWM
37.3456227,-121.8847222,95112,ChIJeTX-s5XMj4ARpd08-2y8v5w
37.3315827,-121.7708337,95148,ChIJ6ZtKgx4tjoARABCcOiZT_sQ
37.354611,-121.918866,95110,ChIJ31SYUmLLj4AR4o5iJ_upyvk
37.4323716,-121.8993526,95035,ChIJjx97cYDFj4ARHhAdSJLFPB4
37.3120731,-121.9643745,95117,ChIJ4YcqPMHKj4AR_oe_L8U_ojs
37.302108,-121.8050125,95121,ChIJXXfFDoAtjoAR41J6sTZE5no
37.1833232,-122.151897,95006,ChIJxW8_J9pNjoARJDyjCQmcoR8
37.0918582,-122.2313539,95017,ChIJfzxdL-FQjoAR5VmcqT1NMXk
37.2260616,-121.9302449,95032,ChIJ0-Fd6tI1joAR4wMVjsNLNLA
37.1833232,-122.151897,95006,ChIJxW8_J9pNjoARJDyjCQmcoR8
37.2876164,-121.9857002,95130,ChIJd7h0hEU1joARgyoJyf-zlUA
37.2638319,-122.023004,95070,ChIJ26Tj4TpLjoARRNn2cfYUP0A
37.22823169999999,-121.9871217,95030,ChIJu_0MDPQ1joAR7-PJCgfeZAk
37.2260616,-121.9302449,95032,ChIJ0-Fd6tI1joAR4wMVjsNLNLA
37.2770029,-121.9529992,95008,ChIJnYxD9xc1joARCqJFcBmEAWM
37.3120731,-121.9643745,95117,ChIJ4YcqPMHKj4AR_oe_L8U_ojs
37.3189149,-121.9416226,95128,ChIJ3ZbVUSXLj4ARuieDkEUgBOI
37.3290122,-121.9160211,95126,ChIJWyd8j0PLj4AR0jHDddMCreQ
37.2374847,-121.8277925,95123,ChIJRUdx1SQujoAR1D1l6hEvUYE
37.2692142,-121.8505679,95136,ChIJC9n4LjQyjoAR7dWpzRgN3Y8
37.2589827,-121.8847222,95118,ChIJBYcmMu4zjoAR23pm-OuPmhk
37.2583724,-121.918866,95124,ChIJLYZ0HUI0joARxZgtM_Ya-JY
37.1676857,-121.7708337,95141,ChIJJYZOSaAljoARR7a0_2vEAOQ
37.28566319999999,-121.8277925,95111,ChIJoUEVh2syjoARCxcoKKPt_QM
37.2909813,-121.8904136,95125,ChIJtykoQGQzjoARurml4V3nAyA
37.1696999,-121.8448745,95120,ChIJ7dRTL0AwjoARro34O1rqo6g
37.3189149,-121.9416226,95128,ChIJ3ZbVUSXLj4ARuieDkEUgBOI
37.3290122,-121.9160211,95126,ChIJWyd8j0PLj4AR0jHDddMCreQ
37.2374847,-121.8277925,95123,ChIJRUdx1SQujoAR1D1l6hEvUYE
37.2692142,-121.8505679,95136,ChIJC9n4LjQyjoAR7dWpzRgN3Y8
37.2589827,-121.8847222,95118,ChIJBYcmMu4zjoAR23pm-OuPmhk
37.2583724,-121.918866,95124,ChIJLYZ0HUI0joARxZgtM_Ya-JY
37.1676857,-121.7708337,95141,ChIJJYZOSaAljoARR7a0_2vEAOQ
37.28566319999999,-121.8277925,95111,ChIJoUEVh2syjoARCxcoKKPt_QM
37.2909813,-121.8904136,95125,ChIJtykoQGQzjoARurml4V3nAyA
37.1696999,-121.8448745,95120,ChIJ7dRTL0AwjoARro34O1rqo6g
37.3189149,-121.9416226,95128,ChIJ3ZbVUSXLj4ARuieDkEUgBOI
37.3290122,-121.9160211,95126,ChIJWyd8j0PLj4AR0jHDddMCreQ
37.2374847,-121.8277925,95123,ChIJRUdx1SQujoAR1D1l6hEvUYE
37.2692142,-121.8505679,95136,ChIJC9n4LjQyjoAR7dWpzRgN3Y8
37.2589827,-121.8847222,95118,ChIJBYcmMu4zjoAR23pm-OuPmhk
37.2583724,-121.918866,95124,ChIJLYZ0HUI0joARxZgtM_Ya-JY
37.1676857,-121.7708337,95141,ChIJJYZOSaAljoARR7a0_2vEAOQ
37.28566319999999,-121.8277925,95111,ChIJoUEVh2syjoARCxcoKKPt_QM
37.2909813,-121.8904136,95125,ChIJtykoQGQzjoARurml4V3nAyA
37.1696999,-121.8448745,95120,ChIJ7dRTL0AwjoARro34O1rqo6g
37.3189149,-121.9416226,95128,ChIJ3ZbVUSXLj4ARuieDkEUgBOI
37.3290122,-121.9160211,95126,ChIJWyd8j0PLj4AR0jHDddMCreQ
37.2374847,-121.8277925,95123,ChIJRUdx1SQujoAR1D1l6hEvUYE
37.2692142,-121.8505679,95136,ChIJC9n4LjQyjoAR7dWpzRgN3Y8
37.2589827,-121.8847222,95118,ChIJBYcmMu4zjoAR23pm-OuPmhk
37.2583724,-121.918866,95124,ChIJLYZ0HUI0joARxZgtM_Ya-JY
37.1676857,-121.7708337,95141,ChIJJYZOSaAljoARR7a0_2vEAOQ
37.28566319999999,-121.8277925,95111,ChIJoUEVh2syjoARCxcoKKPt_QM
37.2909813,-121.8904136,95125,ChIJtykoQGQzjoARurml4V3nAyA
37.1696999,-121.8448745,95120,ChIJ7dRTL0AwjoARro34O1rqo6g
37.3189149,-121.9416226,95128,ChIJ3ZbVUSXLj4ARuieDkEUgBOI
37.3290122,-121.9160211,95126,ChIJWyd8j0PLj4AR0jHDddMCreQ
37.2374847,-121.8277925,95123,ChIJRUdx1SQujoAR1D1l6hEvUYE
37.2692142,-121.8505679,95136,ChIJC9n4LjQyjoAR7dWpzRgN3Y8
37.2589827,-121.8847222,95118,ChIJBYcmMu4zjoAR23pm-OuPmhk
37.2583724,-121.918866,95124,ChIJLYZ0HUI0joARxZgtM_Ya-JY
37.1676857,-121.7708337,95141,ChIJJYZOSaAljoARR7a0_2vEAOQ
37.28566319999999,-121.8277925,95111,ChIJoUEVh2syjoARCxcoKKPt_QM
37.2909813,-121.8904136,95125,ChIJtykoQGQzjoARurml4V3nAyA
37.1696999,-121.8448745,95120,ChIJ7dRTL0AwjoARro34O1rqo6g
37.3189149,-121.9416226,95128,ChIJ3ZbVUSXLj4ARuieDkEUgBOI
37.3290122,-121.9160211,95126,ChIJWyd8j0PLj4AR0jHDddMCreQ
37.2374847,-121.8277925,95123,ChIJRUdx1SQujoAR1D1l6hEvUYE
37.2692142,-121.8505679,95136,ChIJC9n4LjQyjoAR7dWpzRgN3Y8
37.2589827,-121.8847222,95118,ChIJBYcmMu4zjoAR23pm-OuPmhk
37.2583724,-121.918866,95124,ChIJLYZ0HUI0joARxZgtM_Ya-JY
37.1676857,-121.7708337,95141,ChIJJYZOSaAljoARR7a0_2vEAOQ
37.28566319999999,-121.8277925,95111,ChIJoUEVh2syjoARCxcoKKPt_QM
37.2909813,-121.8904136,95125,ChIJtykoQGQzjoARurml4V3nAyA
37.1696999,-121.8448745,95120,ChIJ7dRTL0AwjoARro34O1rqo6g
37.2422863,-121.7309452,95138,ChIJ0YUuM-EujoAREUuAYIkFtD8
37.2181037,-121.7352197,95013,ChIJf-ZwogEmjoAR6YUz0vRwzaQ
37.2257107,-121.7622874,95139,ChIJsyWpKHAvjoARADUnGXwEqno
37.2318159,-121.7822278,95119,ChIJJ1GmEqQvjoARRt9lVOHVrjs
37.2187714,-121.5826642,95037,ChIJjZ4mhbQgjoARmvx58xAgfiU
37.2751505,-121.685341,95135,ChIJt0U-uVMpjoARJ0ZAtDJPLb8
37.2422863,-121.7309452,95138,ChIJ0YUuM-EujoAREUuAYIkFtD8
37.385095,-121.6397184,95140,ChIJNYb4MroqjoARwDKi6fd28ZQ
37.2187714,-121.5826642,95037,ChIJjZ4mhbQgjoARmvx58xAgfiU
37.2751505,-121.685341,95135,ChIJt0U-uVMpjoARJ0ZAtDJPLb8
37.0105307,-122.1178261,95060,ChIJARH6oe5DjoARMGaroZqxmew
37.109485,-122.1114366,95007,ChIJPXZCWllPjoARKWQNIiS1Hdg
37.0945364,-122.0951062,95005,ChIJDZagQdpFjoARFMTOm0gchR0
37.0353977,-121.9871217,95065,ChIJISOgUmQ_joARimSQN1vZcCQ
37.0105307,-122.1178261,95060,ChIJARH6oe5DjoARMGaroZqxmew
37.0435289,-122.0723816,95018,ChIJ9f6_4mBGjoARlDjOb3XE-gg
37.0702838,-122.0155491,95066,ChIJW76Xi0FHjoARXAHlAm26DRA
36.9199564,-121.7423434,95076,ChIJGyYtzg0bjoARPM__G3S1b6E
36.9771465,-121.8994154,95003,ChIJMVg0ehMWjoARHkejgBtL4uA
37.0353977,-121.9871217,95065,ChIJISOgUmQ_joARimSQN1vZcCQ
37.0105307,-122.1178261,95060,ChIJARH6oe5DjoARMGaroZqxmew
37.109485,-122.1114366,95007,ChIJPXZCWllPjoARKWQNIiS1Hdg
37.0945364,-122.0951062,95005,ChIJDZagQdpFjoARFMTOm0gchR0
37.0353977,-121.9871217,95065,ChIJISOgUmQ_joARimSQN1vZcCQ
37.0105307,-122.1178261,95060,ChIJARH6oe5DjoARMGaroZqxmew
37.0435289,-122.0723816,95018,ChIJ9f6_4mBGjoARlDjOb3XE-gg
37.0702838,-122.0155491,95066,ChIJW76Xi0FHjoARXAHlAm26DRA
36.9199564,-121.7423434,95076,ChIJGyYtzg0bjoARPM__G3S1b6E
36.9771465,-121.8994154,95003,ChIJMVg0ehMWjoARHkejgBtL4uA
37.0353977,-121.9871217,95065,ChIJISOgUmQ_joARimSQN1vZcCQ
37.0105307,-122.1178261,95060,ChIJARH6oe5DjoARMGaroZqxmew
37.109485,-122.1114366,95007,ChIJPXZCWllPjoARKWQNIiS1Hdg
37.0945364,-122.0951062,95005,ChIJDZagQdpFjoARFMTOm0gchR0
37.0353977,-121.9871217,95065,ChIJISOgUmQ_joARimSQN1vZcCQ
37.0105307,-122.1178261,95060,ChIJARH6oe5DjoARMGaroZqxmew
37.0435289,-122.0723816,95018,ChIJ9f6_4mBGjoARlDjOb3XE-gg
37.0702838,-122.0155491,95066,ChIJW76Xi0FHjoARXAHlAm26DRA
36.9199564,-121.7423434,95076,ChIJGyYtzg0bjoARPM__G3S1b6E
36.9771465,-121.8994154,95003,ChIJMVg0ehMWjoARHkejgBtL4uA
37.0353977,-121.9871217,95065,ChIJISOgUmQ_joARimSQN1vZcCQ
37.0105307,-122.1178261,95060,ChIJARH6oe5DjoARMGaroZqxmew
37.109485,-122.1114366,95007,ChIJPXZCWllPjoARKWQNIiS1Hdg
37.0945364,-122.0951062,95005,ChIJDZagQdpFjoARFMTOm0gchR0
37.0353977,-121.9871217,95065,ChIJISOgUmQ_joARimSQN1vZcCQ
37.0105307,-122.1178261,95060,ChIJARH6oe5DjoARMGaroZqxmew
37.0435289,-122.0723816,95018,ChIJ9f6_4mBGjoARlDjOb3XE-gg
37.0702838,-122.0155491,95066,ChIJW76Xi0FHjoARXAHlAm26DRA
36.9199564,-121.7423434,95076,ChIJGyYtzg0bjoARPM__G3S1b6E
36.9771465,-121.8994154,95003,ChIJMVg0ehMWjoARHkejgBtL4uA
37.0353977,-121.9871217,95065,ChIJISOgUmQ_joARimSQN1vZcCQ
37.0459268,-121.9359339,95073,ChIJJXB4pVI-joARXZ02tPSOPC4
37.0127518,-121.5598345,95020,ChIJ46huZD7hkYARFsIMF_9-qIE
37.0964953,-121.57125,95046,ChIJA84pZBLgkYARJBGlvLgUobE
37.0127518,-121.5598345,95020,ChIJ46huZD7hkYARFsIMF_9-qIE
37.0964953,-121.57125,95046,ChIJA84pZBLgkYARJBGlvLgUobE
36.9119865,-121.3084088,95023,ChIJ1SzH0miNkYARIpVYy2QGBRM
37.0127518,-121.5598345,95020,ChIJ46huZD7hkYARFsIMF_9-qIE
36.9119865,-121.3084088,95023,ChIJ1SzH0miNkYARIpVYy2QGBRM
37.2490019,-121.2168466,95360,ChIJH_KK6dmXkYAR14AbJc9l40w
36.9923139,-122.0581762,95064,ChIJo3XS521BjoARJtM84hmXM_c
36.9677899,-121.9871217,95062,ChIJcaQSglIVjoARzUaFAQFJVDE
36.9764598,-121.9501551,95010,ChIJ_aE19nMVjoAR2uGLbAzaav4
36.9677899,-121.9871217,95062,ChIJcaQSglIVjoARzUaFAQFJVDE
36.8225884,-121.7765309,95039,ChIJ0wTd1P8EjoARrBVqVYKOp_Q
36.8825441,-121.6397184,95004,ChIJr_Hy_QoCjoARlkR5efr240k
36.9355718,-121.7793794,95019,ChIJLeMBzkIajoAR_zPIgFDr-Fo
36.8825441,-121.6397184,95004,ChIJr_Hy_QoCjoARlkR5efr240k
36.8322484,-121.5141615,95045,ChIJqwoFYBT4kYAR169BbWYMLrY
36.7646209,-121.7594384,95012,ChIJ35ZaMccGjoARj-dIf2SeKRE
36.8225884,-121.7765309,95039,ChIJ0wTd1P8EjoARrBVqVYKOp_Q
36.9677899,-121.9871217,95062,ChIJcaQSglIVjoARzUaFAQFJVDE
36.9764598,-121.9501551,95010,ChIJ_aE19nMVjoAR2uGLbAzaav4
36.9677899,-121.9871217,95062,ChIJcaQSglIVjoARzUaFAQFJVDE
36.8225884,-121.7765309,95039,ChIJ0wTd1P8EjoARrBVqVYKOp_Q
36.8825441,-121.6397184,95004,ChIJr_Hy_QoCjoARlkR5efr240k
36.9355718,-121.7793794,95019,ChIJLeMBzkIajoAR_zPIgFDr-Fo
36.8825441,-121.6397184,95004,ChIJr_Hy_QoCjoARlkR5efr240k
36.8322484,-121.5141615,95045,ChIJqwoFYBT4kYAR169BbWYMLrY
36.7646209,-121.7594384,95012,ChIJ35ZaMccGjoARj-dIf2SeKRE
36.8225884,-121.7765309,95039,ChIJ0wTd1P8EjoARrBVqVYKOp_Q
36.9677899,-121.9871217,95062,ChIJcaQSglIVjoARzUaFAQFJVDE
36.9764598,-121.9501551,95010,ChIJ_aE19nMVjoAR2uGLbAzaav4
36.9677899,-121.9871217,95062,ChIJcaQSglIVjoARzUaFAQFJVDE
36.8225884,-121.7765309,95039,ChIJ0wTd1P8EjoARrBVqVYKOp_Q
36.8825441,-121.6397184,95004,ChIJr_Hy_QoCjoARlkR5efr240k
36.9355718,-121.7793794,95019,ChIJLeMBzkIajoAR_zPIgFDr-Fo
36.8825441,-121.6397184,95004,ChIJr_Hy_QoCjoARlkR5efr240k
36.8322484,-121.5141615,95045,ChIJqwoFYBT4kYAR169BbWYMLrY
36.7646209,-121.7594384,95012,ChIJ35ZaMccGjoARj-dIf2SeKRE
36.8225884,-121.7765309,95039,ChIJ0wTd1P8EjoARrBVqVYKOp_Q
36.9677899,-121.9871217,95062,ChIJcaQSglIVjoARzUaFAQFJVDE
36.9764598,-121.9501551,95010,ChIJ_aE19nMVjoAR2uGLbAzaav4
36.9677899,-121.9871217,95062,ChIJcaQSglIVjoARzUaFAQFJVDE
36.8225884,-121.7765309,95039,ChIJ0wTd1P8EjoARrBVqVYKOp_Q
36.8825441,-121.6397184,95004,ChIJr_Hy_QoCjoARlkR5efr240k
36.9355718,-121.7793794,95019,ChIJLeMBzkIajoAR_zPIgFDr-Fo
36.8825441,-121.6397184,95004,ChIJr_Hy_QoCjoARlkR5efr240k
36.8322484,-121.5141615,95045,ChIJqwoFYBT4kYAR169BbWYMLrY
36.7646209,-121.7594384,95012,ChIJ35ZaMccGjoARj-dIf2SeKRE
36.8225884,-121.7765309,95039,ChIJ0wTd1P8EjoARrBVqVYKOp_Q
36.9677899,-121.9871217,95062,ChIJcaQSglIVjoARzUaFAQFJVDE
36.9764598,-121.9501551,95010,ChIJ_aE19nMVjoAR2uGLbAzaav4
36.9677899,-121.9871217,95062,ChIJcaQSglIVjoARzUaFAQFJVDE
36.8225884,-121.7765309,95039,ChIJ0wTd1P8EjoARrBVqVYKOp_Q
36.8825441,-121.6397184,95004,ChIJr_Hy_QoCjoARlkR5efr240k
36.9355718,-121.7793794,95019,ChIJLeMBzkIajoAR_zPIgFDr-Fo
36.8825441,-121.6397184,95004,ChIJr_Hy_QoCjoARlkR5efr240k
36.8322484,-121.5141615,95045,ChIJqwoFYBT4kYAR169BbWYMLrY
36.7646209,-121.7594384,95012,ChIJ35ZaMccGjoARj-dIf2SeKRE
36.8225884,-121.7765309,95039,ChIJ0wTd1P8EjoARrBVqVYKOp_Q
37.373498,-121.7594384,95127,ChIJacdbrpHSj4ARM6AAE-bcDPQ
37.3904943,-121.8854337,95101,ChIJZ2fd6RvMj4ARKUI5wEomras
37.3757929,-121.9003728,95190,ChIJa32MrwrMj4ARDiOZycxDRLE
37.3902956,-121.8961047,95131,ChIJTy9bNf_Lj4AR_zes01Ezz38
37.4268706,-121.9721944,95002,ChIJd8tbIgK4j4AR-kop4cJ530s
37.3304014,-121.8391808,95122,ChIJTUEkLsgyjoARxHqSosTCbHw
37.3558627,-121.8505679,95116,ChIJYTY2Nh_Nj4ARMZCOkQZEniA
37.3716914,-121.8619539,95133,ChIJFS71F1HMj4ARh01coyA6A-U
37.348667,-121.936645,95053,ChIJb17oCLPLj4ARBpMhY0iC7IY
37.3986039,-121.9643745,95054,ChIJEytLHr7Jj4ARtyMBjxZVW40
37.373498,-121.7594384,95127,ChIJacdbrpHSj4ARM6AAE-bcDPQ
37.3904943,-121.8854337,95101,ChIJZ2fd6RvMj4ARKUI5wEomras
37.3757929,-121.9003728,95190,ChIJa32MrwrMj4ARDiOZycxDRLE
37.3902956,-121.8961047,95131,ChIJTy9bNf_Lj4AR_zes01Ezz38
37.4268706,-121.9721944,95002,ChIJd8tbIgK4j4AR-kop4cJ530s
37.3304014,-121.8391808,95122,ChIJTUEkLsgyjoARxHqSosTCbHw
37.3558627,-121.8505679,95116,ChIJYTY2Nh_Nj4ARMZCOkQZEniA
37.3716914,-121.8619539,95133,ChIJFS71F1HMj4ARh01coyA6A-U
37.348667,-121.936645,95053,ChIJb17oCLPLj4ARBpMhY0iC7IY
37.3986039,-121.9643745,95054,ChIJEytLHr7Jj4ARtyMBjxZVW40
37.0583373,-120.8499249,93635,ChIJw7FqQGCAkYARWLrj5raRDGA
37.2248548,-121.03351,95322,ChIJb8OuTwJ2kYAREtxZ94d6Fys
36.8114708,-120.5739579,93622,ChIJJVeyjebDk4ARUb_IVbnA1m4
37.2276426,-120.4818446,95341,ChIJCzE0tVhCkYARykJiT1oZr_Q
37.0455625,-120.6429991,93620,ChIJq_BA78fYk4ARrmC0FYS-kLQ
37.0583373,-120.8499249,93635,ChIJw7FqQGCAkYARWLrj5raRDGA
37.1302486,-120.5163949,95317,ChIJk9ydE8RfkYARg8kmuwUsQJ4
37.2248548,-121.03351,95322,ChIJb8OuTwJ2kYAREtxZ94d6Fys
36.5760412,-121.822098,93940,ChIJ40d5VSiSjYAR9Uqx2b3iwHY
36.6250909,-121.6461352,93962,ChIJt2rQBRn4jYARlxWJD659nDQ
36.62011800000001,-121.918866,93950,ChIJXd04UxHhjYARgsZY99bI6NA
36.7272444,-121.6397184,93906,ChIJCTJ_cWH_jYART5PeI51lAzY
36.5981753,-121.5826642,93908,ChIJJ57dgfr3jYARaWO0CuplE1c
36.680194,-121.7822278,93933,ChIJCw61h-j8jYAR3rPr3xTw9f8
36.685567,-121.5997835,93905,ChIJNZDO_mwHkoAR8tr3fU4NxTY
36.5841937,-121.9416226,93953,ChIJjahn5uDmjYAR-d-0pANgetk
36.6623815,-121.6454222,93901,ChIJZ277uX34jYARfZzAYuTY-AU
36.7918545,-121.6511258,93907,ChIJ5bJuW9L_jYAREqILbtMOtnc
36.5964368,-121.8740501,93943,ChIJ_RXG1U7kjYARUFsxFV3QFk4
36.6216869,-121.7993168,93955,ChIJiSZnUbjkjYAR0BGpW_CPhnQ
36.62011800000001,-121.918866,93950,ChIJXd04UxHhjYARgsZY99bI6NA
36.7272444,-121.6397184,93906,ChIJCTJ_cWH_jYART5PeI51lAzY
36.5981753,-121.5826642,93908,ChIJJ57dgfr3jYARaWO0CuplE1c
36.680194,-121.7822278,93933,ChIJCw61h-j8jYAR3rPr3xTw9f8
36.685567,-121.5997835,93905,ChIJNZDO_mwHkoAR8tr3fU4NxTY
36.5841937,-121.9416226,93953,ChIJjahn5uDmjYAR-d-0pANgetk
36.6623815,-121.6454222,93901,ChIJZ277uX34jYARfZzAYuTY-AU
36.7918545,-121.6511258,93907,ChIJ5bJuW9L_jYAREqILbtMOtnc
36.5964368,-121.8740501,93943,ChIJ_RXG1U7kjYARUFsxFV3QFk4
36.6216869,-121.7993168,93955,ChIJiSZnUbjkjYAR0BGpW_CPhnQ
36.62011800000001,-121.918866,93950,ChIJXd04UxHhjYARgsZY99bI6NA
36.7272444,-121.6397184,93906,ChIJCTJ_cWH_jYART5PeI51lAzY
36.5981753,-121.5826642,93908,ChIJJ57dgfr3jYARaWO0CuplE1c
36.680194,-121.7822278,93933,ChIJCw61h-j8jYAR3rPr3xTw9f8
36.685567,-121.5997835,93905,ChIJNZDO_mwHkoAR8tr3fU4NxTY
36.5841937,-121.9416226,93953,ChIJjahn5uDmjYAR-d-0pANgetk
36.6623815,-121.6454222,93901,ChIJZ277uX34jYARfZzAYuTY-AU
36.7918545,-121.6511258,93907,ChIJ5bJuW9L_jYAREqILbtMOtnc
36.5964368,-121.8740501,93943,ChIJ_RXG1U7kjYARUFsxFV3QFk4
36.6216869,-121.7993168,93955,ChIJiSZnUbjkjYAR0BGpW_CPhnQ
36.62011800000001,-121.918866,93950,ChIJXd04UxHhjYARgsZY99bI6NA
36.7272444,-121.6397184,93906,ChIJCTJ_cWH_jYART5PeI51lAzY
36.5981753,-121.5826642,93908,ChIJJ57dgfr3jYARaWO0CuplE1c
36.680194,-121.7822278,93933,ChIJCw61h-j8jYAR3rPr3xTw9f8
36.685567,-121.5997835,93905,ChIJNZDO_mwHkoAR8tr3fU4NxTY
36.5841937,-121.9416226,93953,ChIJjahn5uDmjYAR-d-0pANgetk
36.6623815,-121.6454222,93901,ChIJZ277uX34jYARfZzAYuTY-AU
36.7918545,-121.6511258,93907,ChIJ5bJuW9L_jYAREqILbtMOtnc
36.5964368,-121.8740501,93943,ChIJ_RXG1U7kjYARUFsxFV3QFk4
36.6216869,-121.7993168,93955,ChIJiSZnUbjkjYAR0BGpW_CPhnQ
36.6031809,-121.9145986,93944,ChIJjWOwNHjmjYARBLxIuaF6B3M
36.5501406,-120.9417368,95043,ChIJH8SlL5hNkoARCXLjM5PjNUM
36.5283778,-121.3884671,93926,ChIJvVbxOMRskoARe7Cnw79hX9w
36.7770944,-121.1366715,95075,ChIJUWl5V3cikoARdijg66mL2hA
36.5999881,-121.3770336,93925,ChIJ1ffWK_wNkoARKNLFSTk3zpY
36.5501406,-120.9417368,95043,ChIJH8SlL5hNkoARCXLjM5PjNUM
36.7770944,-121.1366715,95075,ChIJUWl5V3cikoARdijg66mL2hA
36.5501406,-120.9417368,95043,ChIJH8SlL5hNkoARCXLjM5PjNUM
36.7770944,-121.1366715,95075,ChIJUWl5V3cikoARdijg66mL2hA
36.6807956,-120.4127161,93640,ChIJR1KUpmCOk4ARQtxA3QYiwjI
36.5536964,-121.9217108,93921,ChIJ59m5rxPmjYARveOfbBMTF8o
36.4799547,-121.7327145,93924,ChIJR7gy7BKKjYARusQVMpJ2iz0
36.0514956,-121.5141615,93920,ChIJhYCy-PyBkoARfOEQRx7GmO4
36.4656419,-121.8334868,93923,ChIJryDrhbTtjYARVTUEdK008fE
36.4176405,-121.3998995,93960,ChIJ2cEnJ6FokoARHIRPEUUfi8s
36.1828098,-121.3998995,93927,ChIJnWzJQ1tikoAR8cMypTk6OtY
36.4799547,-121.7327145,93924,ChIJR7gy7BKKjYARusQVMpJ2iz0
36.4176405,-121.3998995,93960,ChIJ2cEnJ6FokoARHIRPEUUfi8s
36.1828098,-121.3998995,93927,ChIJnWzJQ1tikoAR8cMypTk6OtY
36.2143294,-121.1237187,93930,ChIJ42AAqirlkoARTQwkXN-LTas
38.088795,-122.2710602,94592,ChIJl2tjdpB0hYARRFF-NeerNMw
38.1457572,-122.2710602,94589,ChIJk0yJlYMLhYAReiW-mTSo6Bk
38.3170536,-122.3019206,94558,ChIJU24Y1cH2hIARtgAfsitUglg
38.1256242,-122.1973081,94591,ChIJo6joN4lyhYARNezY5QucCYw
38.1052454,-122.2483726,94590,ChIJJ0YjG2xzhYARajO53cKJbEo
38.22965,-122.3220894,94559,ChIJ20627FoIhYAR5r2q7PcMMSE
38.2672631,-122.1064668,94534,ChIJHx0uztUThYARvYH54Tu_h_8
38.1876611,-122.2427,94503,ChIJjbblYUgMhYARQw5VqKARAdY
38.1153501,-122.1064668,94510,ChIJgVtaYmBrhYARdh2nY_7HEKQ
38.2493627,-122.0399969,94533,ChIJuyqqznMUhYARdOOy9qdq_UU
38.088795,-122.2710602,94592,ChIJl2tjdpB0hYARRFF-NeerNMw
38.1457572,-122.2710602,94589,ChIJk0yJlYMLhYAReiW-mTSo6Bk
38.3170536,-122.3019206,94558,ChIJU24Y1cH2hIARtgAfsitUglg
38.1256242,-122.1973081,94591,ChIJo6joN4lyhYARNezY5QucCYw
38.1052454,-122.2483726,94590,ChIJJ0YjG2xzhYARajO53cKJbEo
38.22965,-122.3220894,94559,ChIJ20627FoIhYAR5r2q7PcMMSE
38.2672631,-122.1064668,94534,ChIJHx0uztUThYARvYH54Tu_h_8
38.1876611,-122.2427,94503,ChIJjbblYUgMhYARQw5VqKARAdY
38.1153501,-122.1064668,94510,ChIJgVtaYmBrhYARdh2nY_7HEKQ
38.2493627,-122.0399969,94533,ChIJuyqqznMUhYARdOOy9qdq_UU
38.088795,-122.2710602,94592,ChIJl2tjdpB0hYARRFF-NeerNMw
38.1457572,-122.2710602,94589,ChIJk0yJlYMLhYAReiW-mTSo6Bk
38.3170536,-122.3019206,94558,ChIJU24Y1cH2hIARtgAfsitUglg
38.1256242,-122.1973081,94591,ChIJo6joN4lyhYARNezY5QucCYw
38.1052454,-122.2483726,94590,ChIJJ0YjG2xzhYARajO53cKJbEo
38.22965,-122.3220894,94559,ChIJ20627FoIhYAR5r2q7PcMMSE
38.2672631,-122.1064668,94534,ChIJHx0uztUThYARvYH54Tu_h_8
38.1876611,-122.2427,94503,ChIJjbblYUgMhYARQw5VqKARAdY
38.1153501,-122.1064668,94510,ChIJgVtaYmBrhYARdh2nY_7HEKQ
38.2493627,-122.0399969,94533,ChIJuyqqznMUhYARdOOy9qdq_UU
38.088795,-122.2710602,94592,ChIJl2tjdpB0hYARRFF-NeerNMw
38.1457572,-122.2710602,94589,ChIJk0yJlYMLhYAReiW-mTSo6Bk
38.3170536,-122.3019206,94558,ChIJU24Y1cH2hIARtgAfsitUglg
38.1256242,-122.1973081,94591,ChIJo6joN4lyhYARNezY5QucCYw
38.1052454,-122.2483726,94590,ChIJJ0YjG2xzhYARajO53cKJbEo
38.22965,-122.3220894,94559,ChIJ20627FoIhYAR5r2q7PcMMSE
38.2672631,-122.1064668,94534,ChIJHx0uztUThYARvYH54Tu_h_8
38.1876611,-122.2427,94503,ChIJjbblYUgMhYARQw5VqKARAdY
38.1153501,-122.1064668,94510,ChIJgVtaYmBrhYARdh2nY_7HEKQ
38.2493627,-122.0399969,94533,ChIJuyqqznMUhYARdOOy9qdq_UU
38.088795,-122.2710602,94592,ChIJl2tjdpB0hYARRFF-NeerNMw
38.1457572,-122.2710602,94589,ChIJk0yJlYMLhYAReiW-mTSo6Bk
38.3170536,-122.3019206,94558,ChIJU24Y1cH2hIARtgAfsitUglg
38.1256242,-122.1973081,94591,ChIJo6joN4lyhYARNezY5QucCYw
38.1052454,-122.2483726,94590,ChIJJ0YjG2xzhYARajO53cKJbEo
38.22965,-122.3220894,94559,ChIJ20627FoIhYAR5r2q7PcMMSE
38.2672631,-122.1064668,94534,ChIJHx0uztUThYARvYH54Tu_h_8
38.1876611,-122.2427,94503,ChIJjbblYUgMhYARQw5VqKARAdY
38.1153501,-122.1064668,94510,ChIJgVtaYmBrhYARdh2nY_7HEKQ
38.2493627,-122.0399969,94533,ChIJuyqqznMUhYARdOOy9qdq_UU
38.088795,-122.2710602,94592,ChIJl2tjdpB0hYARRFF-NeerNMw
38.1457572,-122.2710602,94589,ChIJk0yJlYMLhYAReiW-mTSo6Bk
38.3170536,-122.3019206,94558,ChIJU24Y1cH2hIARtgAfsitUglg
38.1256242,-122.1973081,94591,ChIJo6joN4lyhYARNezY5QucCYw
38.1052454,-122.2483726,94590,ChIJJ0YjG2xzhYARajO53cKJbEo
38.22965,-122.3220894,94559,ChIJ20627FoIhYAR5r2q7PcMMSE
38.2672631,-122.1064668,94534,ChIJHx0uztUThYARvYH54Tu_h_8
38.1876611,-122.2427,94503,ChIJjbblYUgMhYARQw5VqKARAdY
38.1153501,-122.1064668,94510,ChIJgVtaYmBrhYARdh2nY_7HEKQ
38.2493627,-122.0399969,94533,ChIJuyqqznMUhYARdOOy9qdq_UU
38.1705985,-121.9245556,94585,ChIJIZxdtAAVhYARaLWBm02DAwQ
38.27814619999999,-121.9302449,94535,ChIJiebmD-Y-hYAR7ZYbpd7bS5s
38.1494225,-121.7423434,94571,ChIJ4R_wbiJGhYARO6ko-fxcXuk
38.3286205,-121.9359339,95687,ChIJc5QY-2U8hYAROdTiaV3TaOA
38.3897438,-121.7651362,95620,ChIJV7WiVQswhYARRFV1WVElTKo
38.1349416,-121.822098,94512,ChIJ66ZAkaFFhYARgyQxnwsMKus
38.1705985,-121.9245556,94585,ChIJIZxdtAAVhYARaLWBm02DAwQ
38.1494225,-121.7423434,94571,ChIJ4R_wbiJGhYARO6ko-fxcXuk
38.2428876,-121.5255815,95690,ChIJ3VABRKpMhYAR7Vkl2ogRhRg
38.3897438,-121.7651362,95620,ChIJV7WiVQswhYARRFV1WVElTKo
38.0403192,-122.188795,94569,ChIJDzte48lxhYARWO7yd-cWPpk
38.0456817,-122.2256803,94525,ChIJAa2aFXBxhYAR6D-lC9lsE3A
38.00674,-122.259717,94547,ChIJIav3r35whYAR_l4k2ogZKWQ
38.02923,-122.2483726,94572,ChIJe3om1BdxhYAR8N0JwKqn3J4
37.9873593,-122.151897,94553,ChIJ1bvv5z1lhYARZ_OLoSzKAM0
37.9963136,-122.2937428,94564,ChIJlzziqx53hYARNfbLfVCgMA8
38.0182853,-121.9245556,94565,ChIJr_Wy20lahYAR0E-ZlNSPERg
37.9873593,-122.151897,94553,ChIJ1bvv5z1lhYARZ_OLoSzKAM0
38.0349026,-122.026918,94520,ChIJEUxoJU1mhYARWZOORWptwGw
37.9876914,-122.0098642,94519,ChIJ9cQfrUFnhYARd9GSbF4da-I
38.0083802,-121.7993168,94509,ChIJAXAiboZXhYARHhQiT3_d_oo
37.9538109,-121.9643745,94521,ChIJPRRIoxNehYARnmyB8qrheSc
37.9644542,-121.7708337,94531,ChIJ33A8dnD4j4AR4954crHpxE4
38.0340942,-121.6340142,94511,ChIJD2UFQLNUhYARbK4-iHfkxuc
38.0044162,-121.685341,94561,ChIJc6rscpZVhYARQuQIBboiMIk
38.0083802,-121.7993168,94509,ChIJAXAiboZXhYARHhQiT3_d_oo
38.1393823,-121.6169002,95641,ChIJBQdWlzWtmoARzvh_tGaOUi8
37.9341399,-121.6967438,94513,ChIJ2Q1lu2r8j4AREnNWiwjbeHc
38.0268596,-121.5141615,95219,ChIJRfxx-acAkIARZcdtv6lGDrE
37.9009213,-121.422761,95206,ChIJebCQGLMRkIARNCOHUqkECPY
37.9461207,-122.0212337,94518,ChIJi9M1w8NghYARH6uHM0-jQDY
37.8213111,-121.9131761,94506,ChIJ1--SUvXxj4AR2Ha04lkoXOA
37.89618249999999,-121.9814354,94598,ChIJfaU7yWxghYARg8csdNl0xLY
37.8793779,-121.8790306,94517,ChIJ8cEE0O72j4ARcHB4EcunApw
37.9714216,-121.6639577,94548,ChIJB6XX6a7_j4ARdWQ3XcTiQIU
37.8793779,-121.8790306,94517,ChIJ8cEE0O72j4ARcHB4EcunApw
37.8076915,-121.6397184,94514,ChIJC_Q-LYkckIARdlZb0TPmAg4
37.9011827,-121.6022434,94505,ChIJv-nBmiYdkIARAnqxJ2aj0BU
37.8076915,-121.6397184,94514,ChIJC_Q-LYkckIARdlZb0TPmAg4
37.9642589,-121.2569138,95205,ChIJLc4f51JtkIAReYLHRVXnceM
38.1304288,-121.422761,95242,ChIJY0jA6AimmoARUcQzt6-H5BQ
38.1484821,-121.1022942,95240,ChIJc015WGV2kIARpaFzWZ69UlY
38.0434058,-121.2969674,95210,ChIJF96Fs4IMkIARepnZKBdG85k
38.1304288,-121.422761,95242,ChIJY0jA6AimmoARUcQzt6-H5BQ
37.9983748,-121.3198491,95207,ChIJMTqS5EMMkIAR4cEglntujhc
38.0521138,-121.3484448,95209,ChIJi0bUzdsLkIARsvDPmBZr5AQ
37.9461207,-122.0212337,94518,ChIJi9M1w8NghYARH6uHM0-jQDY
37.8213111,-121.9131761,94506,ChIJ1--SUvXxj4AR2Ha04lkoXOA
37.89618249999999,-121.9814354,94598,ChIJfaU7yWxghYARg8csdNl0xLY
37.8793779,-121.8790306,94517,ChIJ8cEE0O72j4ARcHB4EcunApw
38.1304288,-121.422761,95242,ChIJY0jA6AimmoARUcQzt6-H5BQ
38.1484821,-121.1022942,95240,ChIJc015WGV2kIARpaFzWZ69UlY
38.0434058,-121.2969674,95210,ChIJF96Fs4IMkIARepnZKBdG85k
38.1304288,-121.422761,95242,ChIJY0jA6AimmoARUcQzt6-H5BQ
37.9983748,-121.3198491,95207,ChIJMTqS5EMMkIAR4cEglntujhc
38.0521138,-121.3484448,95209,ChIJi0bUzdsLkIARsvDPmBZr5AQ
37.9461207,-122.0212337,94518,ChIJi9M1w8NghYARH6uHM0-jQDY
37.8213111,-121.9131761,94506,ChIJ1--SUvXxj4AR2Ha04lkoXOA
37.89618249999999,-121.9814354,94598,ChIJfaU7yWxghYARg8csdNl0xLY
37.8793779,-121.8790306,94517,ChIJ8cEE0O72j4ARcHB4EcunApw
38.1304288,-121.422761,95242,ChIJY0jA6AimmoARUcQzt6-H5BQ
38.1484821,-121.1022942,95240,ChIJc015WGV2kIARpaFzWZ69UlY
38.0434058,-121.2969674,95210,ChIJF96Fs4IMkIARepnZKBdG85k
38.1304288,-121.422761,95242,ChIJY0jA6AimmoARUcQzt6-H5BQ
37.9983748,-121.3198491,95207,ChIJMTqS5EMMkIAR4cEglntujhc
38.0521138,-121.3484448,95209,ChIJi0bUzdsLkIARsvDPmBZr5AQ
37.9461207,-122.0212337,94518,ChIJi9M1w8NghYARH6uHM0-jQDY
37.8213111,-121.9131761,94506,ChIJ1--SUvXxj4AR2Ha04lkoXOA
37.89618249999999,-121.9814354,94598,ChIJfaU7yWxghYARg8csdNl0xLY
37.8793779,-121.8790306,94517,ChIJ8cEE0O72j4ARcHB4EcunApw
37.6571548,-121.4684703,95377,ChIJOYdtzwsjkIARZpP-D3mA8YM
37.6841772,-121.3770336,95304,ChIJL7MNxYE7kIARhSS26pWDYvk
37.7582199,-121.548418,95391,ChIJX8sD7q0YkIAREPS2d7SZVKs
37.6571548,-121.4684703,95377,ChIJOYdtzwsjkIARZpP-D3mA8YM
37.6841772,-121.3770336,95304,ChIJL7MNxYE7kIARhSS26pWDYvk
37.7345254,-121.43419,95376,ChIJ7b2vaObhj4AROBHxi3tP6Nw
37.8134216,-121.2969674,95330,ChIJfX1UtW4VkIARKufKccYjPm4
37.7630254,-121.2397438,95337,ChIJGwA10LVAkIARswgKgCu581s
37.8403398,-121.2053963,95336,ChIJR8giinVqkIARzmqbakidLNw
37.8774675,-121.2912463,95231,ChIJxRvun5AUkIARFMz7PfWRTzY
37.5051827,-121.3312882,95387,ChIJPUqIk7k1kIARh_vx-9BkGaM
37.596139,-121.2511908,95385,ChIJfVaooiU2kIARMi3ZmCvwba4
37.481683,-121.1481284,95363,ChIJoVlookW1kYARGiDyRsxGJHs
37.6107909,-121.1022942,95358,ChIJeecc1cFNkIAR5ODrcWGIfyM
37.7514303,-121.1481284,95366,ChIJIe2-sl1EkIARrvkzbwbii9w
37.596139,-121.2511908,95385,ChIJfVaooiU2kIARMi3ZmCvwba4
37.6644618,-120.8843434,95357,ChIJhwYn4F7_kIARJkSEr5z_1fI
37.7208684,-121.0220422,95356,ChIJtWBYOoRQkIARaSQ42VC8wW8
37.6704504,-120.9302603,95355,ChIJtw7KHCtUkIARXKwnonZnlUI
37.6697463,-120.9991032,95350,ChIJoSRtfmpRkIARYc-VxaC4ZYM
38.235724,-121.5655424,95680,ChIJWzW8mMCzmoARgNhOvBuxF84
38.2855625,-121.2855249,95632,ChIJVwk1xfyXmoARDMK63qD989I
38.231148,-121.4770388,95686,ChIJ7QOSfkqlmoARRBlVDXMUJ5o
38.1673741,-121.3141291,95258,ChIJq6-4eHOhmoARa5ZzZwFouvg
38.1845539,-121.2397438,95220,ChIJb_Oqlx2cmoARaw-X1pDWbMM
38.3591901,-121.422761,95757,ChIJ17JAbM-5moARUhzl_NDjffI
38.3122317,-121.548418,95615,ChIJM9V-eAO1moARsrc6bDwQux0
38.427766,-121.4798948,95758,ChIJM4XyiQG4moARdQ_ziu9pGBQ
38.31682240000001,-120.9187827,95640,ChIJG6-qUFOGmoAROFrO8CKSQSs
38.3395289,-121.1022942,95638,ChIJM6PcFmeQmoARY7ppJQ4a5fw
37.9727529,-121.3255688,95204,ChIJzUguW6MNkIAR1FHYye63Gv4
37.9573836,-121.2883857,95202,ChIJAypZFmINkIARqDaA7mxZpao
37.90561090000001,-121.2261491,95213,ChIJD1wVC4RskIARViFpwWQM5xk
37.8300406,-121.0105733,95320,ChIJFyNbUGxckIARTtyNQ9RP-yM
38.0445015,-121.2282958,95212,ChIJkQ3K23tzkIARaUTWhHUY3No
37.8189573,-120.8498944,95361,ChIJ6XjZ5Wr6kIARihbGfkBBgMU
37.9536006,-121.3255688,95203,ChIJTYHVD4UNkIARPqxaUvK2d6s
37.7280941,-120.9474747,95367,ChIJHRIM32hXkIAREJbEp5FulJs
37.71693270000001,-121.0851019,95368,ChIJZ_84KlhFkIARG50RbXbA2vU
37.9434927,-121.1481284,95215,ChIJn1G7bsBukIARFgsMgqDvKg8
37.9727529,-121.3255688,95204,ChIJzUguW6MNkIAR1FHYye63Gv4
37.9573836,-121.2883857,95202,ChIJAypZFmINkIARqDaA7mxZpao
37.90561090000001,-121.2261491,95213,ChIJD1wVC4RskIARViFpwWQM5xk
37.8300406,-121.0105733,95320,ChIJFyNbUGxckIARTtyNQ9RP-yM
38.0445015,-121.2282958,95212,ChIJkQ3K23tzkIARaUTWhHUY3No
37.8189573,-120.8498944,95361,ChIJ6XjZ5Wr6kIARihbGfkBBgMU
37.9536006,-121.3255688,95203,ChIJTYHVD4UNkIARPqxaUvK2d6s
37.7280941,-120.9474747,95367,ChIJHRIM32hXkIAREJbEp5FulJs
37.71693270000001,-121.0851019,95368,ChIJZ_84KlhFkIARG50RbXbA2vU
37.9434927,-121.1481284,95215,ChIJn1G7bsBukIARFgsMgqDvKg8
37.9727529,-121.3255688,95204,ChIJzUguW6MNkIAR1FHYye63Gv4
37.9573836,-121.2883857,95202,ChIJAypZFmINkIARqDaA7mxZpao
37.90561090000001,-121.2261491,95213,ChIJD1wVC4RskIARViFpwWQM5xk
37.8300406,-121.0105733,95320,ChIJFyNbUGxckIARTtyNQ9RP-yM
38.0445015,-121.2282958,95212,ChIJkQ3K23tzkIARaUTWhHUY3No
37.8189573,-120.8498944,95361,ChIJ6XjZ5Wr6kIARihbGfkBBgMU
37.9536006,-121.3255688,95203,ChIJTYHVD4UNkIARPqxaUvK2d6s
37.7280941,-120.9474747,95367,ChIJHRIM32hXkIAREJbEp5FulJs
37.71693270000001,-121.0851019,95368,ChIJZ_84KlhFkIARG50RbXbA2vU
37.9434927,-121.1481284,95215,ChIJn1G7bsBukIARFgsMgqDvKg8
37.9727529,-121.3255688,95204,ChIJzUguW6MNkIAR1FHYye63Gv4
37.9573836,-121.2883857,95202,ChIJAypZFmINkIARqDaA7mxZpao
37.90561090000001,-121.2261491,95213,ChIJD1wVC4RskIARViFpwWQM5xk
37.8300406,-121.0105733,95320,ChIJFyNbUGxckIARTtyNQ9RP-yM
38.0445015,-121.2282958,95212,ChIJkQ3K23tzkIARaUTWhHUY3No
37.8189573,-120.8498944,95361,ChIJ6XjZ5Wr6kIARihbGfkBBgMU
37.9536006,-121.3255688,95203,ChIJTYHVD4UNkIARPqxaUvK2d6s
37.7280941,-120.9474747,95367,ChIJHRIM32hXkIAREJbEp5FulJs
37.71693270000001,-121.0851019,95368,ChIJZ_84KlhFkIARG50RbXbA2vU
37.9434927,-121.1481284,95215,ChIJn1G7bsBukIARFgsMgqDvKg8
37.4121145,-121.0220422,95313,ChIJmz7iHFelkYARpG77QmkXtS4
37.5350396,-120.9646866,95307,ChIJocfmQXOrkYAR_VHSBdICqdM
37.6183927,-120.9933678,95351,ChIJhVzRu7lTkIARYlJ7jnhcneM
37.6346973,-120.9704234,95354,ChIJT_KvhmhUkIAR16EDxs2EKUY
37.47103329999999,-120.9187827,95380,ChIJnbvEhNMHkYARTfheQv545vw
37.4216867,-120.5509358,95388,ChIJJYBKcIwUkYARc6cjmL7LGg0
37.5359468,-120.8613785,95382,ChIJi91SLSAHkYARub0kA3ynihY
37.4727467,-120.6775054,95303,ChIJ82U9wAYRkYARbBuClStW3co
37.7050159,-120.6429991,95386,ChIJ20ZdN48dkYARd-RYReyKy30
37.5939016,-120.8613785,95326,ChIJXxuuLVIAkYARn_GEy39SHJs
38.0728788,-121.03351,95236,ChIJrZ21yt9kkIARDf3wiDtpqlI
37.9728082,-120.8498944,95230,ChIJpw479AyLkIARDSZAVIKSNHs
38.064958,-120.5969758,95222,ChIJ-1azu_CTkIARTeygaB8y0ZE
37.7050159,-120.6429991,95386,ChIJ20ZdN48dkYARd-RYReyKy30
37.8475928,-120.4818446,95327,ChIJb4jsGaLYkIARUrYy9AOdtMs
37.9616017,-120.6890055,95228,ChIJBbrO_zjtkIARvEgINhL_QdQ
37.9728082,-120.8498944,95230,ChIJpw479AyLkIARDSZAVIKSNHs
38.064958,-120.5969758,95222,ChIJ-1azu_CTkIARTeygaB8y0ZE
37.8245371,-120.2527152,95305,ChIJmyvWyXDWkIARsfsioC_4c38
37.7071559,-120.0896313,95311,ChIJeyYc2FHSloARsuKHYtz5ktA
37.5385285,-120.4127161,95369,ChIJkzuk3t0xkYARajOxVo28wec
37.5371999,-120.6890055,95316,ChIJb5RdjNEakYARP3X4TIvXsvo
37.4269945,-120.769476,95315,ChIJeWtf7IQOkYAR5EaFlR4KSq8
37.4069089,-120.8728615,95324,ChIJi0JjXuEJkYAR3arf9DKIzGY
37.6547297,-120.4127161,95329,ChIJ9y66QPMjkYARoVsAhj4AWpA
37.5580692,-120.9101738,95328,ChIJ_wl0t2iqkYARLrb0x4OWgHk
37.6209117,-120.7005044,95323,ChIJf3ZInZobkYARSA6oqghvpa0
37.4283693,-120.4933624,95348,ChIJ6el4QhFAkYARs2K8fgJh484
37.4610214,-119.9277947,95338,ChIJ-9XQdqC3loARQHlwUtM1P5o
37.4741999,-120.2628111,95325,ChIJP6DdewQ2kYARZBEG88_o2yc
37.5385285,-120.4127161,95369,ChIJkzuk3t0xkYARajOxVo28wec
37.5371999,-120.6890055,95316,ChIJb5RdjNEakYARP3X4TIvXsvo
37.4269945,-120.769476,95315,ChIJeWtf7IQOkYAR5EaFlR4KSq8
37.4069089,-120.8728615,95324,ChIJi0JjXuEJkYAR3arf9DKIzGY
37.6547297,-120.4127161,95329,ChIJ9y66QPMjkYARoVsAhj4AWpA
37.5580692,-120.9101738,95328,ChIJ_wl0t2iqkYARLrb0x4OWgHk
37.6209117,-120.7005044,95323,ChIJf3ZInZobkYARSA6oqghvpa0
37.4283693,-120.4933624,95348,ChIJ6el4QhFAkYARs2K8fgJh484
37.4610214,-119.9277947,95338,ChIJ-9XQdqC3loARQHlwUtM1P5o
37.4741999,-120.2628111,95325,ChIJP6DdewQ2kYARZBEG88_o2yc
37.5385285,-120.4127161,95369,ChIJkzuk3t0xkYARajOxVo28wec
37.5371999,-120.6890055,95316,ChIJb5RdjNEakYARP3X4TIvXsvo
37.4269945,-120.769476,95315,ChIJeWtf7IQOkYAR5EaFlR4KSq8
37.4069089,-120.8728615,95324,ChIJi0JjXuEJkYAR3arf9DKIzGY
37.6547297,-120.4127161,95329,ChIJ9y66QPMjkYARoVsAhj4AWpA
37.5580692,-120.9101738,95328,ChIJ_wl0t2iqkYARLrb0x4OWgHk
37.6209117,-120.7005044,95323,ChIJf3ZInZobkYARSA6oqghvpa0
37.4283693,-120.4933624,95348,ChIJ6el4QhFAkYARs2K8fgJh484
37.4610214,-119.9277947,95338,ChIJ-9XQdqC3loARQHlwUtM1P5o
37.4741999,-120.2628111,95325,ChIJP6DdewQ2kYARZBEG88_o2yc
37.5385285,-120.4127161,95369,ChIJkzuk3t0xkYARajOxVo28wec
37.5371999,-120.6890055,95316,ChIJb5RdjNEakYARP3X4TIvXsvo
37.4269945,-120.769476,95315,ChIJeWtf7IQOkYAR5EaFlR4KSq8
37.4069089,-120.8728615,95324,ChIJi0JjXuEJkYAR3arf9DKIzGY
37.6547297,-120.4127161,95329,ChIJ9y66QPMjkYARoVsAhj4AWpA
37.5580692,-120.9101738,95328,ChIJ_wl0t2iqkYARLrb0x4OWgHk
37.6209117,-120.7005044,95323,ChIJf3ZInZobkYARSA6oqghvpa0
37.4283693,-120.4933624,95348,ChIJ6el4QhFAkYARs2K8fgJh484
37.4610214,-119.9277947,95338,ChIJ-9XQdqC3loARQHlwUtM1P5o
37.4741999,-120.2628111,95325,ChIJP6DdewQ2kYARZBEG88_o2yc
37.5385285,-120.4127161,95369,ChIJkzuk3t0xkYARajOxVo28wec
37.5371999,-120.6890055,95316,ChIJb5RdjNEakYARP3X4TIvXsvo
37.4269945,-120.769476,95315,ChIJeWtf7IQOkYAR5EaFlR4KSq8
37.4069089,-120.8728615,95324,ChIJi0JjXuEJkYAR3arf9DKIzGY
37.6547297,-120.4127161,95329,ChIJ9y66QPMjkYARoVsAhj4AWpA
37.5580692,-120.9101738,95328,ChIJ_wl0t2iqkYARLrb0x4OWgHk
37.6209117,-120.7005044,95323,ChIJf3ZInZobkYARSA6oqghvpa0
37.4283693,-120.4933624,95348,ChIJ6el4QhFAkYARs2K8fgJh484
37.4610214,-119.9277947,95338,ChIJ-9XQdqC3loARQHlwUtM1P5o
37.4741999,-120.2628111,95325,ChIJP6DdewQ2kYARZBEG88_o2yc
37.4224249,-120.1358346,95306,ChIJE-y7QfGyloARYMB5B4R14SI
37.3444493,-120.4127161,95340,ChIJ4X_d6QpDkYAROq5BEAiee_I
37.6616228,-119.8005027,95318,ChIJW6QJumLqloARP1FwUjso2Y4
37.4224249,-120.1358346,95306,ChIJE-y7QfGyloARYMB5B4R14SI
37.5907442,-119.9856157,95345,ChIJ89OqQ9vHloARdv8Xqx0uazA
37.6616228,-119.8005027,95318,ChIJW6QJumLqloARP1FwUjso2Y4
37.38881900000001,-119.7310213,93601,ChIJtXBjDN2eloARaZBLa6RhzDU
37.3686993,-119.6267347,93644,ChIJJ-N6RifOlYARn-R4XsOt_KM
37.5907442,-119.9856157,95345,ChIJ89OqQ9vHloARdv8Xqx0uazA
37.4067748,-119.4875668,93604,ChIJbzCwJOEolIAR8WGT3E5ypko
43.64541699999999,-109.7101455,82513,ChIJqVI-J81gTVMRuqdeau56Ous
43.3883792,-109.258804,82512,ChIJB-T8qQc6TVMRObf-B_WhIPo
43.2926219,-108.9502232,82516,ChIJt-EobDBHWIcRt-1h-NRzQ3A
43.5118075,-108.7580016,82523,ChIJKyXaSXx9WIcR_YwCq1m8K2o
43.7102608,-108.4670603,82443,ChIJZVKrAN2iTFMRbJhJXNzgLxU
43.0453134,-108.1903059,82501,ChIJCZuAeleMWIcRq72wPwZWe5s
43.2926219,-108.9502232,82516,ChIJt-EobDBHWIcRt-1h-NRzQ3A
43.5118075,-108.7580016,82523,ChIJKyXaSXx9WIcR_YwCq1m8K2o
43.0453134,-108.1903059,82501,ChIJCZuAeleMWIcRq72wPwZWe5s
43.5118075,-108.7580016,82523,ChIJKyXaSXx9WIcR_YwCq1m8K2o
43.3883792,-109.258804,82512,ChIJB-T8qQc6TVMRObf-B_WhIPo
43.2926219,-108.9502232,82516,ChIJt-EobDBHWIcRt-1h-NRzQ3A
43.068165,-108.9502232,82514,ChIJWSFtbfNFWIcRi0wsHRhXs2s
42.6188338,-108.7125791,82520,ChIJrwBXldXbTFMRJdolD1H4oWk
42.98921000000001,-108.6413145,82510,ChIJa3f6NsbkWIcRkcxRbl33YbY
43.0453134,-108.1903059,82501,ChIJCZuAeleMWIcRq72wPwZWe5s
43.2926219,-108.9502232,82516,ChIJt-EobDBHWIcRt-1h-NRzQ3A
43.5118075,-108.7580016,82523,ChIJKyXaSXx9WIcR_YwCq1m8K2o
43.068165,-108.9502232,82514,ChIJWSFtbfNFWIcRi0wsHRhXs2s
42.6188338,-108.7125791,82520,ChIJrwBXldXbTFMRJdolD1H4oWk
43.3883792,-109.258804,82512,ChIJB-T8qQc6TVMRObf-B_WhIPo
43.2926219,-108.9502232,82516,ChIJt-EobDBHWIcRt-1h-NRzQ3A
43.068165,-108.9502232,82514,ChIJWSFtbfNFWIcRi0wsHRhXs2s
42.6188338,-108.7125791,82520,ChIJrwBXldXbTFMRJdolD1H4oWk
42.98921000000001,-108.6413145,82510,ChIJa3f6NsbkWIcRkcxRbl33YbY
43.0453134,-108.1903059,82501,ChIJCZuAeleMWIcRq72wPwZWe5s
43.2926219,-108.9502232,82516,ChIJt-EobDBHWIcRt-1h-NRzQ3A
43.5118075,-108.7580016,82523,ChIJKyXaSXx9WIcR_YwCq1m8K2o
43.068165,-108.9502232,82514,ChIJWSFtbfNFWIcRi0wsHRhXs2s
42.6188338,-108.7125791,82520,ChIJrwBXldXbTFMRJdolD1H4oWk
43.64541699999999,-109.7101455,82513,ChIJqVI-J81gTVMRuqdeau56Ous
43.3883792,-109.258804,82512,ChIJB-T8qQc6TVMRObf-B_WhIPo
43.2926219,-108.9502232,82516,ChIJt-EobDBHWIcRt-1h-NRzQ3A
43.5118075,-108.7580016,82523,ChIJKyXaSXx9WIcR_YwCq1m8K2o
43.7102608,-108.4670603,82443,ChIJZVKrAN2iTFMRbJhJXNzgLxU
43.0453134,-108.1903059,82501,ChIJCZuAeleMWIcRq72wPwZWe5s
43.2926219,-108.9502232,82516,ChIJt-EobDBHWIcRt-1h-NRzQ3A
43.5118075,-108.7580016,82523,ChIJKyXaSXx9WIcR_YwCq1m8K2o
43.0453134,-108.1903059,82501,ChIJCZuAeleMWIcRq72wPwZWe5s
43.5118075,-108.7580016,82523,ChIJKyXaSXx9WIcR_YwCq1m8K2o
43.3883792,-109.258804,82512,ChIJB-T8qQc6TVMRObf-B_WhIPo
43.2926219,-108.9502232,82516,ChIJt-EobDBHWIcRt-1h-NRzQ3A
43.068165,-108.9502232,82514,ChIJWSFtbfNFWIcRi0wsHRhXs2s
42.6188338,-108.7125791,82520,ChIJrwBXldXbTFMRJdolD1H4oWk
42.98921000000001,-108.6413145,82510,ChIJa3f6NsbkWIcRkcxRbl33YbY
43.0453134,-108.1903059,82501,ChIJCZuAeleMWIcRq72wPwZWe5s
43.2926219,-108.9502232,82516,ChIJt-EobDBHWIcRt-1h-NRzQ3A
43.5118075,-108.7580016,82523,ChIJKyXaSXx9WIcR_YwCq1m8K2o
43.068165,-108.9502232,82514,ChIJWSFtbfNFWIcRi0wsHRhXs2s
42.6188338,-108.7125791,82520,ChIJrwBXldXbTFMRJdolD1H4oWk
43.64541699999999,-109.7101455,82513,ChIJqVI-J81gTVMRuqdeau56Ous
43.3883792,-109.258804,82512,ChIJB-T8qQc6TVMRObf-B_WhIPo
43.2926219,-108.9502232,82516,ChIJt-EobDBHWIcRt-1h-NRzQ3A
43.5118075,-108.7580016,82523,ChIJKyXaSXx9WIcR_YwCq1m8K2o
43.7102608,-108.4670603,82443,ChIJZVKrAN2iTFMRbJhJXNzgLxU
43.0453134,-108.1903059,82501,ChIJCZuAeleMWIcRq72wPwZWe5s
43.2926219,-108.9502232,82516,ChIJt-EobDBHWIcRt-1h-NRzQ3A
43.5118075,-108.7580016,82523,ChIJKyXaSXx9WIcR_YwCq1m8K2o
43.0453134,-108.1903059,82501,ChIJCZuAeleMWIcRq72wPwZWe5s
43.5118075,-108.7580016,82523,ChIJKyXaSXx9WIcR_YwCq1m8K2o
43.068165,-108.9502232,82514,ChIJWSFtbfNFWIcRi0wsHRhXs2s
42.6188338,-108.7125791,82520,ChIJrwBXldXbTFMRJdolD1H4oWk
42.98921000000001,-108.6413145,82510,ChIJa3f6NsbkWIcRkcxRbl33YbY
43.068165,-108.9502232,82514,ChIJWSFtbfNFWIcRi0wsHRhXs2s
42.6188338,-108.7125791,82520,ChIJrwBXldXbTFMRJdolD1H4oWk
43.3465515,-107.9531836,82649,ChIJhwQkmlDGWIcRKwSGv6-ryoA
43.3465515,-107.9531836,82649,ChIJhwQkmlDGWIcRKwSGv6-ryoA
43.287261,-107.6215321,82642,ChIJL_mEh4g9X4cRdRiXjvDT1Ys
43.3465515,-107.9531836,82649,ChIJhwQkmlDGWIcRKwSGv6-ryoA
43.1361704,-107.2666396,82630,ChIJsyM2xzSoX4cRl8Gu5ZAmQZU
43.3465515,-107.9531836,82649,ChIJhwQkmlDGWIcRKwSGv6-ryoA
43.3465515,-107.9531836,82649,ChIJhwQkmlDGWIcRKwSGv6-ryoA
43.287261,-107.6215321,82642,ChIJL_mEh4g9X4cRdRiXjvDT1Ys
43.3465515,-107.9531836,82649,ChIJhwQkmlDGWIcRKwSGv6-ryoA
43.1361704,-107.2666396,82630,ChIJsyM2xzSoX4cRl8Gu5ZAmQZU
42.7979846,-106.6291304,82604,ChIJo8NxGSU6XocRt-T41uxgc5M
43.1195152,-107.3434916,82638,ChIJky9K1s08X4cRtWXKGxUKTeE
43.287261,-107.6215321,82642,ChIJL_mEh4g9X4cRdRiXjvDT1Ys
43.3465515,-107.9531836,82649,ChIJhwQkmlDGWIcRKwSGv6-ryoA
43.2861061,-107.1484521,82648,ChIJGUW6b0FJXocRia_AXRL_o64
42.7979846,-106.6291304,82604,ChIJo8NxGSU6XocRt-T41uxgc5M
43.1195152,-107.3434916,82638,ChIJky9K1s08X4cRtWXKGxUKTeE
43.2861061,-107.1484521,82648,ChIJGUW6b0FJXocRia_AXRL_o64
42.7462761,-109.7204609,82923,ChIJ6ypyKRh2V4cROm3GZ7S3kqU
42.9588823,-108.4572788,82524,ChIJQVn1lvDdWIcRAZHTRv-TTUQ
42.9079641,-108.5789692,82515,ChIJAU6-jxriWIcRDHRRTwMGWUA
42.7979846,-106.6291304,82604,ChIJo8NxGSU6XocRt-T41uxgc5M
43.1195152,-107.3434916,82638,ChIJky9K1s08X4cRtWXKGxUKTeE
43.936402,-107.2965635,82442,ChIJM_otwG7YSlMRM9NxiP8WW1Q
43.2861061,-107.1484521,82648,ChIJGUW6b0FJXocRia_AXRL_o64
42.7979846,-106.6291304,82604,ChIJo8NxGSU6XocRt-T41uxgc5M
43.1195152,-107.3434916,82638,ChIJky9K1s08X4cRtWXKGxUKTeE
43.2861061,-107.1484521,82648,ChIJGUW6b0FJXocRia_AXRL_o64
42.7462761,-109.7204609,82923,ChIJ6ypyKRh2V4cROm3GZ7S3kqU
42.9588823,-108.4572788,82524,ChIJQVn1lvDdWIcRAZHTRv-TTUQ
42.9079641,-108.5789692,82515,ChIJAU6-jxriWIcRDHRRTwMGWUA
42.7979846,-106.6291304,82604,ChIJo8NxGSU6XocRt-T41uxgc5M
43.1195152,-107.3434916,82638,ChIJky9K1s08X4cRtWXKGxUKTeE
43.936402,-107.2965635,82442,ChIJM_otwG7YSlMRM9NxiP8WW1Q
43.2861061,-107.1484521,82648,ChIJGUW6b0FJXocRia_AXRL_o64
42.7979846,-106.6291304,82604,ChIJo8NxGSU6XocRt-T41uxgc5M
43.1195152,-107.3434916,82638,ChIJky9K1s08X4cRtWXKGxUKTeE
43.2861061,-107.1484521,82648,ChIJGUW6b0FJXocRia_AXRL_o64
42.7462761,-109.7204609,82923,ChIJ6ypyKRh2V4cROm3GZ7S3kqU
42.9588823,-108.4572788,82524,ChIJQVn1lvDdWIcRAZHTRv-TTUQ
42.9079641,-108.5789692,82515,ChIJAU6-jxriWIcRDHRRTwMGWUA
42.7979846,-106.6291304,82604,ChIJo8NxGSU6XocRt-T41uxgc5M
43.1195152,-107.3434916,82638,ChIJky9K1s08X4cRtWXKGxUKTeE
43.936402,-107.2965635,82442,ChIJM_otwG7YSlMRM9NxiP8WW1Q
43.2861061,-107.1484521,82648,ChIJGUW6b0FJXocRia_AXRL_o64
42.7979846,-106.6291304,82604,ChIJo8NxGSU6XocRt-T41uxgc5M
43.1195152,-107.3434916,82638,ChIJky9K1s08X4cRtWXKGxUKTeE
43.2861061,-107.1484521,82648,ChIJGUW6b0FJXocRia_AXRL_o64
42.7462761,-109.7204609,82923,ChIJ6ypyKRh2V4cROm3GZ7S3kqU
42.9588823,-108.4572788,82524,ChIJQVn1lvDdWIcRAZHTRv-TTUQ
42.9079641,-108.5789692,82515,ChIJAU6-jxriWIcRDHRRTwMGWUA
42.7979846,-106.6291304,82604,ChIJo8NxGSU6XocRt-T41uxgc5M
43.1195152,-107.3434916,82638,ChIJky9K1s08X4cRtWXKGxUKTeE
43.936402,-107.2965635,82442,ChIJM_otwG7YSlMRM9NxiP8WW1Q
43.2861061,-107.1484521,82648,ChIJGUW6b0FJXocRia_AXRL_o64
42.7979846,-106.6291304,82604,ChIJo8NxGSU6XocRt-T41uxgc5M
43.1195152,-107.3434916,82638,ChIJky9K1s08X4cRtWXKGxUKTeE
43.2861061,-107.1484521,82648,ChIJGUW6b0FJXocRia_AXRL_o64
42.7462761,-109.7204609,82923,ChIJ6ypyKRh2V4cROm3GZ7S3kqU
42.9588823,-108.4572788,82524,ChIJQVn1lvDdWIcRAZHTRv-TTUQ
42.9079641,-108.5789692,82515,ChIJAU6-jxriWIcRDHRRTwMGWUA
42.7979846,-106.6291304,82604,ChIJo8NxGSU6XocRt-T41uxgc5M
43.1195152,-107.3434916,82638,ChIJky9K1s08X4cRtWXKGxUKTeE
43.936402,-107.2965635,82442,ChIJM_otwG7YSlMRM9NxiP8WW1Q
42.7462761,-109.7204609,82923,ChIJ6ypyKRh2V4cROm3GZ7S3kqU
42.9588823,-108.4572788,82524,ChIJQVn1lvDdWIcRAZHTRv-TTUQ
42.9079641,-108.5789692,82515,ChIJAU6-jxriWIcRDHRRTwMGWUA
42.7462761,-109.7204609,82923,ChIJ6ypyKRh2V4cROm3GZ7S3kqU
42.51658620000001,-107.8346924,82310,ChIJ7X_oScWjXocRml6t3BtK9Bk
41.88790660000001,-107.5741855,82301,ChIJc7Q-7QxOXIcR5P6zdH2HapQ
42.51658620000001,-107.8346924,82310,ChIJ7X_oScWjXocRml6t3BtK9Bk
42.4816561,-106.9594723,82620,ChIJJdK9sEngXYcRhL_f4XhsKaM
33.2313202,-98.9024603,76372,ChIJZ754HYqWU4YR2g47dIjb78Q
33.0056056,-98.78116449999999,76481,ChIJJ4UNPZnBU4YRDUwyHAuMRhg
32.7582646,-98.63805980000001,76429,ChIJ-ykdGOhiUYYRX-CjZK_X8vs
33.0953425,-98.61606739999999,76450,ChIJ8_qIOsTHU4YRerdHj57XMm8
33.1431274,-98.40745729999999,76427,ChIJ0x4-eyw2UoYR-pPJJnh6hew
32.9135273,-98.3307468,76449,ChIJFbjsbNyHUYYRaI-PMVY_e28
32.8084577,-98.88039250000001,76424,ChIJOQ_t03BgUYYRoc1R37OUO_Q
32.4740718,-98.5281613,76475,ChIJEfYwEWB4UYYRbObz31Qs_So
33.0203015,-98.06834300000001,76486,ChIJLbZVy0gXUoYRXCxCcUy6mdQ
33.0953425,-98.61606739999999,76450,ChIJ8_qIOsTHU4YRerdHj57XMm8
33.2313202,-98.9024603,76372,ChIJZ754HYqWU4YR2g47dIjb78Q
33.2770197,-98.40745729999999,76459,ChIJ_3BQEydMUoYRywHgjQEJCeI
33.0953425,-98.61606739999999,76450,ChIJ8_qIOsTHU4YRerdHj57XMm8
33.4581198,-98.5281613,76389,ChIJiXs6HoP_UoYRHYY-q7HieTM
33.3037265,-98.5062007,76460,ChIJOwG_FCRNUoYR4ukZfiW76OM
33.2560382,-98.2212979,76458,ChIJe2vLMfpAUoYRssUXUUowMug
33.3505938,-98.7921836,76374,ChIJNblwP4ejU4YRJep9uEoNT8w
33.2770197,-98.40745729999999,76459,ChIJ_3BQEydMUoYRywHgjQEJCeI
33.4988372,-97.9157099,76230,ChIJ4fd__kl-TYYR50O57XI4Nz0
33.0953425,-98.61606739999999,76450,ChIJ8_qIOsTHU4YRerdHj57XMm8
33.2313202,-98.9024603,76372,ChIJZ754HYqWU4YR2g47dIjb78Q
33.2770197,-98.40745729999999,76459,ChIJ_3BQEydMUoYRywHgjQEJCeI
33.0953425,-98.61606739999999,76450,ChIJ8_qIOsTHU4YRerdHj57XMm8
33.4581198,-98.5281613,76389,ChIJiXs6HoP_UoYRHYY-q7HieTM
33.3037265,-98.5062007,76460,ChIJOwG_FCRNUoYR4ukZfiW76OM
33.2560382,-98.2212979,76458,ChIJe2vLMfpAUoYRssUXUUowMug
33.3505938,-98.7921836,76374,ChIJNblwP4ejU4YRJep9uEoNT8w
33.2770197,-98.40745729999999,76459,ChIJ_3BQEydMUoYRywHgjQEJCeI
33.4988372,-97.9157099,76230,ChIJ4fd__kl-TYYR50O57XI4Nz0
33.0953425,-98.61606739999999,76450,ChIJ8_qIOsTHU4YRerdHj57XMm8
33.2313202,-98.9024603,76372,ChIJZ754HYqWU4YR2g47dIjb78Q
33.2770197,-98.40745729999999,76459,ChIJ_3BQEydMUoYRywHgjQEJCeI
33.0953425,-98.61606739999999,76450,ChIJ8_qIOsTHU4YRerdHj57XMm8
33.4581198,-98.5281613,76389,ChIJiXs6HoP_UoYRHYY-q7HieTM
33.3037265,-98.5062007,76460,ChIJOwG_FCRNUoYR4ukZfiW76OM
33.2560382,-98.2212979,76458,ChIJe2vLMfpAUoYRssUXUUowMug
33.3505938,-98.7921836,76374,ChIJNblwP4ejU4YRJep9uEoNT8w
33.2770197,-98.40745729999999,76459,ChIJ_3BQEydMUoYRywHgjQEJCeI
33.4988372,-97.9157099,76230,ChIJ4fd__kl-TYYR50O57XI4Nz0
33.0953425,-98.61606739999999,76450,ChIJ8_qIOsTHU4YRerdHj57XMm8
33.2313202,-98.9024603,76372,ChIJZ754HYqWU4YR2g47dIjb78Q
33.0056056,-98.78116449999999,76481,ChIJJ4UNPZnBU4YRDUwyHAuMRhg
32.7582646,-98.63805980000001,76429,ChIJ-ykdGOhiUYYRX-CjZK_X8vs
33.0953425,-98.61606739999999,76450,ChIJ8_qIOsTHU4YRerdHj57XMm8
33.1431274,-98.40745729999999,76427,ChIJ0x4-eyw2UoYR-pPJJnh6hew
32.9135273,-98.3307468,76449,ChIJFbjsbNyHUYYRaI-PMVY_e28
32.8084577,-98.88039250000001,76424,ChIJOQ_t03BgUYYRoc1R37OUO_Q
32.4740718,-98.5281613,76475,ChIJEfYwEWB4UYYRbObz31Qs_So
33.0203015,-98.06834300000001,76486,ChIJLbZVy0gXUoYRXCxCcUy6mdQ
33.0953425,-98.61606739999999,76450,ChIJ8_qIOsTHU4YRerdHj57XMm8
33.2313202,-98.9024603,76372,ChIJZ754HYqWU4YR2g47dIjb78Q
33.0056056,-98.78116449999999,76481,ChIJJ4UNPZnBU4YRDUwyHAuMRhg
32.7582646,-98.63805980000001,76429,ChIJ-ykdGOhiUYYRX-CjZK_X8vs
33.0953425,-98.61606739999999,76450,ChIJ8_qIOsTHU4YRerdHj57XMm8
33.1431274,-98.40745729999999,76427,ChIJ0x4-eyw2UoYR-pPJJnh6hew
32.9135273,-98.3307468,76449,ChIJFbjsbNyHUYYRaI-PMVY_e28
32.8084577,-98.88039250000001,76424,ChIJOQ_t03BgUYYRoc1R37OUO_Q
32.4740718,-98.5281613,76475,ChIJEfYwEWB4UYYRbObz31Qs_So
33.0203015,-98.06834300000001,76486,ChIJLbZVy0gXUoYRXCxCcUy6mdQ
33.0953425,-98.61606739999999,76450,ChIJ8_qIOsTHU4YRerdHj57XMm8
32.7028297,-98.29789509999999,76484,ChIJcYh69puIUYYRyGLduv79gNc
32.8084298,-98.11289629999999,76067,ChIJhXcJmHCJUYYR3eR_D26Yoko
32.8084298,-98.11289629999999,76067,ChIJhXcJmHCJUYYR3eR_D26Yoko
32.9867158,-97.8939317,76487,ChIJoepnLsUFUoYRxMoZNiZGdUg
32.8526488,-97.70908539999999,76085,ChIJCUL4RFQHToYRDXsuUSK-Bbo
32.9438269,-98.01788379999999,76490,ChIJfUip2EYaUoYRMKBIGsq9Hxw
33.0871252,-97.7199454,76073,ChIJPSxm9J32TYYR06JigZG4gG0
32.84955619999999,-97.9374948,76088,ChIJy1beQVwCUoYRiOjnq_ZBaEo
32.9528231,-97.7199454,76082,ChIJK7bHX3_5TYYRb4-KHUFruvQ
33.1683909,-97.8503951,76426,ChIJ3TN4ZbEKUoYRP7an-l_bY40
33.2581763,-97.4814163,76234,ChIJiwP9ChOUTYYRNW63t-UQ73k
33.0503774,-97.5897372,76023,ChIJd8tSpMvvTYYRElRjaU5YJrQ
33.1029838,-97.4597725,76078,ChIJVUGS2bbpTYYRrAwAFJ7wL5Y
32.9843533,-97.38407289999999,76052,ChIJvWhDkkLcTYYRFMlnOQCjUks
33.1106867,-97.33005299999999,76247,ChIJv8QNZ0XETYYRJfwRF0WzDps
32.8601513,-97.3641377,76179,ChIJXz_egyjeTYYRUMuVIuG8xjs
32.8447037,-97.47059349999999,76135,ChIJ9UnopxHgTYYRmfLwfZOJ44U
32.7747949,-97.5138947,76108,ChIJWQFrSOQLToYRsZR_5HvWi6M
33.0062272,-97.4868283,76071,ChIJJ3oLJ0LmTYYRWsLe3YW95uw
32.8959754,-97.3624598,76131,ChIJc0QcAjXfTYYRF3NletZ-Do0
33.4416549,-97.76340189999999,76270,ChIJy1XYCCyHTYYRIb6kLnfEefQ
33.3023727,-97.8503951,76431,ChIJP0esUXYOUoYRa9ip961eI8s
33.357879,-97.6765157,76225,ChIJRxG19UGPTYYRWfUQaATP6Ik
33.2581763,-97.4814163,76234,ChIJiwP9ChOUTYYRNW63t-UQ73k
33.1029838,-97.4597725,76078,ChIJVUGS2bbpTYYRrAwAFJ7wL5Y
33.4416549,-97.76340189999999,76270,ChIJy1XYCCyHTYYRIb6kLnfEefQ
33.1106867,-97.33005299999999,76247,ChIJv8QNZ0XETYYRJfwRF0WzDps
33.2895377,-97.33005299999999,76249,ChIJl_AyYaa5TYYRQu_yHBffsEo
33.3023727,-97.8503951,76431,ChIJP0esUXYOUoYRa9ip961eI8s
33.2119666,-97.31925419999999,76259,ChIJM6wqKJfHTYYRc5u5gFHsSlU
33.4416549,-97.76340189999999,76270,ChIJy1XYCCyHTYYRIb6kLnfEefQ
33.3023727,-97.8503951,76431,ChIJP0esUXYOUoYRa9ip961eI8s
33.357879,-97.6765157,76225,ChIJRxG19UGPTYYRWfUQaATP6Ik
33.2581763,-97.4814163,76234,ChIJiwP9ChOUTYYRNW63t-UQ73k
33.1029838,-97.4597725,76078,ChIJVUGS2bbpTYYRrAwAFJ7wL5Y
33.4416549,-97.76340189999999,76270,ChIJy1XYCCyHTYYRIb6kLnfEefQ
33.1106867,-97.33005299999999,76247,ChIJv8QNZ0XETYYRJfwRF0WzDps
33.2895377,-97.33005299999999,76249,ChIJl_AyYaa5TYYRQu_yHBffsEo
33.3023727,-97.8503951,76431,ChIJP0esUXYOUoYRa9ip961eI8s
33.2119666,-97.31925419999999,76259,ChIJM6wqKJfHTYYRc5u5gFHsSlU
33.4416549,-97.76340189999999,76270,ChIJy1XYCCyHTYYRIb6kLnfEefQ
33.3023727,-97.8503951,76431,ChIJP0esUXYOUoYRa9ip961eI8s
33.357879,-97.6765157,76225,ChIJRxG19UGPTYYRWfUQaATP6Ik
33.2581763,-97.4814163,76234,ChIJiwP9ChOUTYYRNW63t-UQ73k
33.1029838,-97.4597725,76078,ChIJVUGS2bbpTYYRrAwAFJ7wL5Y
33.4416549,-97.76340189999999,76270,ChIJy1XYCCyHTYYRIb6kLnfEefQ
33.1106867,-97.33005299999999,76247,ChIJv8QNZ0XETYYRJfwRF0WzDps
33.2895377,-97.33005299999999,76249,ChIJl_AyYaa5TYYRQu_yHBffsEo
33.3023727,-97.8503951,76431,ChIJP0esUXYOUoYRa9ip961eI8s
33.2119666,-97.31925419999999,76259,ChIJM6wqKJfHTYYRc5u5gFHsSlU
33.4416549,-97.76340189999999,76270,ChIJy1XYCCyHTYYRIb6kLnfEefQ
33.3023727,-97.8503951,76431,ChIJP0esUXYOUoYRa9ip961eI8s
33.357879,-97.6765157,76225,ChIJRxG19UGPTYYRWfUQaATP6Ik
33.2581763,-97.4814163,76234,ChIJiwP9ChOUTYYRNW63t-UQ73k
33.1029838,-97.4597725,76078,ChIJVUGS2bbpTYYRrAwAFJ7wL5Y
33.4416549,-97.76340189999999,76270,ChIJy1XYCCyHTYYRIb6kLnfEefQ
33.1106867,-97.33005299999999,76247,ChIJv8QNZ0XETYYRJfwRF0WzDps
33.2895377,-97.33005299999999,76249,ChIJl_AyYaa5TYYRQu_yHBffsEo
33.3023727,-97.8503951,76431,ChIJP0esUXYOUoYRa9ip961eI8s
33.2119666,-97.31925419999999,76259,ChIJM6wqKJfHTYYRc5u5gFHsSlU
38.5474428,-121.7765309,95616,ChIJ1WBWrmUohYARTywRTzjBmOo
38.518893,-121.6511258,95618,ChIJY-M-hZcrhYARuWZSAQ-qYCc
38.56030560000001,-121.4970294,95818,ChIJj4HMYRzRmoAReyh-jnVU2Fk
38.4603864,-121.43419,95823,ChIJtTdNQojFmoARrYwMjYEy97Q
38.4654043,-121.4970294,95832,ChIJnQvS8CvJmoARSOx6g9J322o
38.5128714,-121.4970294,95822,ChIJoYfiGNDPmoARwetSJwZdDIo
38.517011,-121.4513314,95824,ChIJn2XqzFDFmoARhYLT1h4f4WU
38.5815697,-121.5312934,95691,ChIJEyjsd8zTmoARKWuBkKGooTU
38.5359933,-121.4513314,95820,ChIJ_YErVC3FmoARNRSgQwA0yNE
38.5500434,-121.4599012,95817,ChIJ0cgJK2XQmoARr7wvw1OQ-l8
38.3807344,-121.6054893,95612,ChIJZzA6hYfLmoARAhovrtK-f2E
38.3810489,-121.5170166,95639,ChIJ10JJKZXJmoARxr6eBX0m_HI
38.3807344,-121.6054893,95612,ChIJZzA6hYfLmoARAhovrtK-f2E
38.4244019,-121.3312882,95624,ChIJ5Y8ehkbAmoARIpyB27z6ets
38.3888359,-121.193945,95693,ChIJcQA5wWmVmoARa57j8XJizXw
38.4244019,-121.3312882,95624,ChIJ5Y8ehkbAmoARIpyB27z6ets
38.4919885,-121.1022942,95683,ChIJLaZpkSuMmoARnOkykqmW2BY
38.3888359,-121.193945,95693,ChIJcQA5wWmVmoARa57j8XJizXw
38.4829024,-120.8728615,95669,ChIJVxxhCdBhmoARBKo06rm78Yg
38.4919885,-121.1022942,95683,ChIJLaZpkSuMmoARnOkykqmW2BY
38.4332877,-120.7809676,95685,ChIJlXpef8FkmoAR_GouMBoYj9g
38.370187,-120.734995,95642,ChIJfT9ndCxxmoARTytF4jeqZXo
38.1388264,-120.8728615,95252,ChIJ4chuupSGkIARVJYOd9saq50
38.4332877,-120.7809676,95685,ChIJlXpef8FkmoAR_GouMBoYj9g
38.3590703,-120.5912217,95232,ChIJt_bIqFR0moAR7QdGAeeE_d4
38.2449553,-120.5048792,95246,ChIJ07MJOvWhkIARMu8r9Smrtok
38.4096384,-120.6314948,95665,ChIJOUxBR-JwmoARrOd5iGHC9Ys
38.3084205,-120.5509358,95245,ChIJETRJox-ekIARAKzmhvAY-WY
38.4496949,-120.4588059,95255,ChIJw2SPLvQLmoARxnjXWUEt_wk
38.370187,-120.734995,95642,ChIJfT9ndCxxmoARTytF4jeqZXo
38.6084554,-120.9646866,95682,ChIJr6KV3JX2moARBimPeM_F598
38.8074133,-121.1595842,95650,ChIJx5mbfB8cm4ARV8FyPztA2lU
38.7218957,-120.9991032,95672,ChIJLRVPXeP7moAR7ft_oxnlu7c
38.8831341,-121.1595842,95658,ChIJeagZEMsbm4ARt2NOSKYbpqo
38.6061114,-121.1022942,95630,ChIJzTIPIrLjmoARkes1RjRe-mw
38.6575905,-121.0564425,95762,ChIJZfB6CB_7moARgJ-WHIRMzOA
38.809388,-121.0564425,95664,ChIJc5TVUIACm4ARTx0z49Dhmxw
38.8210287,-120.9359987,95651,ChIJvVtTPNv_moARXcwCrLwchHU
38.7370339,-120.8498944,95667,ChIJhb7j0zJXmoARLN6kKOwpdx4
38.6084554,-120.9646866,95682,ChIJr6KV3JX2moARBimPeM_F598
38.6869632,-120.8096918,95619,ChIJlc6nGoZZmoARRRALEcDaMUM
38.6100779,-120.8613785,95623,ChIJnU-nyc5emoARiNJcys0yeWo
38.8520489,-120.7809676,95633,ChIJ2cqwzdJUmoAR0BxN62lwQLY
38.7973333,-120.88829,95613,ChIJuwvEPIJVmoAR9M4dWaxowAw
38.7931476,-120.4588059,95726,ChIJ_w88uvA4moARtLP84Imlth4
38.7586142,-120.6775054,95709,ChIJjRWO6Y1PmoARq1bsuTX64ws
38.9167124,-120.6890055,95634,ChIJP0ItDSKsm4ARLI-Rt7WKFAU
38.8520489,-120.7809676,95633,ChIJ2cqwzdJUmoAR0BxN62lwQLY
38.576092,-120.5509358,95684,ChIJ6-L2bUJqmoARQUJ_mJNPZQU
38.7931476,-120.4588059,95726,ChIJ_w88uvA4moARtLP84Imlth4
38.7828723,-120.2281933,95720,ChIJ7RwsU2QhmoAR1yOCCCHo2Tc
38.8153606,-120.147383,95735,ChIJrZ_UhkGKmYAR9dMLmm6v0r0
38.7828723,-120.2281933,95720,ChIJ7RwsU2QhmoAR1yOCCCHo2Tc
38.8349932,-120.078078,95721,ChIJ5-toeFaJmYAR5IwozHU46Fw
38.8864448,-119.9971769,96150,ChIJl6HS4YmImYAR2qQHpSDBnWw
38.7586812,-120.078078,96155,ChIJhfbvF_mAmYAR4SzrNu41-_I
38.9537555,-119.9104436,89449,ChIJz4AfspiQmYARbLIDnPn1PQA
38.900503,-119.7773461,89460,ChIJuRkIUja-mYARISjIZ7YET4Y
38.8349932,-120.078078,95721,ChIJ5-toeFaJmYAR5IwozHU46Fw
38.8864448,-119.9971769,96150,ChIJl6HS4YmImYAR2qQHpSDBnWw
34.275113,-118.7095413,93063,ChIJs8xhr58p6IAR6N76mWqFkd8
34.676617,-118.4531942,93532,ChIJ9QnS1TVywoAR6WfAYT27_Nw
34.3729805,-118.61481,91381,ChIJn0F-yBqBwoARRr4zLTog2KI
34.3023759,-118.3695699,91342,ChIJj26iWQGOwoAR9yiG1FTfZlQ
34.4964601,-118.3346172,91390,ChIJlwB6F95jwoARntGOoV9ujFQ
34.5455162,-118.6964752,91384,ChIJ9d5RSqJwwoAR_le7FSKyMTs
34.2774306,-118.7897558,93065,ChIJD6l4rFYp6IARFCiG3mrFKR0
34.3677169,-118.4747173,91321,ChIJl4J-pOGFwoAR5N2kEcgHWXs
34.4627169,-118.5622893,91354,ChIJv59WoJN9woARwqFNzB9NDCE
34.2801972,-118.4980744,91344,ChIJNbBfpkuFwoARQob9eo1ZHgM
35.1090685,-119.0227159,93313,ChIJWZ0YejIW6oARtssOzwmF4QM
35.1268513,-119.1855785,93311,ChIJD2y4Epk56oARcieXNNz8UMM
35.2421103,-118.9761519,93307,ChIJSUqSvHgO6oARn_9loQartnk
35.0626492,-118.8130675,93203,ChIJEd8ftkkD6oARqs6wi_MuhOo
34.8177796,-119.0027936,93225,ChIJyZ5YCG2L6YARcyuM9BUK7nU
34.8843005,-118.3228165,93560,ChIJqy_WqlcFwoARcLc-21njAxw
35.0776145,-118.4396756,93561,ChIJ9XVFF635wYARJ7bq9Xj_lTQ
35.224821,-118.61481,93531,ChIJKyOy-or8wYARcGD1GwGy-mI
34.7190908,-118.2526623,93536,ChIJz0FPHxlswoARh-R6LwD_eGg
35.0626492,-118.8130675,93203,ChIJEd8ftkkD6oARqs6wi_MuhOo
34.8843005,-118.3228165,93560,ChIJqy_WqlcFwoARcLc-21njAxw
34.7190908,-118.2526623,93536,ChIJz0FPHxlswoARh-R6LwD_eGg
34.8843005,-118.3228165,93560,ChIJqy_WqlcFwoARcLc-21njAxw
34.6946278,-118.1473771,93534,ChIJud2n6BpFwoAR8jg-ggI491o
34.7311394,-117.8780275,93535,ChIJpUYN0wEJw4ARVrTfz0SdkXE
34.594158,-118.1824793,93551,ChIJg0q7FwlYwoARIFov9OaFXMs
34.7190908,-118.2526623,93536,ChIJz0FPHxlswoARh-R6LwD_eGg
34.3579404,-118.0654445,93550,ChIJqer690X3woARnNldVmupjUs
34.8843005,-118.3228165,93560,ChIJqy_WqlcFwoARcLc-21njAxw
34.5925622,-117.8194197,93591,ChIJb5QYDREHw4ARGCzBoXGZJgY
35.1090685,-119.0227159,93313,ChIJWZ0YejIW6oARtssOzwmF4QM
35.1268513,-119.1855785,93311,ChIJD2y4Epk56oARcieXNNz8UMM
35.2421103,-118.9761519,93307,ChIJSUqSvHgO6oARn_9loQartnk
35.0626492,-118.8130675,93203,ChIJEd8ftkkD6oARqs6wi_MuhOo
34.8177796,-119.0027936,93225,ChIJyZ5YCG2L6YARcyuM9BUK7nU
34.8843005,-118.3228165,93560,ChIJqy_WqlcFwoARcLc-21njAxw
35.0776145,-118.4396756,93561,ChIJ9XVFF635wYARJ7bq9Xj_lTQ
35.224821,-118.61481,93531,ChIJKyOy-or8wYARcGD1GwGy-mI
34.7190908,-118.2526623,93536,ChIJz0FPHxlswoARh-R6LwD_eGg
35.0626492,-118.8130675,93203,ChIJEd8ftkkD6oARqs6wi_MuhOo
35.04403,-118.2526623,93501,ChIJR_9x9lwhwoAR0oYgWCda3Ug
35.1146082,-117.9717606,93505,ChIJuVS-TbUswoARsgpBFafdNCE
34.9609579,-117.8545867,93523,ChIJw0Z-RvE0woARAKRDqIcOv0c
35.04403,-118.2526623,93501,ChIJR_9x9lwhwoAR0oYgWCda3Ug
35.00735270000001,-117.666952,93516,ChIJtaDHzxu4w4ARWm3RfQ_mNNE
34.9326031,-117.9073244,93524,ChIJN0hy0VA1woARBCaZi1dar0c
34.8611703,-119.179765,93222,ChIJGWhND2GI6YAReS9YDPWH9Gg
34.6149957,-118.1093418,93599,ChIJd-GEmRUGw4AR_ssFPdXa4a0
34.5811542,-118.0303189,93552,ChIJuUA9l7D4woARlX6b_DOOT6E
34.9609579,-117.8545867,93523,ChIJw0Z-RvE0woARAKRDqIcOv0c
35.8453422,-118.5097517,93238,ChIJwRwTc_8twIARhx4NW-xUHKw
35.7377864,-118.0654445,93255,ChIJmTUy1JmlwYARQf0GsLEozsE
35.6239573,-118.2760503,93283,ChIJyXm1Bfq7wYARgi7s-uFS4fQ
35.7249556,-118.5097517,93285,ChIJWeVdAvnSwYAR0n8VjfGl-e0
35.5489716,-118.451357,93205,ChIJY-rmREDDwYARGL_zWshMiVs
35.6283762,-118.4163103,93240,ChIJZdO78K_PwYARqnK1gVZydAM
35.4008617,-118.4396756,93518,ChIJcReGOzvmwYARpy4aib-ZbvM
35.3901517,-117.7607932,93554,ChIJ2UbrKK1kwYAROupSUg2Z9CY
35.7377864,-118.0654445,93255,ChIJmTUy1JmlwYARQf0GsLEozsE
35.6239573,-118.2760503,93283,ChIJyXm1Bfq7wYARgi7s-uFS4fQ
35.9218986,-117.2440957,93592,ChIJkb25Fds5wYARySbp2fPcqJc
35.76615779999999,-117.3851496,93562,ChIJJzPPkhUuwYARTwicmZpn-CQ
36.1155819,-118.1590786,93527,ChIJj48dDUxEwIARc1ot_F1ipeU
35.5897118,-117.6904167,93555,ChIJ35wCh7JGwYARmHVb1ZcTwSY
35.76615779999999,-117.3851496,93562,ChIJJzPPkhUuwYARTwicmZpn-CQ
36.1155819,-118.1590786,93527,ChIJj48dDUxEwIARc1ot_F1ipeU
35.5897118,-117.6904167,93555,ChIJ35wCh7JGwYARmHVb1ZcTwSY
35.76615779999999,-117.3851496,93562,ChIJJzPPkhUuwYARTwicmZpn-CQ
35.3028869,-117.9483319,93519,ChIJyWR1ij2DwYAR5tcRWsre4YM
35.3714792,-117.6317494,93528,ChIJw5yRuw9hwYARlCj8bsbM8wA
36.2106674,-118.7198004,93265,ChIJnV6Hvn0FwIAR2Xe3nahSh30
36.163149,-117.9717606,93549,ChIJX-C2IA1gwIARExwy4j9kPO4
36.4971356,-117.8868171,93530,ChIJsT9sklyBv4ARiPx93BnAgwE
36.5131184,-118.0888578,93545,ChIJj9FCAM-Fv4ARCW047sH7yk8
36.311674,-117.6200138,93522,ChIJLwkveCqVwIARUjNzM7lkQhk
36.5512675,-116.8910342,92328,ChIJKY0ZA3Imx4AR3MWz2uRwbpY
36.311674,-117.6200138,93522,ChIJLwkveCqVwIARUjNzM7lkQhk
36.5512675,-116.8910342,92328,ChIJKY0ZA3Imx4AR3MWz2uRwbpY
36.5512675,-116.8910342,92328,ChIJKY0ZA3Imx4AR3MWz2uRwbpY
36.311674,-117.6200138,93522,ChIJLwkveCqVwIARUjNzM7lkQhk
36.4971356,-117.8868171,93530,ChIJsT9sklyBv4ARiPx93BnAgwE
36.5131184,-118.0888578,93545,ChIJj9FCAM-Fv4ARCW047sH7yk8
34.2511322,-80.23213129999999,29010,ChIJhzxpF_2FVYgRpmXF17ekPoI
34.0790028,-80.5660657,29128,ChIJ66KCIEde_4gRae3YEwKo0RM
34.3028622,-80.610489,29020,ChIJ72QGSRvwVYgRlc-jZ18r51k
33.9733419,-80.3435908,29153,ChIJ4z4G3UBl_4gR_asq4xWXirM
34.0567366,-80.42152460000001,29040,ChIJ4wacvbhg_4gRIVVlVEOVuf8
34.2511322,-80.23213129999999,29010,ChIJhzxpF_2FVYgRpmXF17ekPoI
34.1724606,-80.0758425,29069,ChIJ1XqhdrJ4VYgRxUWrRAe0Af8
34.0188023,-80.2209773,29104,ChIJGRWA5px7_4gRgQWBeWLTXco
33.9960822,-80.0758425,29080,ChIJ-5e2bbyAVYgRhA1GF-z8n1Y
33.9733419,-80.3435908,29153,ChIJ4z4G3UBl_4gR_asq4xWXirM
34.2511322,-80.23213129999999,29010,ChIJhzxpF_2FVYgRpmXF17ekPoI
34.0790028,-80.5660657,29128,ChIJ66KCIEde_4gRae3YEwKo0RM
34.3028622,-80.610489,29020,ChIJ72QGSRvwVYgRlc-jZ18r51k
33.9733419,-80.3435908,29153,ChIJ4z4G3UBl_4gR_asq4xWXirM
34.0567366,-80.42152460000001,29040,ChIJ4wacvbhg_4gRIVVlVEOVuf8
34.2511322,-80.23213129999999,29010,ChIJhzxpF_2FVYgRpmXF17ekPoI
34.1724606,-80.0758425,29069,ChIJ1XqhdrJ4VYgRxUWrRAe0Af8
34.0188023,-80.2209773,29104,ChIJGRWA5px7_4gRgQWBeWLTXco
33.9960822,-80.0758425,29080,ChIJ-5e2bbyAVYgRhA1GF-z8n1Y
33.9733419,-80.3435908,29153,ChIJ4z4G3UBl_4gR_asq4xWXirM
34.2511322,-80.23213129999999,29010,ChIJhzxpF_2FVYgRpmXF17ekPoI
34.412595,-80.0534923,29550,ChIJAT32C5d1VYgRC9mtxH6fSlU
34.1724606,-80.0758425,29069,ChIJ1XqhdrJ4VYgRxUWrRAe0Af8
34.2898095,-79.8968798,29532,ChIJ3yFbOUFvVYgRE4gbn-UWhvI
34.1289479,-79.6838874,29505,ChIJW1eWFvleVYgRMq8xcrQS8Jg
33.9960822,-80.0758425,29080,ChIJ-5e2bbyAVYgRhA1GF-z8n1Y
34.1980902,-79.8520818,29501,ChIJJzaXSINmVYgRy5ixLynapVA
34.0685346,-79.7512033,29541,ChIJ05exXLOK_4gRnLvde75DioI
34.1412922,-79.96403389999999,29161,ChIJsYDQPrliVYgRTV7OFGfhrV8
33.9511006,-79.9304633,29114,ChIJvYNSUG6F_4gRBVpSTH_Rdok
34.5597785,-80.5216184,29067,ChIJFw66wkHBVYgRvAPg0mQFPwY
34.3230497,-80.8765205,29130,ChIJ8Ru6Zg0GVogRtlJ4ZPXhpO4
34.1774508,-80.6992633,29078,ChIJq5uOnNv4VYgRcSHx81QhgSc
34.5768886,-80.7436141,29058,ChIJ3wuomoTeVYgR80a743KZEbk
34.5564793,-80.9097127,29055,ChIJC1ULQ1ZyVogRGjM7SGAmsug
34.3330563,-80.4326521,29032,ChIJ_aJwIeiSVYgRVKKKm1VLp_g
34.7321261,-80.7657804,29720,ChIJDTWi4l_QVYgRHDhZs3J8RAk
34.4560117,-80.8156324,29074,ChIJKxJ6fivgVYgR1fw_EGqOCOU
34.4070464,-81.1196075,29180,ChIJG4_XiX0JVogRC3O4k9yAW2Q
34.4407919,-80.6160402,29175,ChIJNeILd-3oVYgRiwoUXJEPC7c
34.2006447,-81.0092062,29016,ChIJC6VxnNICVogRXysi9xM0FYE
33.9343427,-80.8433145,29061,ChIJa6VoAWaz-IgRwRonRPOWd9I
34.3230497,-80.8765205,29130,ChIJ8Ru6Zg0GVogRtlJ4ZPXhpO4
34.1774508,-80.6992633,29078,ChIJq5uOnNv4VYgRcSHx81QhgSc
34.3330563,-80.4326521,29032,ChIJ_aJwIeiSVYgRVKKKm1VLp_g
33.912446,-80.6992633,29044,ChIJ5bFIkBtM_4gRCOascCodRUk
34.1058378,-80.92077370000001,29223,ChIJA4_x5Iel-IgRzKSkRezLlCA
34.187499,-80.8322428,29045,ChIJg-OIEd__VYgRcZQOqfXscyw
34.15854789999999,-80.8875861,29229,ChIJ62CbipOp-IgRd1hpaVOqbws
34.412595,-80.0534923,29550,ChIJAT32C5d1VYgRC9mtxH6fSlU
33.852666,-80.3547286,29150,ChIJzfO51K9u_4gRoIIldnyXKps
34.1412922,-79.96403389999999,29161,ChIJsYDQPrliVYgRTV7OFGfhrV8
34.1289479,-79.6838874,29505,ChIJW1eWFvleVYgRMq8xcrQS8Jg
34.1980902,-79.8520818,29501,ChIJJzaXSINmVYgRy5ixLynapVA
34.0685346,-79.7512033,29541,ChIJ05exXLOK_4gRnLvde75DioI
34.1412922,-79.96403389999999,29161,ChIJsYDQPrliVYgRTV7OFGfhrV8
33.9511006,-79.9304633,29114,ChIJvYNSUG6F_4gRBVpSTH_Rdok
33.9550922,-79.582819,29583,ChIJ40zs863w_4gRxhhb0VwurVU
34.0143667,-79.7624177,29530,ChIJ6_flV6qM_4gRv4rkiGXJChg
34.1289479,-79.6838874,29505,ChIJW1eWFvleVYgRMq8xcrQS8Jg
33.8671848,-80.1205256,29051,ChIJH6XLuAd1_4gRptADgXWkNLw
33.8903572,-79.99759159999999,29162,ChIJvSOWPAib_4gR5v9GW5wGd4g
33.9511006,-79.9304633,29114,ChIJvYNSUG6F_4gRBVpSTH_Rdok
34.0143667,-79.7624177,29530,ChIJ6_flV6qM_4gRv4rkiGXJChg
33.938097,-79.77363059999999,29591,ChIJt1roDBeN_4gRx3OiNgxggEk
33.8903572,-79.99759159999999,29162,ChIJvSOWPAib_4gR5v9GW5wGd4g
34.0685346,-79.7512033,29541,ChIJ05exXLOK_4gRnLvde75DioI
33.8340422,-79.7175517,29560,ChIJYaAN-VCT_4gRzQBYX7RvnSA
34.1412922,-79.96403389999999,29161,ChIJsYDQPrliVYgRTV7OFGfhrV8
33.9511006,-79.9304633,29114,ChIJvYNSUG6F_4gRBVpSTH_Rdok
33.8903572,-79.99759159999999,29162,ChIJvSOWPAib_4gR5v9GW5wGd4g
33.8903572,-79.99759159999999,29162,ChIJvSOWPAib_4gR5v9GW5wGd4g
33.9511006,-79.9304633,29114,ChIJvYNSUG6F_4gRBVpSTH_Rdok
33.938097,-79.77363059999999,29591,ChIJt1roDBeN_4gRx3OiNgxggEk
33.8340422,-79.7175517,29560,ChIJYaAN-VCT_4gRzQBYX7RvnSA
33.9511006,-79.9304633,29114,ChIJvYNSUG6F_4gRBVpSTH_Rdok
33.938097,-79.77363059999999,29591,ChIJt1roDBeN_4gRx3OiNgxggEk
33.8340422,-79.7175517,29560,ChIJYaAN-VCT_4gRzQBYX7RvnSA
33.9511006,-79.9304633,29114,ChIJvYNSUG6F_4gRBVpSTH_Rdok
33.938097,-79.77363059999999,29591,ChIJt1roDBeN_4gRx3OiNgxggEk
33.8671848,-80.1205256,29051,ChIJH6XLuAd1_4gRptADgXWkNLw
33.8903572,-79.99759159999999,29162,ChIJvSOWPAib_4gR5v9GW5wGd4g
33.8157397,-80.03113640000001,29111,ChIJkbXz6iOZ_4gRoYkEPir62wA
33.8671848,-80.1205256,29051,ChIJH6XLuAd1_4gRptADgXWkNLw
33.8903572,-79.99759159999999,29162,ChIJvSOWPAib_4gR5v9GW5wGd4g
33.8157397,-80.03113640000001,29111,ChIJkbXz6iOZ_4gRoYkEPir62wA
33.8903572,-79.99759159999999,29162,ChIJvSOWPAib_4gR5v9GW5wGd4g
33.7890755,-79.84087869999999,29518,ChIJHSRY4hOU_4gRBMCqVyFhI_s
33.8340422,-79.7175517,29560,ChIJYaAN-VCT_4gRzQBYX7RvnSA
33.7890755,-79.84087869999999,29518,ChIJHSRY4hOU_4gRBMCqVyFhI_s
33.938097,-79.77363059999999,29591,ChIJt1roDBeN_4gRx3OiNgxggEk
33.8903572,-79.99759159999999,29162,ChIJvSOWPAib_4gR5v9GW5wGd4g
34.0143667,-79.7624177,29530,ChIJ6_flV6qM_4gRv4rkiGXJChg
33.938097,-79.77363059999999,29591,ChIJt1roDBeN_4gRx3OiNgxggEk
34.0143667,-79.7624177,29530,ChIJ6_flV6qM_4gRv4rkiGXJChg
33.938097,-79.77363059999999,29591,ChIJt1roDBeN_4gRx3OiNgxggEk
33.8671848,-80.1205256,29051,ChIJH6XLuAd1_4gRptADgXWkNLw
33.8903572,-79.99759159999999,29162,ChIJvSOWPAib_4gR5v9GW5wGd4g
33.8671848,-80.1205256,29051,ChIJH6XLuAd1_4gRptADgXWkNLw
33.8903572,-79.99759159999999,29162,ChIJvSOWPAib_4gR5v9GW5wGd4g
33.8671848,-80.1205256,29051,ChIJH6XLuAd1_4gRptADgXWkNLw
33.8671848,-80.1205256,29051,ChIJH6XLuAd1_4gRptADgXWkNLw
33.8903572,-79.99759159999999,29162,ChIJvSOWPAib_4gR5v9GW5wGd4g
33.8671848,-80.1205256,29051,ChIJH6XLuAd1_4gRptADgXWkNLw
33.8903572,-79.99759159999999,29162,ChIJvSOWPAib_4gR5v9GW5wGd4g
33.938097,-79.77363059999999,29591,ChIJt1roDBeN_4gRx3OiNgxggEk
33.8903572,-79.99759159999999,29162,ChIJvSOWPAib_4gR5v9GW5wGd4g
33.8340422,-79.7175517,29560,ChIJYaAN-VCT_4gRzQBYX7RvnSA
33.938097,-79.77363059999999,29591,ChIJt1roDBeN_4gRx3OiNgxggEk
33.8340422,-79.7175517,29560,ChIJYaAN-VCT_4gRzQBYX7RvnSA
33.7823236,-80.1651854,29001,ChIJkab2Nrl0_4gReVessiYevl8
33.7823236,-80.1651854,29001,ChIJkab2Nrl0_4gReVessiYevl8
33.7823236,-80.1651854,29001,ChIJkab2Nrl0_4gReVessiYevl8
33.7823236,-80.1651854,29001,ChIJkab2Nrl0_4gReVessiYevl8
33.6530499,-80.2098219,29102,ChIJU9KjL74O_4gRzvoO9vR06BQ
33.7823236,-80.1651854,29001,ChIJkab2Nrl0_4gReVessiYevl8
33.6530499,-80.2098219,29102,ChIJU9KjL74O_4gRzvoO9vR06BQ
33.7823236,-80.1651854,29001,ChIJkab2Nrl0_4gReVessiYevl8
33.6530499,-80.2098219,29102,ChIJU9KjL74O_4gRzvoO9vR06BQ
33.6608948,-79.7624177,29556,ChIJuUVeb3zA_4gRya5RTt1dhzs
33.7823236,-80.1651854,29001,ChIJkab2Nrl0_4gReVessiYevl8
33.7823236,-80.1651854,29001,ChIJkab2Nrl0_4gReVessiYevl8
33.6530499,-80.2098219,29102,ChIJU9KjL74O_4gRzvoO9vR06BQ
33.6608948,-79.7624177,29556,ChIJuUVeb3zA_4gRya5RTt1dhzs
33.7823236,-80.1651854,29001,ChIJkab2Nrl0_4gReVessiYevl8
33.6530499,-80.2098219,29102,ChIJU9KjL74O_4gRzvoO9vR06BQ
33.6608948,-79.7624177,29556,ChIJuUVeb3zA_4gRya5RTt1dhzs
33.5907516,-79.9864071,29056,ChIJB98ywDak_4gRIdZOKfomXrY
33.6608948,-79.7624177,29556,ChIJuUVeb3zA_4gRya5RTt1dhzs
33.6608948,-79.7624177,29556,ChIJuUVeb3zA_4gRya5RTt1dhzs
35.6189762,-79.87448359999999,27205,ChIJS9hIn_xlU4gRzyrwzXRx6Rc
35.8229988,-79.9864071,27370,ChIJte0j5QtzU4gRUw1PmhpP6CA
35.7352485,-80.23213129999999,27292,ChIJi2T_zZ6bU4gRw6_JMU5QLWU
35.6141751,-80.0758425,27239,ChIJp5rLMgl4U4gRy2NnNEAFeEE
35.7312824,-79.7960523,27203,ChIJMa8vQO5lU4gRRbApU0fuBTY
35.8154629,-79.8968798,27350,ChIJV-Lg9BFtU4gR_KX7ENreysA
35.6189762,-79.87448359999999,27205,ChIJS9hIn_xlU4gRzyrwzXRx6Rc
35.8229988,-79.9864071,27370,ChIJte0j5QtzU4gRUw1PmhpP6CA
35.6141751,-80.0758425,27239,ChIJp5rLMgl4U4gRy2NnNEAFeEE
35.7312824,-79.7960523,27203,ChIJMa8vQO5lU4gRRbApU0fuBTY
35.6396304,-80.38813329999999,28146,ChIJqZ7KRreIU4gR_y29YMqM444
35.5285762,-80.2209773,28137,ChIJxzqzURF4VIgRQDsRNFzeH9s
35.7379528,-80.3992652,27299,ChIJEWyR7rWTU4gRTX-4VdzuLb8
35.7352485,-80.23213129999999,27292,ChIJi2T_zZ6bU4gRw6_JMU5QLWU
35.6141751,-80.0758425,27239,ChIJp5rLMgl4U4gRy2NnNEAFeEE
35.6189762,-79.87448359999999,27205,ChIJS9hIn_xlU4gRzyrwzXRx6Rc
35.8229988,-79.9864071,27370,ChIJte0j5QtzU4gRUw1PmhpP6CA
35.7352485,-80.23213129999999,27292,ChIJi2T_zZ6bU4gRw6_JMU5QLWU
35.6141751,-80.0758425,27239,ChIJp5rLMgl4U4gRy2NnNEAFeEE
35.7312824,-79.7960523,27203,ChIJMa8vQO5lU4gRRbApU0fuBTY
35.6396304,-80.38813329999999,28146,ChIJqZ7KRreIU4gR_y29YMqM444
35.5285762,-80.2209773,28137,ChIJxzqzURF4VIgRQDsRNFzeH9s
35.7379528,-80.3992652,27299,ChIJEWyR7rWTU4gRTX-4VdzuLb8
35.8001643,-79.7175517,27248,ChIJ6yJhSkJAU4gRE2HbBRqcgIo
35.7059958,-79.6277523,27316,ChIJSaz3QVlEU4gRDcfwsjrMLZY
35.8392781,-79.7960523,27317,ChIJEU11a8kUU4gR9OOwdjKJ6iU
35.5367858,-79.67266320000002,27341,ChIJAfuipANfU4gRUdlkimmXwf0
35.556588,-79.5266211,27208,ChIJf-JggI1QU4gRq596JJaM3Q0
35.7059958,-79.6277523,27316,ChIJSaz3QVlEU4gRDcfwsjrMLZY
35.7530672,-79.4253776,27344,ChIJGWn-a4tLU4gR8hAI8hFRfHA
35.8001643,-79.7175517,27248,ChIJ6yJhSkJAU4gRE2HbBRqcgIo
35.7059958,-79.6277523,27316,ChIJSaz3QVlEU4gRDcfwsjrMLZY
35.8392781,-79.7960523,27317,ChIJEU11a8kUU4gR9OOwdjKJ6iU
35.5367858,-79.67266320000002,27341,ChIJAfuipANfU4gRUdlkimmXwf0
35.556588,-79.5266211,27208,ChIJf-JggI1QU4gRq596JJaM3Q0
35.7059958,-79.6277523,27316,ChIJSaz3QVlEU4gRDcfwsjrMLZY
35.7530672,-79.4253776,27344,ChIJGWn-a4tLU4gR8hAI8hFRfHA
35.5367858,-79.67266320000002,27341,ChIJAfuipANfU4gRUdlkimmXwf0
35.7767155,-79.5715822,27355,ChIJYVkNk-RHU4gRYrk9wJokgDU
35.6096133,-79.391605,27207,ChIJA33kX7JSU4gRFcuaXErvuBE
35.6396304,-80.38813329999999,28146,ChIJqZ7KRreIU4gR_y29YMqM444
35.5285762,-80.2209773,28137,ChIJxzqzURF4VIgRQDsRNFzeH9s
35.7379528,-80.3992652,27299,ChIJEWyR7rWTU4gRTX-4VdzuLb8
35.8001643,-79.7175517,27248,ChIJ6yJhSkJAU4gRE2HbBRqcgIo
35.7059958,-79.6277523,27316,ChIJSaz3QVlEU4gRDcfwsjrMLZY
35.8392781,-79.7960523,27317,ChIJEU11a8kUU4gR9OOwdjKJ6iU
35.5367858,-79.67266320000002,27341,ChIJAfuipANfU4gRUdlkimmXwf0
35.556588,-79.5266211,27208,ChIJf-JggI1QU4gRq596JJaM3Q0
35.7059958,-79.6277523,27316,ChIJSaz3QVlEU4gRDcfwsjrMLZY
35.7530672,-79.4253776,27344,ChIJGWn-a4tLU4gR8hAI8hFRfHA
35.6396304,-80.38813329999999,28146,ChIJqZ7KRreIU4gR_y29YMqM444
35.5285762,-80.2209773,28137,ChIJxzqzURF4VIgRQDsRNFzeH9s
35.7379528,-80.3992652,27299,ChIJEWyR7rWTU4gRTX-4VdzuLb8
35.8001643,-79.7175517,27248,ChIJ6yJhSkJAU4gRE2HbBRqcgIo
35.7059958,-79.6277523,27316,ChIJSaz3QVlEU4gRDcfwsjrMLZY
35.8392781,-79.7960523,27317,ChIJEU11a8kUU4gR9OOwdjKJ6iU
35.5367858,-79.67266320000002,27341,ChIJAfuipANfU4gRUdlkimmXwf0
35.556588,-79.5266211,27208,ChIJf-JggI1QU4gRq596JJaM3Q0
35.7059958,-79.6277523,27316,ChIJSaz3QVlEU4gRDcfwsjrMLZY
35.7530672,-79.4253776,27344,ChIJGWn-a4tLU4gR8hAI8hFRfHA
35.6396304,-80.38813329999999,28146,ChIJqZ7KRreIU4gR_y29YMqM444
35.5285762,-80.2209773,28137,ChIJxzqzURF4VIgRQDsRNFzeH9s
35.7379528,-80.3992652,27299,ChIJEWyR7rWTU4gRTX-4VdzuLb8
35.8001643,-79.7175517,27248,ChIJ6yJhSkJAU4gRE2HbBRqcgIo
35.7059958,-79.6277523,27316,ChIJSaz3QVlEU4gRDcfwsjrMLZY
35.8392781,-79.7960523,27317,ChIJEU11a8kUU4gR9OOwdjKJ6iU
35.5367858,-79.67266320000002,27341,ChIJAfuipANfU4gRUdlkimmXwf0
35.556588,-79.5266211,27208,ChIJf-JggI1QU4gRq596JJaM3Q0
35.7059958,-79.6277523,27316,ChIJSaz3QVlEU4gRDcfwsjrMLZY
35.7530672,-79.4253776,27344,ChIJGWn-a4tLU4gR8hAI8hFRfHA
35.6396304,-80.38813329999999,28146,ChIJqZ7KRreIU4gR_y29YMqM444
35.5285762,-80.2209773,28137,ChIJxzqzURF4VIgRQDsRNFzeH9s
35.7379528,-80.3992652,27299,ChIJEWyR7rWTU4gRTX-4VdzuLb8
35.8001643,-79.7175517,27248,ChIJ6yJhSkJAU4gRE2HbBRqcgIo
35.7059958,-79.6277523,27316,ChIJSaz3QVlEU4gRDcfwsjrMLZY
35.8392781,-79.7960523,27317,ChIJEU11a8kUU4gR9OOwdjKJ6iU
35.5367858,-79.67266320000002,27341,ChIJAfuipANfU4gRUdlkimmXwf0
35.556588,-79.5266211,27208,ChIJf-JggI1QU4gRq596JJaM3Q0
35.7059958,-79.6277523,27316,ChIJSaz3QVlEU4gRDcfwsjrMLZY
35.7530672,-79.4253776,27344,ChIJGWn-a4tLU4gR8hAI8hFRfHA
35.5623451,-79.3465557,27252,ChIJ6wBvM8CsrIkRLEbcJz2bVHM
35.7524399,-79.17742679999999,27312,ChIJjduNx7q3rIkR-S7bt2StgUQ
35.4878128,-80.1205256,28127,ChIJwZPCDmd5VIgRdpD-i1p3yso
35.5141213,-80.3101684,28071,ChIJ76sqeMp3VIgRtRj3HbPkvDA
35.4878128,-80.1205256,28127,ChIJwZPCDmd5VIgRdpD-i1p3yso
35.4531341,-79.96403389999999,27371,ChIJ6_8vP3GDVIgRHonrgNqVhpY
35.4531341,-79.96403389999999,27371,ChIJ6_8vP3GDVIgRHonrgNqVhpY
35.4281223,-79.7960523,27356,ChIJVYt_EkuDVIgR260nn_x4qbI
35.4423294,-79.582819,27325,ChIJqVTB5fWnVIgRRGVIxzZIr6I
35.4281223,-79.7960523,27356,ChIJVYt_EkuDVIgR260nn_x4qbI
35.7767155,-79.5715822,27355,ChIJYVkNk-RHU4gRYrk9wJokgDU
35.6096133,-79.391605,27207,ChIJA33kX7JSU4gRFcuaXErvuBE
35.5623451,-79.3465557,27252,ChIJ6wBvM8CsrIkRLEbcJz2bVHM
35.7524399,-79.17742679999999,27312,ChIJjduNx7q3rIkR-S7bt2StgUQ
35.6096133,-79.391605,27207,ChIJA33kX7JSU4gRFcuaXErvuBE
35.4878128,-80.1205256,28127,ChIJwZPCDmd5VIgRdpD-i1p3yso
35.5141213,-80.3101684,28071,ChIJ76sqeMp3VIgRtRj3HbPkvDA
35.4878128,-80.1205256,28127,ChIJwZPCDmd5VIgRdpD-i1p3yso
35.4531341,-79.96403389999999,27371,ChIJ6_8vP3GDVIgRHonrgNqVhpY
35.4531341,-79.96403389999999,27371,ChIJ6_8vP3GDVIgRHonrgNqVhpY
35.5623451,-79.3465557,27252,ChIJ6wBvM8CsrIkRLEbcJz2bVHM
35.7524399,-79.17742679999999,27312,ChIJjduNx7q3rIkR-S7bt2StgUQ
35.4878128,-80.1205256,28127,ChIJwZPCDmd5VIgRdpD-i1p3yso
35.5141213,-80.3101684,28071,ChIJ76sqeMp3VIgRtRj3HbPkvDA
35.4878128,-80.1205256,28127,ChIJwZPCDmd5VIgRdpD-i1p3yso
35.4531341,-79.96403389999999,27371,ChIJ6_8vP3GDVIgRHonrgNqVhpY
35.4531341,-79.96403389999999,27371,ChIJ6_8vP3GDVIgRHonrgNqVhpY
35.4281223,-79.7960523,27356,ChIJVYt_EkuDVIgR260nn_x4qbI
35.4423294,-79.582819,27325,ChIJqVTB5fWnVIgRRGVIxzZIr6I
35.4281223,-79.7960523,27356,ChIJVYt_EkuDVIgR260nn_x4qbI
35.5623451,-79.3465557,27252,ChIJ6wBvM8CsrIkRLEbcJz2bVHM
35.7524399,-79.17742679999999,27312,ChIJjduNx7q3rIkR-S7bt2StgUQ
35.4878128,-80.1205256,28127,ChIJwZPCDmd5VIgRdpD-i1p3yso
35.5141213,-80.3101684,28071,ChIJ76sqeMp3VIgRtRj3HbPkvDA
35.4878128,-80.1205256,28127,ChIJwZPCDmd5VIgRdpD-i1p3yso
35.4531341,-79.96403389999999,27371,ChIJ6_8vP3GDVIgRHonrgNqVhpY
35.4531341,-79.96403389999999,27371,ChIJ6_8vP3GDVIgRHonrgNqVhpY
35.4281223,-79.7960523,27356,ChIJVYt_EkuDVIgR260nn_x4qbI
35.4423294,-79.582819,27325,ChIJqVTB5fWnVIgRRGVIxzZIr6I
35.4281223,-79.7960523,27356,ChIJVYt_EkuDVIgR260nn_x4qbI
35.5623451,-79.3465557,27252,ChIJ6wBvM8CsrIkRLEbcJz2bVHM
35.7524399,-79.17742679999999,27312,ChIJjduNx7q3rIkR-S7bt2StgUQ
35.4878128,-80.1205256,28127,ChIJwZPCDmd5VIgRdpD-i1p3yso
35.5141213,-80.3101684,28071,ChIJ76sqeMp3VIgRtRj3HbPkvDA
35.4878128,-80.1205256,28127,ChIJwZPCDmd5VIgRdpD-i1p3yso
35.4531341,-79.96403389999999,27371,ChIJ6_8vP3GDVIgRHonrgNqVhpY
35.4531341,-79.96403389999999,27371,ChIJ6_8vP3GDVIgRHonrgNqVhpY
35.4281223,-79.7960523,27356,ChIJVYt_EkuDVIgR260nn_x4qbI
35.4423294,-79.582819,27325,ChIJqVTB5fWnVIgRRGVIxzZIr6I
35.4281223,-79.7960523,27356,ChIJVYt_EkuDVIgR260nn_x4qbI
35.5623451,-79.3465557,27252,ChIJ6wBvM8CsrIkRLEbcJz2bVHM
35.7524399,-79.17742679999999,27312,ChIJjduNx7q3rIkR-S7bt2StgUQ
35.4878128,-80.1205256,28127,ChIJwZPCDmd5VIgRdpD-i1p3yso
35.5141213,-80.3101684,28071,ChIJ76sqeMp3VIgRtRj3HbPkvDA
35.4878128,-80.1205256,28127,ChIJwZPCDmd5VIgRdpD-i1p3yso
35.4531341,-79.96403389999999,27371,ChIJ6_8vP3GDVIgRHonrgNqVhpY
35.4531341,-79.96403389999999,27371,ChIJ6_8vP3GDVIgRHonrgNqVhpY
35.4281223,-79.7960523,27356,ChIJVYt_EkuDVIgR260nn_x4qbI
35.4423294,-79.582819,27325,ChIJqVTB5fWnVIgRRGVIxzZIr6I
35.4281223,-79.7960523,27356,ChIJVYt_EkuDVIgR260nn_x4qbI
35.40687,-79.4253776,28327,ChIJyfI8dnCsVIgRcjdXQ084JY0
35.40687,-79.4253776,28327,ChIJyfI8dnCsVIgRcjdXQ084JY0
35.5577867,-79.28034989999999,27256,ChIJEfjWdIGurIkR0vIQI6o9x48
35.555945,-79.1548533,27330,ChIJC1iMDBKmrIkRPUrb2KF2nbQ
35.3040317,-80.3992652,28097,ChIJNUXHz2hrVIgRhFYm41d6SAU
35.32138580000001,-80.2098219,28001,ChIJA1GegrZkVIgRgOFn8zgjdLI
35.4227003,-80.38813329999999,28124,ChIJx8zRohINVIgR9UOVkk0UPBw
35.192376,-79.96403389999999,27306,ChIJw5Y4TzeMVIgRMFZ-wPYTFhw
35.32138580000001,-80.2098219,28001,ChIJA1GegrZkVIgRgOFn8zgjdLI
35.406976,-80.1107531,28009,ChIJD5ot2et9VIgRha9EWJRRGOQ
35.40687,-79.4253776,28327,ChIJyfI8dnCsVIgRcjdXQ084JY0
35.40687,-79.4253776,28327,ChIJyfI8dnCsVIgRcjdXQ084JY0
35.5577867,-79.28034989999999,27256,ChIJEfjWdIGurIkR0vIQI6o9x48
35.555945,-79.1548533,27330,ChIJC1iMDBKmrIkRPUrb2KF2nbQ
35.3040317,-80.3992652,28097,ChIJNUXHz2hrVIgRhFYm41d6SAU
35.32138580000001,-80.2098219,28001,ChIJA1GegrZkVIgRgOFn8zgjdLI
35.4227003,-80.38813329999999,28124,ChIJx8zRohINVIgR9UOVkk0UPBw
35.192376,-79.96403389999999,27306,ChIJw5Y4TzeMVIgRMFZ-wPYTFhw
35.32138580000001,-80.2098219,28001,ChIJA1GegrZkVIgRgOFn8zgjdLI
35.406976,-80.1107531,28009,ChIJD5ot2et9VIgRha9EWJRRGOQ
35.9154211,-79.9304633,27263,ChIJLY5-lacNU4gRxVNloz6Po8k
35.8736458,-80.0758425,27360,ChIJKxNhOvifU4gRBbLD2Zmbuhc
35.9154211,-79.9304633,27263,ChIJLY5-lacNU4gRxVNloz6Po8k
35.9217252,-79.7512033,27313,ChIJtz8VKhYWU4gR8Tf34sRlPdY
35.8943618,-79.6838874,27233,ChIJCSv-MHA-U4gR1qVs6uljjls
35.874799,-79.582819,27298,ChIJMQGxM1U3U4gRgVECcTL0wMk
35.874799,-79.582819,27298,ChIJMQGxM1U3U4gRgVECcTL0wMk
35.8589519,-79.4028639,27349,ChIJr6fW2WAzU4gRAlLGL9H-grw
35.874799,-79.582819,27298,ChIJMQGxM1U3U4gRgVECcTL0wMk
35.9371041,-79.3127543,27253,ChIJ9c7Z5ILSrIkRR9oDFyMYdCY
36.1426113,-80.33245140000001,27106,ChIJaar-mcyzU4gRIXZenehsy9I
36.0564654,-80.33245140000001,27103,ChIJ__9IY2KwU4gRTsjnNaXv_iE
36.0876071,-80.2272516,27110,ChIJL7PpafCuU4gRj7stu1AntJE
36.0104644,-80.1651854,27107,ChIJtSc3rA2mU4gRtwV-rP8Em3A
36.0097372,-80.2878794,27127,ChIJvwFqjLe6U4gRkRiizJzNCrg
36.0937141,-80.3268812,27104,ChIJ2zOQbsuvU4gRbA2a7FJqmYo
36.1925356,-80.15402259999999,27051,ChIJiaylKBarU4gRA5pjuktmX0Y
36.105232,-80.2042436,27101,ChIJcT4u0qWuU4gRCig92e_QwMs
36.1341553,-80.2781262,27109,ChIJb_kAI_qxU4gRqKdhtAMoQfY
36.1322707,-80.0758425,27284,ChIJDa32LrYAU4gRLSLSRJRZnws
36.0564654,-80.33245140000001,27103,ChIJ__9IY2KwU4gRTsjnNaXv_iE
35.6999973,-80.4660256,28144,ChIJxfQWW1KNU4gRwAamnDgrrTw
35.69709,-80.5660657,28147,ChIJiSaHPJjxU4gR9cmJ8GhZyj4
35.9367033,-80.5882803,27028,ChIJnUc0PBLCU4gRlLILjgmjIxs
36.0104644,-80.1651854,27107,ChIJtSc3rA2mU4gRtwV-rP8Em3A
35.9953936,-80.3769999,27012,ChIJg-ktbIG5U4gR6AGE6l7cVZA
35.8736458,-80.0758425,27360,ChIJKxNhOvifU4gRBbLD2Zmbuhc
36.0097372,-80.2878794,27127,ChIJvwFqjLe6U4gRkRiizJzNCrg
35.9459285,-80.4326521,27006,ChIJOeuXbGC_U4gRFEOuJv-33_I
35.8487812,-80.2990246,27295,ChIJW_BGINSXU4gRexeWp66J2I4
36.1426113,-80.33245140000001,27106,ChIJaar-mcyzU4gRIXZenehsy9I
36.0564654,-80.33245140000001,27103,ChIJ__9IY2KwU4gRTsjnNaXv_iE
36.2280805,-80.3087755,27099,ChIJ8T5a4GtNUogRM0TJGY3-mrs
36.0876071,-80.2272516,27110,ChIJL7PpafCuU4gRj7stu1AntJE
36.3334581,-80.4326521,27043,ChIJ6V23AEtIUogRdtoH0rNAMCM
35.9367033,-80.5882803,27028,ChIJnUc0PBLCU4gRlLILjgmjIxs
36.0869844,-80.4437781,27023,ChIJ7zb5xjK2U4gRxWimdamC8zQ
36.0104644,-80.1651854,27107,ChIJtSc3rA2mU4gRtwV-rP8Em3A
36.2858565,-80.2432839,27019,ChIJ07Vcz5dRUogRrrg9enHHLhU
36.3116368,-80.1651854,27052,ChIJZUe4KvhWUogRDI4aN2OHLv8
36.1426113,-80.33245140000001,27106,ChIJaar-mcyzU4gRIXZenehsy9I
36.0564654,-80.33245140000001,27103,ChIJ__9IY2KwU4gRTsjnNaXv_iE
36.2280805,-80.3087755,27099,ChIJ8T5a4GtNUogRM0TJGY3-mrs
36.0876071,-80.2272516,27110,ChIJL7PpafCuU4gRj7stu1AntJE
36.3334581,-80.4326521,27043,ChIJ6V23AEtIUogRdtoH0rNAMCM
35.9367033,-80.5882803,27028,ChIJnUc0PBLCU4gRlLILjgmjIxs
36.0869844,-80.4437781,27023,ChIJ7zb5xjK2U4gRxWimdamC8zQ
36.0104644,-80.1651854,27107,ChIJtSc3rA2mU4gRtwV-rP8Em3A
36.2858565,-80.2432839,27019,ChIJ07Vcz5dRUogRrrg9enHHLhU
36.3116368,-80.1651854,27052,ChIJZUe4KvhWUogRDI4aN2OHLv8
35.9623181,-79.9752212,27260,ChIJTxbQTMAOU4gRZEznwR7BeYc
35.9957936,-79.9248669,27282,ChIJ4YpmbeYPU4gR32YmAZuqDe0
36.0196499,-79.7624177,27406,ChIJxyVfL4wXU4gRPnJPpD0_zgI
36.0091763,-80.0199562,27265,ChIJkUk595cIU4gRz2S7GXJy6Do
36.0175027,-79.8632834,27407,ChIJv8JzzX8aU4gRNuupAmEI7rI
35.9679365,-80.0423151,27262,ChIJWakfXREJU4gRiBHFtnh1TTE
36.0955555,-79.4379412,27215,ChIJ5QK59ZEuU4gR7JYKLZKuDkg
36.1097128,-79.6838874,27301,ChIJxZ3YUd4gU4gRbOIJxM5Dlp0
35.9551354,-79.63898209999999,27283,ChIJrX87jXE7U4gRSVvcMyJeIsc
36.0196499,-79.7624177,27406,ChIJxyVfL4wXU4gRPnJPpD0_zgI
35.2307383,-80.1651854,28128,ChIJUbruiBdhVIgRWMVvdH1URQw
35.2444614,-79.80726109999999,27229,ChIJWcFl2ueWVIgRannCQAaeYSo
35.0254895,-80.0534923,28170,ChIJUZ-HlAZYVIgRXkMKuycU0kg
35.0825804,-79.6951103,28338,ChIJXabQXCrAVIgR2OEfMdvbIYg
35.3591939,-79.7512033,27209,ChIJyei_02KYVIgRAs79peAOOT8
35.2035849,-79.4591378,28374,ChIJYdpqGvOzVIgRTBBO-7d5TNc
35.2444614,-79.80726109999999,27229,ChIJWcFl2ueWVIgRannCQAaeYSo
35.1974673,-79.63898209999999,27281,ChIJY63KmRO5VIgRjKWwhnTIZck
35.2647916,-79.53786339999999,27376,ChIJn65Av0mwVIgRgIrnKG1g7VM
35.0825804,-79.6951103,28338,ChIJXabQXCrAVIgR2OEfMdvbIYg
35.4023416,-79.1322744,27332,ChIJOzmtzDpZq4kRbNct6Nc5-4s
35.652202,-79.1435645,27559,ChIJD61L__uXrIkRBb15cRiVx2s
35.4023416,-79.1322744,27332,ChIJOzmtzDpZq4kRbNct6Nc5-4s
35.7315398,-78.7759559,27518,ChIJIxasDciMrIkR44090DEGtOc
35.6814022,-78.7589558,27539,ChIJ8eClpb2NrIkRxz7dZ0is1jw
35.7748764,-78.95145099999999,27523,ChIJBfIp6GTsrIkRYrkqhYRjjA4
35.6453952,-78.95145099999999,27562,ChIJ85f1z3mWrIkRsku_sXeKopE
35.3899723,-78.9966888,27505,ChIJbXZIrXNgq4kRS0nFt5vu37s
35.8263369,-79.0419053,27517,ChIJ6euYnhrCrIkRhuvM1fOWO_U
35.7418297,-78.713608,27606,ChIJwR-GNsn0rIkRdM6RrQTusmA
35.2307383,-80.1651854,28128,ChIJUbruiBdhVIgRWMVvdH1URQw
35.2444614,-79.80726109999999,27229,ChIJWcFl2ueWVIgRannCQAaeYSo
35.0254895,-80.0534923,28170,ChIJUZ-HlAZYVIgRXkMKuycU0kg
35.0825804,-79.6951103,28338,ChIJXabQXCrAVIgR2OEfMdvbIYg
35.3591939,-79.7512033,27209,ChIJyei_02KYVIgRAs79peAOOT8
35.2035849,-79.4591378,28374,ChIJYdpqGvOzVIgRTBBO-7d5TNc
35.2444614,-79.80726109999999,27229,ChIJWcFl2ueWVIgRannCQAaeYSo
35.1974673,-79.63898209999999,27281,ChIJY63KmRO5VIgRjKWwhnTIZck
35.2647916,-79.53786339999999,27376,ChIJn65Av0mwVIgRgIrnKG1g7VM
35.0825804,-79.6951103,28338,ChIJXabQXCrAVIgR2OEfMdvbIYg
35.3160268,-79.6277523,27242,ChIJsYAAeYykVIgRNDKLSSu-JSo
35.1146143,-79.4366324,28315,ChIJGbKuWvS1VIgRAl-KmDnbqHw
35.172795,-79.7238623,28367,ChIJbd0VmzK-VIgR1xt76OJILvM
35.2407851,-79.31134569999999,28350,ChIJv9Z9075Nq4kRnymCfQuWGWM
35.2762929,-79.17742679999999,28326,ChIJd-J6qchWq4kRLOPZ8IQvkFI
35.1739185,-79.3690831,28387,ChIJGS5NOlVLq4kR_JAm8kW8oO4
35.1934784,-79.2225576,28394,ChIJ4xxNFwFPq4kR5ZrDwI0g4sY
35.3200912,-78.8269385,28323,ChIJ0e_yJUt7q4kRc2lJoaT2z_A
35.2762929,-79.17742679999999,28326,ChIJd-J6qchWq4kRLOPZ8IQvkFI
35.14014969999999,-78.7589558,28395,ChIJyQpL_ql2q4kRXaCkm6SE03A
35.2346471,-78.72494689999999,28356,ChIJ_ehjuZpvq4kR8m1zDqxbhi4
35.1724135,-78.8722341,28311,ChIJ6Urg_ZRuq4kRb9LJLm5Gfj8
35.3094774,-78.713608,28339,ChIJTSzdjpZ-q4kREAUZhYKklJ4
35.1277336,-79.03625439999999,28307,ChIJdRPV8MFBq4kRkLO16Lpd9Us
35.2557102,-78.95145099999999,28390,ChIJuz7Yck9oq4kR7btWkAtvYFo
35.1701664,-79.0249516,28308,ChIJ52-6jeBpq4kRvr35EAaiwpI
35.5843376,-78.8000278,27526,ChIJzcuRTTGFrIkRrg0v6WuMwCg
35.38163,-78.9061921,27546,ChIJ8UbD3oxiq4kRkq7Vol36XxA
35.4805515,-78.6909263,27501,ChIJU0dYgDyHrIkR-5e-wMET0Ls
35.1707632,-78.62285039999999,28344,ChIJn23p5RWdq4kRtmCfnYEYFvw
35.2369644,-78.52065,28334,ChIJPaDFfwqEq4kRvOYeN9pe78Y
35.0457992,-78.3387066,28328,ChIJieDYeV2Vq4kRGQfzfH9hVKg
35.3776598,-78.4069732,27524,ChIJy9o2UDJ0rIkR3rzeYUFnwFE
35.3907897,-78.54337009999999,27504,ChIJ4UDtK1d4rIkRPiZCap8ZWyE
35.1872817,-78.6540576,28342,ChIJX-7viVudq4kRtSp0Sfd_QbY
35.2194127,-78.3387066,28366,ChIJw-euyEmMq4kRiobcl8XCktc
35.5029834,-78.36146719999999,27577,ChIJmddOoktyrIkRWmWndrUxr3c
35.4134951,-78.6682395,27521,ChIJVyRmVHeArIkRNycrSMeTJog
34.9394992,-79.80726109999999,28379,ChIJ61rkOijmVIgR-Tm1jvuYliU
34.9944079,-79.9416549,28091,ChIJp70w7BbwVIgRzGCoWJdA-qY
35.2369644,-78.52065,28334,ChIJPaDFfwqEq4kRvOYeN9pe78Y
35.0457992,-78.3387066,28328,ChIJieDYeV2Vq4kRGQfzfH9hVKg
35.3776598,-78.4069732,27524,ChIJy9o2UDJ0rIkR3rzeYUFnwFE
35.3907897,-78.54337009999999,27504,ChIJ4UDtK1d4rIkRPiZCap8ZWyE
35.1872817,-78.6540576,28342,ChIJX-7viVudq4kRtSp0Sfd_QbY
35.2194127,-78.3387066,28366,ChIJw-euyEmMq4kRiobcl8XCktc
35.5029834,-78.36146719999999,27577,ChIJmddOoktyrIkRWmWndrUxr3c
35.4134951,-78.6682395,27521,ChIJVyRmVHeArIkRNycrSMeTJog
34.9394992,-79.80726109999999,28379,ChIJ61rkOijmVIgR-Tm1jvuYliU
34.9944079,-79.9416549,28091,ChIJp70w7BbwVIgRzGCoWJdA-qY
35.2369644,-78.52065,28334,ChIJPaDFfwqEq4kRvOYeN9pe78Y
35.0457992,-78.3387066,28328,ChIJieDYeV2Vq4kRGQfzfH9hVKg
35.3776598,-78.4069732,27524,ChIJy9o2UDJ0rIkR3rzeYUFnwFE
35.3907897,-78.54337009999999,27504,ChIJ4UDtK1d4rIkRPiZCap8ZWyE
35.1872817,-78.6540576,28342,ChIJX-7viVudq4kRtSp0Sfd_QbY
35.2194127,-78.3387066,28366,ChIJw-euyEmMq4kRiobcl8XCktc
35.5029834,-78.36146719999999,27577,ChIJmddOoktyrIkRWmWndrUxr3c
35.4134951,-78.6682395,27521,ChIJVyRmVHeArIkRNycrSMeTJog
34.9394992,-79.80726109999999,28379,ChIJ61rkOijmVIgR-Tm1jvuYliU
34.9944079,-79.9416549,28091,ChIJp70w7BbwVIgRzGCoWJdA-qY
35.2369644,-78.52065,28334,ChIJPaDFfwqEq4kRvOYeN9pe78Y
35.0457992,-78.3387066,28328,ChIJieDYeV2Vq4kRGQfzfH9hVKg
35.3776598,-78.4069732,27524,ChIJy9o2UDJ0rIkR3rzeYUFnwFE
35.3907897,-78.54337009999999,27504,ChIJ4UDtK1d4rIkRPiZCap8ZWyE
35.1872817,-78.6540576,28342,ChIJX-7viVudq4kRtSp0Sfd_QbY
35.2194127,-78.3387066,28366,ChIJw-euyEmMq4kRiobcl8XCktc
35.5029834,-78.36146719999999,27577,ChIJmddOoktyrIkRWmWndrUxr3c
35.4134951,-78.6682395,27521,ChIJVyRmVHeArIkRNycrSMeTJog
34.9394992,-79.80726109999999,28379,ChIJ61rkOijmVIgR-Tm1jvuYliU
34.9944079,-79.9416549,28091,ChIJp70w7BbwVIgRzGCoWJdA-qY
34.9691766,-80.1651854,28135,ChIJMzImbcZZVIgRwHz5bduRtNQ
34.8589845,-80.0199562,28119,ChIJmSGnBBf8VIgRblYpyW6QJ2w
34.8330302,-79.582819,28351,ChIJo6kyPXnQVIgRCZOfQ14abSI
34.8844123,-79.67266320000002,28345,ChIJOQUarxfcVIgR-rX5wsP8pj8
34.9600758,-79.53786339999999,28363,ChIJ6_VSxeTPVIgR3YtPNZSaPfE
35.0353818,-79.5266211,28347,ChIJT8IIwATGVIgRSJZEObnnpaY
34.9482928,-79.4028639,28396,ChIJJ8ahsmDNVIgRZxURdByhxdY
34.7776407,-79.4478858,28352,ChIJDQDqfejVVIgRo4NnL-nO6L0
35.0967907,-79.4816378,28373,ChIJv2jhtuK1VIgRHHdvECk7gq4
34.7974004,-79.17742679999999,28377,ChIJ2S5x500vq4kRfPr7r-Jqlss
34.9691766,-80.1651854,28135,ChIJMzImbcZZVIgRwHz5bduRtNQ
34.8589845,-80.0199562,28119,ChIJmSGnBBf8VIgRblYpyW6QJ2w
34.8330302,-79.582819,28351,ChIJo6kyPXnQVIgRCZOfQ14abSI
34.8844123,-79.67266320000002,28345,ChIJOQUarxfcVIgR-rX5wsP8pj8
34.9600758,-79.53786339999999,28363,ChIJ6_VSxeTPVIgR3YtPNZSaPfE
35.0353818,-79.5266211,28347,ChIJT8IIwATGVIgRSJZEObnnpaY
34.9482928,-79.4028639,28396,ChIJJ8ahsmDNVIgRZxURdByhxdY
34.7776407,-79.4478858,28352,ChIJDQDqfejVVIgRo4NnL-nO6L0
35.0967907,-79.4816378,28373,ChIJv2jhtuK1VIgRHHdvECk7gq4
34.7974004,-79.17742679999999,28377,ChIJ2S5x500vq4kRfPr7r-Jqlss
35.5648713,-78.6682395,27592,ChIJ9_24SgGIrIkRjQxVxn7LHbk
35.6251337,-78.8495889,27540,ChIJwUotJjaQrIkRb-GBJJTFO4o
35.4802348,-78.81702729999999,27543,ChIJgUNu-l6DrIkRjrIOEKfX_OQ
35.7698044,-78.78162189999999,27511,ChIJlXOKnyLzrIkRs7ArTkYiLCg
35.7178049,-78.9175088,27502,ChIJ6z606CSTrIkRI4zffw8g48w
34.9082156,-79.0758037,28357,ChIJI3v13Lc8q4kR3QqHdincb84
35.0432488,-79.24511489999999,28376,ChIJSbd4UNYwq4kRUa_ddFo82Lg
34.8468825,-79.1209829,28386,ChIJAVUjEWIkq4kR7G0q3A6b2vA
35.0585989,-79.0532061,28314,ChIJC0zZblcVq4kRU5GJItnMeNE
34.9788116,-78.8948741,28306,ChIJDfr6ATYQq4kRpbAcZHNjRnQ
35.5648713,-78.6682395,27592,ChIJ9_24SgGIrIkRjQxVxn7LHbk
35.6251337,-78.8495889,27540,ChIJwUotJjaQrIkRb-GBJJTFO4o
35.4802348,-78.81702729999999,27543,ChIJgUNu-l6DrIkRjrIOEKfX_OQ
35.7698044,-78.78162189999999,27511,ChIJlXOKnyLzrIkRs7ArTkYiLCg
35.7178049,-78.9175088,27502,ChIJ6z606CSTrIkRI4zffw8g48w
34.9082156,-79.0758037,28357,ChIJI3v13Lc8q4kR3QqHdincb84
35.0432488,-79.24511489999999,28376,ChIJSbd4UNYwq4kRUa_ddFo82Lg
34.8468825,-79.1209829,28386,ChIJAVUjEWIkq4kR7G0q3A6b2vA
35.0585989,-79.0532061,28314,ChIJC0zZblcVq4kRU5GJItnMeNE
34.9788116,-78.8948741,28306,ChIJDfr6ATYQq4kRpbAcZHNjRnQ
35.9713132,-79.9940966,27268,ChIJgbUXG9kOU4gRR9CH4HUkrH8
36.0373556,-79.59405439999999,27377,ChIJY57V1EwkU4gRMTHYs64ET-c
36.0373556,-79.59405439999999,27377,ChIJY57V1EwkU4gRMTHYs64ET-c
36.0338432,-79.4851529,27201,ChIJiaAMkZYuU4gR-8vVbSotFRI
36.00858059999999,-79.3296565,27258,ChIJvS3cX4jTrIkRjEeCkUtkBIY
36.1051434,-79.2676668,27302,ChIJ__U9LsIprYkRHHIp4IRWfDc
36.021627,-79.3627478,27359,ChIJ6RLpOTzTrIkRTXJkV4OQ5oc
36.3262595,-80.3435908,27021,ChIJ87z5mJdOUogRun2sumwrNBk
36.1695363,-80.3992652,27040,ChIJi9wZUF20U4gR1udNDq30fEI
36.2465305,-80.2878794,27045,ChIJ9ee0MEBNUogRamUBBZx3Uzo
36.1883226,-80.49938569999999,27018,ChIJhSbBzwzLU4gRNYThlhx3_Hw
36.2358622,-80.42152460000001,27050,ChIJP1dzGSVLUogRCt4oPTstdxo
36.3262595,-80.3435908,27021,ChIJ87z5mJdOUogRun2sumwrNBk
36.1695363,-80.3992652,27040,ChIJi9wZUF20U4gR1udNDq30fEI
36.2465305,-80.2878794,27045,ChIJ9ee0MEBNUogRamUBBZx3Uzo
36.1568627,-80.2432839,27105,ChIJWQOb0aitU4gRP7MUrs9JWls
36.3403723,-80.0590804,27042,ChIJTSr1T0X4UogRgdElLGwXMBM
36.0887108,-79.08710049999999,27278,ChIJz7NGZv3erIkRoQIOEEaMISw
35.9207806,-79.1322744,27516,ChIJBe4PEOPErIkR-cXamd7Lrfk
36.1066802,-79.1661407,27243,ChIJ7Y5gcSvYrIkRQoYXeam3fx8
35.9207806,-79.1322744,27516,ChIJBe4PEOPErIkR-cXamd7Lrfk
35.8019588,-78.8948741,27519,ChIJP4wwm0rsrIkRimRD9sjenVg
35.9722081,-79.04755589999999,27514,ChIJ74Zks2jCrIkRUtUnd9ZxFxY
35.9107512,-79.0814523,27510,ChIJP2OcQxLDrIkRv00NFVC_bLw
35.890231,-78.9175088,27713,ChIJAbLr1MrorIkRuHrK95PbzB8
35.0500543,-78.90053329999999,28305,ChIJ0Zv9bUoTq4kRx5Q1ZeeDHnM
35.0938365,-78.9627624,28303,ChIJuXUsfxZrq4kRt7ieR4-1fyw
35.06375209999999,-78.8722341,28301,ChIJETod9tlsq4kRBE-LkTO56vg
34.9119197,-78.9966888,28371,ChIJr0ZXGY8Xq4kRARrwLpLYmeI
35.0250998,-78.6909263,28391,ChIJaz-4bosKq4kRIKDb__UcvVA
35.1236025,-78.9910352,28310,ChIJC45a6H9pq4kRbB_JM2fg-3Q
35.0500543,-78.90053329999999,28305,ChIJ0Zv9bUoTq4kRx5Q1ZeeDHnM
35.0938365,-78.9627624,28303,ChIJuXUsfxZrq4kRt7ieR4-1fyw
35.06375209999999,-78.8722341,28301,ChIJETod9tlsq4kRBE-LkTO56vg
34.9119197,-78.9966888,28371,ChIJr0ZXGY8Xq4kRARrwLpLYmeI
35.0250998,-78.6909263,28391,ChIJaz-4bosKq4kRIKDb__UcvVA
35.1236025,-78.9910352,28310,ChIJC45a6H9pq4kRbB_JM2fg-3Q
35.0285822,-78.9627624,28304,ChIJ202x0Q4Vq4kR5hTqxiIdVdM
34.9303695,-78.72494689999999,28312,ChIJ6Tw9tcoLq4kRBaT-ju6mF1c
34.9155618,-78.9175088,28348,ChIJq6z47NcQq4kR2Vdxs1tuSqE
35.0500543,-78.90053329999999,28305,ChIJ0Zv9bUoTq4kRx5Q1ZeeDHnM
35.0938365,-78.9627624,28303,ChIJuXUsfxZrq4kRt7ieR4-1fyw
35.06375209999999,-78.8722341,28301,ChIJETod9tlsq4kRBE-LkTO56vg
35.1236025,-78.9910352,28310,ChIJC45a6H9pq4kRbB_JM2fg-3Q
35.0285822,-78.9627624,28304,ChIJ202x0Q4Vq4kR5hTqxiIdVdM
35.0500543,-78.90053329999999,28305,ChIJ0Zv9bUoTq4kRx5Q1ZeeDHnM
35.0938365,-78.9627624,28303,ChIJuXUsfxZrq4kRt7ieR4-1fyw
35.06375209999999,-78.8722341,28301,ChIJETod9tlsq4kRBE-LkTO56vg
35.0250998,-78.6909263,28391,ChIJaz-4bosKq4kRIKDb__UcvVA
35.0285822,-78.9627624,28304,ChIJ202x0Q4Vq4kR5hTqxiIdVdM
35.6544684,-78.5887951,27529,ChIJqyjr70ZhrIkRZisWbGtFHSg
35.6631125,-78.6795836,27603,ChIJq3OKvSpgrIkR94cclSqC4Oc
35.5981967,-78.4524591,27520,ChIJRVY5kdporIkR6D_biZCHLq4
35.6544684,-78.5887951,27529,ChIJqyjr70ZhrIkRZisWbGtFHSg
35.0500543,-78.90053329999999,28305,ChIJ0Zv9bUoTq4kRx5Q1ZeeDHnM
35.0938365,-78.9627624,28303,ChIJuXUsfxZrq4kRt7ieR4-1fyw
35.06375209999999,-78.8722341,28301,ChIJETod9tlsq4kRBE-LkTO56vg
35.1236025,-78.9910352,28310,ChIJC45a6H9pq4kRbB_JM2fg-3Q
35.0285822,-78.9627624,28304,ChIJ202x0Q4Vq4kR5hTqxiIdVdM
35.0500543,-78.90053329999999,28305,ChIJ0Zv9bUoTq4kRx5Q1ZeeDHnM
35.7482425,-78.5547283,27610,ChIJR4SKIl1brIkRoo59BkTwyB8
35.6544684,-78.5887951,27529,ChIJqyjr70ZhrIkRZisWbGtFHSg
35.6631125,-78.6795836,27603,ChIJq3OKvSpgrIkR94cclSqC4Oc
35.5804492,-78.2703951,27576,ChIJpa_iuXETrIkRMUjjAipNxUk
35.5981967,-78.4524591,27520,ChIJRVY5kdporIkR6D_biZCHLq4
35.6325169,-78.36146719999999,27527,ChIJTU4pk95rrIkRpJAAoxm2mUc
35.7482425,-78.5547283,27610,ChIJR4SKIl1brIkRoo59BkTwyB8
35.6544684,-78.5887951,27529,ChIJqyjr70ZhrIkRZisWbGtFHSg
35.7618435,-78.36146719999999,27591,ChIJkYyVAf9DrIkRGxIaZ4cuza0
35.7847649,-78.4865602,27545,ChIJRbbS8apcrIkRgtn9VmPgFAc
34.2124444,-118.6848112,91307,ChIJbfFCBYIn6IAR-uROhYCOF5A
34.1129907,-118.754782,91301,ChIJVbZ2qMIg6IARDkYHC_-TttI
34.1971476,-118.824722,91362,ChIJ3ymuH3Il6IARxrIIxMs0gDI
34.2436893,-118.7023068,93064,ChIJB3bQnUIo6IARjrAk2aViFEw
34.2249609,-118.6556478,91304,ChIJkZcBXgOdwoAR5az092jopKc
34.2024698,-118.8741429,91360,ChIJvd69qxkw6IARd8Qj5b4-YXc
34.1307949,-118.6848112,91302,ChIJSTBjiX4g6IARDftgjAFcnpA
34.1880333,-118.7606115,91377,ChIJn6qwOdsl6IAR5J5naPdMOlY
34.2386799,-118.4805569,91343,ChIJYx8zU5mQwoARdneZiI4X9Mw
34.2124444,-118.6848112,91307,ChIJbfFCBYIn6IAR-uROhYCOF5A
34.0615492,-118.8363756,90265,ChIJzdXBne4i6IARfbXgYnm6e2c
34.1544724,-118.5914696,91364,ChIJPS7O7cKewoARLOCDXAEsKoc
34.1014861,-118.4571974,90077,ChIJ-Xq2Qhu9woARsP9-1SVSh8I
34.1076983,-118.61481,90290,ChIJYdt6pmKfwoARSfjlzlRj_ec
34.1662848,-118.5447787,91356,ChIJv_GoVB6ZwoARK1tBsMCEoDc
34.0845245,-118.5447787,90272,ChIJEfQu4k2iwoARpHze8Sw5DX8
34.0895186,-118.3315838,90038,ChIJsTqNwjS_woARfynQvVpjXXA
34.1012181,-118.325739,90028,ChIJ7R61IzC_woAR8dSP8Vlmbas
34.1615135,-118.3403506,91505,ChIJNcHUo4KVwoAR1KZoX8x2rao
34.1568172,-118.3246431,91521,ChIJ0csaRMK_woARzgexeRnw3KU
34.144801,-118.2563169,91210,ChIJXdh9PP_AwoAR-wjNnF8OsZ4
34.1893001,-118.2702036,91207,ChIJu9z8eCnAwoAR66Iy95oi3iw
34.1247921,-118.1181199,91108,ChIJt2dCObXEwoARfND70wjtZd4
34.1980641,-118.2351192,91208,ChIJk9kibXfqwoAReY0p8n3WIgA
34.1531191,-118.2614332,91203,ChIJ_Vg0U0LAwoARjqfjDal2POs
34.1220545,-118.2935891,90027,ChIJZYshU5rAwoARiT5G9FVp4P0
34.0625448,-118.3089341,90010,ChIJJ6WyzZq4woARQgVgVvM8slo
34.13224690000001,-118.2117257,90041,ChIJ2YIww1_BwoARFEtWiESt-TI
34.1426959,-118.1568847,91123,ChIJo4LYyXfDwoARu5a282GAXV4
34.1058277,-118.153228,91030,ChIJ65pQUYrEwoARdMI8VSBQLb0
34.0448583,-118.4484367,90025,ChIJO2rWeGq7woARdH7LypKDfxg
34.1728461,-118.325739,91506,ChIJASYx8l-VwoARz3PrZ9GYpaM
34.1487141,-118.3608046,91602,ChIJJykq0SK-woARimI2wg0G4_k
34.0931603,-118.3783347,90069,ChIJ3-5er7i-woARMMjlocfGeVY
34.1366259,-118.3987842,91604,ChIJMQpOCuK9woARRCxVHzGBTh0
34.0664817,-118.3520389,90036,ChIJ5X33UCa5woARj5ojy6Bxoas
34.1030032,-118.4104684,90210,ChIJ7xfS-zW8woARXNkAJzX5Hs8
34.0617109,-118.4017053,90212,ChIJqUDJVPq7woARQCihjpgEix0
34.0522561,-118.452087,90073,ChIJEzc5K728woARBoAmdgjwudM
34.050751,-118.3841777,90035,ChIJ-38k7mG5woARYA6DTJP5gzQ
33.9697897,-118.2468148,90001,ChIJHfsmIgbJwoARADaMiO5XZPM
33.9511133,-118.2497386,90002,ChIJS5AGVXnJwoARyr_6y_afbGw
33.9717336,-118.0215363,90602,ChIJ104cU4jTwoARx4cIFHGuvNU
33.9722831,-118.0712981,90606,ChIJsQ2b0TLSwoARO_95XJJO5kE
33.9111458,-118.2351192,90222,ChIJ3UNNTqTLwoARaZ-dNgR950I
33.9511133,-118.2497386,90002,ChIJS5AGVXnJwoARyr_6y_afbGw
33.9697897,-118.2468148,90001,ChIJHfsmIgbJwoARADaMiO5XZPM
33.9111458,-118.2351192,90222,ChIJ3UNNTqTLwoARaZ-dNgR950I
33.9511133,-118.2497386,90002,ChIJS5AGVXnJwoARyr_6y_afbGw
33.9717336,-118.0215363,90602,ChIJ104cU4jTwoARx4cIFHGuvNU
33.9990858,-117.9834738,91745,ChIJrXS6FjPUwoARkobf8Hcrt7g
33.9722831,-118.0712981,90606,ChIJsQ2b0TLSwoARO_95XJJO5kE
34.0274622,-117.9307584,91744,ChIJJZeONwTWwoARNnHhwrHj5Hs
33.9810337,-117.8897468,91748,ChIJ_XafRu0qw4AROitDBTgK8j8
33.9697897,-118.2468148,90001,ChIJHfsmIgbJwoARADaMiO5XZPM
33.9511133,-118.2497386,90002,ChIJS5AGVXnJwoARyr_6y_afbGw
34.0390107,-118.2672801,90015,ChIJl_m-TMbHwoARF4Uisg4Acpw
34.1337367,-118.2468148,91205,ChIJNwKW-hnBwoARH_LwJdrO6Og
34.1175895,-118.188329,90042,ChIJMx27PQ_EwoARjUR6OHiE_pY
34.0309258,-118.2380432,90021,ChIJ7xX9vifGwoAReSq9vVAPoHA
34.1629905,-118.2935891,91201,ChIJXdldWgTAwoARilABkV2v7aU
34.1456654,-118.1268976,91106,ChIJxSCXlljDwoARIJZNRZkVRbc
34.1377656,-118.2614332,91204,ChIJ18-TBOXAwoAROuC6w9KB66E
34.0880507,-118.2965121,90029,ChIJ5xDBN1HHwoARfhknB-ompdQ
34.1688371,-118.2702036,91202,ChIJfwp7DTfAwoAR_mmRVRwGiLw
34.0656464,-117.9424743,91790,ChIJsx_XC87XwoARpZsn4k7DnZQ
34.167305,-118.3987842,91607,ChIJM2Ffvg6WwoARziyl5qcCWJw
34.1772371,-118.3082034,91502,ChIJCVxudVeVwoARW9U16dkHHDI
34.1483152,-118.3407158,91522,ChIJVcFUucu_woARrQv64kFWYSU
34.1658804,-118.3637264,91601,ChIJz-f_he2VwoARnai3BY2-xVU
34.070264,-118.4440562,90095,ChIJF4iHJ4-8woARXqNVM9iKp8A
34.0661071,-118.3841777,90211,ChIJj5DH_k-5woARyHYmE_nXl5Q
34.0741548,-118.3724915,90048,ChIJ1WgNtUu5woAR-sNTOQBvprc
34.1147313,-118.3637264,90046,ChIJJSwnRu2-woARvWTh--iVMgs
34.0631451,-118.4367551,90024,ChIJGSquI3y8woAR6Gd_SpR_pDY
34.0489277,-118.3403506,90019,ChIJk148aPm4woARliK8tZp97eo
34.167305,-118.3987842,91607,ChIJM2Ffvg6WwoARziyl5qcCWJw
34.1772371,-118.3082034,91502,ChIJCVxudVeVwoARW9U16dkHHDI
34.1483152,-118.3407158,91522,ChIJVcFUucu_woARrQv64kFWYSU
34.1658804,-118.3637264,91601,ChIJz-f_he2VwoARnai3BY2-xVU
34.070264,-118.4440562,90095,ChIJF4iHJ4-8woARXqNVM9iKp8A
34.0661071,-118.3841777,90211,ChIJj5DH_k-5woARyHYmE_nXl5Q
34.0741548,-118.3724915,90048,ChIJ1WgNtUu5woAR-sNTOQBvprc
34.1147313,-118.3637264,90046,ChIJJSwnRu2-woARvWTh--iVMgs
34.0631451,-118.4367551,90024,ChIJGSquI3y8woAR6Gd_SpR_pDY
34.0489277,-118.3403506,90019,ChIJk148aPm4woARliK8tZp97eo
34.1752565,-116.8674757,92305,ChIJm97j21hK24ARPZSTC-0GR9g
34.2428813,-116.9087014,92315,ChIJyShFyYizxIARAy_dzrZwoa8
34.3350492,-116.5373923,92285,ChIJg-q4_8LTxIARjznbWnzWP2s
34.2296046,-116.8556955,92314,ChIJ3yNiUlOxxIARqgICOO885rA
34.2426357,-116.827715,92386,ChIJNeGV9Ai1xIARi4GvHbIyvmA
34.4375566,-116.8910342,92356,ChIJf7vLsDiUxIAR_T7DydVQ994
34.0761084,-116.5845767,92256,ChIJ4S5DwIUl24ARJXW1RM0F2hI
34.1502862,-116.4429944,92284,ChIJOUL7_U7U2oARQv5R-bgE2e4
34.1752565,-116.8674757,92305,ChIJm97j21hK24ARPZSTC-0GR9g
34.3350492,-116.5373923,92285,ChIJg-q4_8LTxIARjznbWnzWP2s
33.615828,-117.9307584,92663,ChIJkULREAfg3IARl4Z-WuTprys
33.6061462,-117.8912117,92662,ChIJ6SKHKmTg3IAR0AP-K998ibc
33.36146310000001,-118.4396756,90704,ChIJr4lDhDBv3YARS_eATfMUZ-0
33.36146310000001,-118.4396756,90704,ChIJr4lDhDBv3YARS_eATfMUZ-0
33.36146310000001,-118.4396756,90704,ChIJr4lDhDBv3YARS_eATfMUZ-0
33.36146310000001,-118.4396756,90704,ChIJr4lDhDBv3YARS_eATfMUZ-0
34.0595859,-117.3968996,92316,ChIJ8S65bsay3IARNML5eJN6jdM
34.0050096,-117.5378439,91752,ChIJD0qlXna13IARTpTP884iU1Q
34.0739866,-117.6141457,91764,ChIJ451WmU40w4ARTyUM8Hg4Dec
33.9996052,-117.4321452,92509,ChIJeRZs7o6z3IARKQ_slovItQY
34.13566730000001,-117.6141457,91701,ChIJB0wwgVM2w4ARIRC3nW0gUuQ
34.1063841,-117.3703189,92376,ChIJiwerfw1Nw4ARpcPIaTscdLU
34.1547243,-117.5143603,91739,ChIJzXEV-5JJw4ARQP518s3mzEM
34.1559542,-117.4027743,92377,ChIJtYJ6P3tOw4ARFedSWyqZWLk
34.145515,-117.4673845,92336,ChIJIcFEYVJJw4AR47gfX1SB4IE
34.0482749,-117.4438924,92337,ChIJycglzKu03IARkTdWvwd-6sA
